{
"type": "FeatureCollection",
"name": "ne_50m_geography_regions_points",
"crs": { "type": "name", "properties": { "name": "urn:ogc:def:crs:OGC:1.3:CRS84" } },
"features": [
{ "type": "Feature", "properties": { "scalerank": 2, "featurecla": "waterfall", "name": "Niagara Falls", "comment": null, "name_alt": null, "lat_y": 43.087653, "long_x": -79.044073, "region": "North America", "subregion": null, "min_zoom": 5.0, "label": "Niagara Falls", "name_ar": "شلالات نياجارا", "name_bn": "নায়াগ্রা জলপ্রপাত", "name_de": "Niagarafälle", "name_en": "Niagara Falls", "name_es": "Cataratas del Niágara", "name_fr": "chutes du Niagara", "name_el": "Καταρράκτες του Νιαγάρα", "name_hi": "नायाग्रा जल प्रपात", "name_hu": "Niagara-vízesés", "name_id": "Niagara", "name_it": "cascate del Niagara", "name_ja": "ナイアガラの滝", "name_ko": "나이아가라 폭포", "name_nl": "Niagarawatervallen", "name_pl": "Niagara", "name_pt": "Cataratas do Niágara", "name_ru": "Ниагарский водопад", "name_sv": "Niagarafallen", "name_tr": "Niagara Şelalesi", "name_vi": "Thác Niagara", "name_zh": "尼亚加拉瀑布", "wikidataid": "Q34221", "ne_id": 1159105019, "name_fa": "آبشار نیاگارا", "name_he": "מפלי ניאגרה", "name_uk": "Ніагарський водоспад", "name_ur": "نیاگرا آبشار", "name_zht": "尼亞加拉瀑布城" }, "geometry": { "type": "Point", "coordinates": [ -79.044117805072517, 43.087713934369077 ] } },
{ "type": "Feature", "properties": { "scalerank": 2, "featurecla": "waterfall", "name": "Salto Angel", "comment": null, "name_alt": "Angel Falls", "lat_y": 5.686836, "long_x": -62.061848, "region": "South America", "subregion": null, "min_zoom": 5.0, "label": "Salto Angel", "name_ar": "شلالات آنجل", "name_bn": "অ্যাঞ্জেল জলপ্রপাত", "name_de": "Salto Ángel", "name_en": "Angel Falls", "name_es": "Salto Ángel", "name_fr": "Salto Angel", "name_el": "Καταρράκτες Έιντζελ", "name_hi": "एन्जिल जलप्रपात", "name_hu": "Angel-vízesés", "name_id": "Air terjun Angel", "name_it": "Salto Angel", "name_ja": "エンジェルフォール", "name_ko": "앙헬 폭포", "name_nl": "Ángelwaterval", "name_pl": "Salto Angel", "name_pt": "Salto Ángel", "name_ru": "Анхель", "name_sv": "Angelfallen", "name_tr": "Angel Şelalesi", "name_vi": "Thác nước Ángel", "name_zh": "安赫尔瀑布", "wikidataid": "Q80299", "ne_id": 1159105051, "name_fa": "آبشار آنجل", "name_he": "מפל אנחל", "name_uk": "Анхель", "name_ur": "اینجل آبشار", "name_zht": "安赫尔瀑布" }, "geometry": { "type": "Point", "coordinates": [ -62.061818000385017, 5.686896063275327 ] } },
{ "type": "Feature", "properties": { "scalerank": 2, "featurecla": "waterfall", "name": "Iguazu Falls", "comment": null, "name_alt": null, "lat_y": -25.568265, "long_x": -54.582842, "region": "South America", "subregion": null, "min_zoom": 5.0, "label": "Iguazu Falls", "name_ar": "شلالات إجوازو", "name_bn": "ইগুয়াসু জলপ্রপাত", "name_de": "Iguazú-Wasserfälle", "name_en": "Iguaçu Falls", "name_es": "Cataratas del Iguazú", "name_fr": "chutes d'Iguazú", "name_el": "Καταρράκτες Ιγκουασού", "name_hi": "इग्वासू जलप्रपात", "name_hu": "Iguazú-vízesés", "name_id": "Air terjun Iguazu", "name_it": "cascate dell'Iguazú", "name_ja": "イグアスの滝", "name_ko": "이구아수 폭포", "name_nl": "Watervallen van de Iguaçu", "name_pl": "Wodospad Iguazú", "name_pt": "Cataratas do Iguaçu", "name_ru": "Игуасу", "name_sv": "Iguazúfallen", "name_tr": "Iguazú Şelalesi", "name_vi": "Thác Iguazu", "name_zh": "伊瓜苏瀑布", "wikidataid": "Q36332", "ne_id": 1159105053, "name_fa": "آبشار ایگواسو", "name_he": "מפלי איגואסו", "name_uk": "Водоспад Іґуасу", "name_ur": "اگوازو آبشار", "name_zht": "伊瓜苏瀑布" }, "geometry": { "type": "Point", "coordinates": [ -54.582997199603767, -25.568291925005923 ] } },
{ "type": "Feature", "properties": { "scalerank": 3, "featurecla": "cape", "name": "Gees Gwardafuy", "comment": null, "name_alt": null, "lat_y": 11.812855, "long_x": 51.235173, "region": "Africa", "subregion": null, "min_zoom": 5.1, "label": "Gees Gwardafuy", "name_ar": "رأس عسير", "name_bn": "গীস গোয়ারডাফি", "name_de": "Kap Guardafui", "name_en": "Cape Guardafui", "name_es": "Cabo Guardafui", "name_fr": "cap Gardafui", "name_el": "Γκις Γκουανταφούι", "name_hi": "गीस ग्वारदाफुय", "name_hu": "Guardafui-fok", "name_id": "Gees Gwardafuy", "name_it": "Capo Guardafui", "name_ja": "グアルダフィ岬", "name_ko": "지스 그와르다푸이", "name_nl": "Cape Guardafui", "name_pl": "Gees Gwardafuy", "name_pt": "Cabo Guardafui", "name_ru": "Гвардафуй", "name_sv": "Kap Gardafai", "name_tr": "Gees Gwardafuy", "name_vi": "Cape Guardafui", "name_zh": "瓜达富伊角", "wikidataid": "Q1145030", "ne_id": 1159104885, "name_fa": "گییس جیواردافوی", "name_he": "כף גייס גוורדאפוי", "name_uk": "Гардафуй", "name_ur": "گیس گوارڈافائی", "name_zht": "瓜達富伊角" }, "geometry": { "type": "Point", "coordinates": [ 51.258313644180184, 11.822028799226407 ] } },
{ "type": "Feature", "properties": { "scalerank": 3, "featurecla": "waterfall", "name": "Victoria Falls", "comment": null, "name_alt": null, "lat_y": -17.77079, "long_x": 25.460133, "region": "Africa", "subregion": null, "min_zoom": 5.1, "label": "Victoria Falls", "name_ar": "شلالات فيكتوريا", "name_bn": "ভিক্টোরিয়া জলপ্রপাত", "name_de": "Victoriafälle", "name_en": "Victoria Falls", "name_es": "cascades Victòria", "name_fr": "chutes Victoria", "name_el": "Καταρράκτες Βικτωρίας", "name_hi": "विक्टोरिया जलप्रपात", "name_hu": "Viktória-vízesés", "name_id": "Air terjun Victoria", "name_it": "cascate Vittoria", "name_ja": "ヴィクトリアの滝", "name_ko": "빅토리아 폭포", "name_nl": "Victoriawatervallen", "name_pl": "Wodospady Wiktorii", "name_pt": "Cataratas Vitória", "name_ru": "Виктория", "name_sv": "Victoriafallen", "name_tr": "Victoria Şelalesi", "name_vi": "Thác Victoria", "name_zh": "维多利亚瀑布", "wikidataid": "Q43278", "ne_id": 1159104887, "name_fa": "آبشار ویکتوریا", "name_he": "מפל ויקטוריה", "name_uk": "Вікторія", "name_ur": "وکٹوریا آبشار", "name_zht": "维多利亚瀑布" }, "geometry": { "type": "Point", "coordinates": [ 25.852793816021233, -17.928033135943423 ] } },
{ "type": "Feature", "properties": { "scalerank": 3, "featurecla": "island", "name": "Wright Island", "comment": null, "name_alt": null, "lat_y": -50.959168, "long_x": -72.995002, "region": "Antarctica", "subregion": null, "min_zoom": 5.1, "label": "Wright I.", "name_ar": "جزيرة رايت", "name_bn": "রাইট দ্বীপ", "name_de": "Wright Island", "name_en": "Wright Island", "name_es": "Wright Island", "name_fr": "Wright Island", "name_el": "Νήσος Ράιτ", "name_hi": "राइट द्वीप", "name_hu": "Wright-sziget", "name_id": "Pulau Wright", "name_it": "Wright Island", "name_ja": "ライト島", "name_ko": "라이트 아일랜드", "name_nl": "Wright Island", "name_pl": "Wright Island", "name_pt": "Ilha Wright", "name_ru": "остров Райт", "name_sv": "Wright Island", "name_tr": "Wright Adası", "name_vi": "Đảo Wright", "name_zh": "莱特岛", "wikidataid": "Q6980542", "ne_id": 1159104901, "name_fa": "جزیره رایت", "name_he": "האי רייט", "name_uk": "острів Райт", "name_ur": "رائٹ جزیرہ", "name_zht": "萊特島" }, "geometry": { "type": "Point", "coordinates": [ -116.892628547260017, -74.066705010943423 ] } },
{ "type": "Feature", "properties": { "scalerank": 3, "featurecla": "island", "name": "Grant Island", "comment": null, "name_alt": null, "lat_y": -50.959168, "long_x": -72.995002, "region": "Antarctica", "subregion": null, "min_zoom": 5.1, "label": "Grant I.", "name_ar": "جزيرة غرانت", "name_bn": "গ্র্যান্ট আইল্যান্ড", "name_de": "Grant-Insel", "name_en": "Grant Island", "name_es": "Isla Grant", "name_fr": "île Grant", "name_el": "Νήσος Γκραντ", "name_hi": "ग्रांट द्वीप", "name_hu": "Grant-sziget", "name_id": "Pulau Grant", "name_it": "Grant Island", "name_ja": "グラント島", "name_ko": "그랜트 아일랜드", "name_nl": "Grant Island", "name_pl": "Wyspa Granta", "name_pt": "Ilha Grant", "name_ru": "остров Грант", "name_sv": "Grant Island", "name_tr": "Grant Adası", "name_vi": "Đảo Grant", "name_zh": "格蘭特島", "wikidataid": "Q1543171", "ne_id": 1159104903, "name_fa": "جزیره گرنت", "name_he": "האי גראנט", "name_uk": "озеро Грант", "name_ur": "گرانٹ جزیرہ", "name_zht": "格蘭特島" }, "geometry": { "type": "Point", "coordinates": [ -131.485401984760017, -74.482720635943423 ] } },
{ "type": "Feature", "properties": { "scalerank": 3, "featurecla": "island", "name": "Newman Island", "comment": null, "name_alt": null, "lat_y": -50.959168, "long_x": -72.995002, "region": "Antarctica", "subregion": null, "min_zoom": 5.1, "label": "Newman I.", "name_ar": "جزيرة نيومان", "name_bn": "নিউম্যান আইল্যান্ড", "name_de": "Newman Island", "name_en": "Newman Island", "name_es": "Isla Newman", "name_fr": "Newman Island", "name_el": "Νήσος Νιούμαν", "name_hi": "न्यूमैन द्वीप", "name_hu": "Newman-sziget", "name_id": "Pulau Newman", "name_it": "Newman Island", "name_ja": "ニューマン島", "name_ko": "뉴먼 아일랜드", "name_nl": "Newman Island", "name_pl": "Newman Island", "name_pt": "Ilha Newman", "name_ru": "остров Ньюман", "name_sv": "Newman Island", "name_tr": "Newman Adası", "name_vi": "Đảo Newman", "name_zh": "維曼島", "wikidataid": "Q6272638", "ne_id": 1159104905, "name_fa": "جزیره نیومنن", "name_he": "האי ניומן", "name_uk": "острів Ньюман", "name_ur": "نیومین جزیرہ", "name_zht": "維曼島" }, "geometry": { "type": "Point", "coordinates": [ -145.686818000385017, -75.591851495318423 ] } },
{ "type": "Feature", "properties": { "scalerank": 3, "featurecla": "island", "name": "Dean Island", "comment": null, "name_alt": null, "lat_y": -50.959168, "long_x": -72.995002, "region": "Antarctica", "subregion": null, "min_zoom": 5.1, "label": "Dean I.", "name_ar": "جزيرة دين", "name_bn": "ডীন আইল্যান্ড", "name_de": "Dean Insel", "name_en": "Dean Island", "name_es": "Isla Dean", "name_fr": "Île Dean", "name_el": "Νήσος Ντιν", "name_hi": "डीन द्वीप", "name_hu": "Dean-sziget", "name_id": "Pulau Dean", "name_it": "Dean Island", "name_ja": "ディーン島", "name_ko": "딘 아일랜드", "name_nl": "Dean Island", "name_pl": "Wyspa Dean", "name_pt": "Ilha dean", "name_ru": "остров Дин", "name_sv": "Dean Island", "name_tr": "Dean Adası", "name_vi": "Đảo Dean", "name_zh": "迪安島", "wikidataid": "Q559842", "ne_id": 1159104907, "name_fa": "جزیره دین", "name_he": "האי דין", "name_uk": "острів Дін", "name_ur": "ڈین جزیرہ", "name_zht": "迪安島" }, "geometry": { "type": "Point", "coordinates": [ -127.634388801166267, -74.500664971880923 ] } },
{ "type": "Feature", "properties": { "scalerank": 3, "featurecla": "cape", "name": "Cape Canaveral", "comment": null, "name_alt": null, "lat_y": 28.483713, "long_x": -80.534941, "region": "North America", "subregion": null, "min_zoom": 5.1, "label": "Cape Canaveral", "name_ar": "رأس كانافيرال", "name_bn": "কেপ কানাভেরাল", "name_de": "Cape Canaveral", "name_en": "Cape Canaveral", "name_es": "Cabo Cañaveral", "name_fr": "cap Canaveral", "name_el": "Ακρωτήριο Κανάβεραλ", "name_hi": "केप कनवेरल", "name_hu": "Canaveral-fok", "name_id": "Cape Canaveral", "name_it": "Cape Canaveral", "name_ja": "ケープ・カナベラル", "name_ko": "케이프커내버럴", "name_nl": "Cape Canaveral", "name_pl": "Canaveral", "name_pt": "Cabo Canaveral", "name_ru": "Канаверал", "name_sv": "Cape Canaveral", "name_tr": "Cape Canaveral", "name_vi": "Mũi Canaveral", "name_zh": "卡纳维拉尔角", "wikidataid": "Q193401", "ne_id": 1159105007, "name_fa": "دماغه کاناورال", "name_he": "כף קנוורל", "name_uk": "Мис Канаверал", "name_ur": "کیپ کیناویرال", "name_zht": "卡納維爾角" }, "geometry": { "type": "Point", "coordinates": [ -80.536256036368215, 28.473056814472134 ] } },
{ "type": "Feature", "properties": { "scalerank": 3, "featurecla": "cape", "name": "Cape Mendocino", "comment": null, "name_alt": null, "lat_y": 40.350222, "long_x": -124.323474, "region": "North America", "subregion": null, "min_zoom": 5.1, "label": "Cape Mendocino", "name_ar": "رأس مينوسينو", "name_bn": "কেপ মেন্ডোসিনো", "name_de": "Cape Mendocino", "name_en": "Cape Mendocino", "name_es": "Cabo Mendocino", "name_fr": "cap Mendocino", "name_el": "Ακρωτήριο Μεντοσίνο", "name_hi": "केप मेंडोकिनो", "name_hu": "Mendocino-fok", "name_id": "Tanjung Mendocino", "name_it": "Capo Mendocino", "name_ja": "メンドシーノ岬", "name_ko": "케이프 멘도시노", "name_nl": "Cape Mendocino", "name_pl": "Przylądek Mendocino", "name_pt": "Cabo Mendocino", "name_ru": "Мендосино", "name_sv": "Cape Mendocino", "name_tr": "Mendocino Burnu", "name_vi": "Mũi Mendocino", "name_zh": "曼杜西诺角", "wikidataid": "Q780339", "ne_id": 1159105009, "name_fa": "دماغه مندوسینو", "name_he": "כף מנדוצ'ינו", "name_uk": "мис Мендочіно", "name_ur": "کیپ مینڈوسینو", "name_zht": "曼杜西諾角" }, "geometry": { "type": "Point", "coordinates": [ -124.392017450434253, 40.442220655372829 ] } },
{ "type": "Feature", "properties": { "scalerank": 3, "featurecla": "cape", "name": "Cabo San Lucas", "comment": null, "name_alt": null, "lat_y": 22.887711, "long_x": -109.969843, "region": "North America", "subregion": null, "min_zoom": 5.1, "label": null, "name_ar": "كابو سان لوكاس", "name_bn": "কাবু সান লুকাস", "name_de": "Cabo San Lucas", "name_en": "Cabo San Lucas", "name_es": "Cabo San Lucas", "name_fr": "Cabo San Lucas", "name_el": "Κάβο Σαν Λούκας", "name_hi": "कबो सैन लुकस", "name_hu": "Cabo San Lucas", "name_id": "Cabo San Lucas", "name_it": "Cabo San Lucas", "name_ja": "サンルーカス岬", "name_ko": "카보산루카스", "name_nl": "Cabo San Lucas", "name_pl": "Cabo San Lucas", "name_pt": "Cabo San Lucas", "name_ru": "Кабо-Сан-Лукас", "name_sv": "Cabo San Lucas", "name_tr": "Cabo San Lucas", "name_vi": "Cabo San Lucas", "name_zh": "卡波圣卢卡斯", "wikidataid": "Q1020776", "ne_id": 1159105011, "name_fa": "کابو سن لوکاس", "name_he": "קאבו סן לוקאס", "name_uk": "Кабо-Сан-Лукас", "name_ur": "کابو سن لوکس", "name_zht": "卡波聖盧卡斯" }, "geometry": { "type": "Point", "coordinates": [ -109.969838019916267, 22.887762762494077 ] } },
{ "type": "Feature", "properties": { "scalerank": 3, "featurecla": "cape", "name": "Cape Churchill", "comment": null, "name_alt": null, "lat_y": 58.752014, "long_x": -93.182023, "region": "North America", "subregion": null, "min_zoom": 5.1, "label": null, "name_ar": "رأس تشرشل", "name_bn": "কেপ চার্চিল", "name_de": "Cape Churchill", "name_en": "Cape Churchill", "name_es": "Cabo Churchill", "name_fr": "Cape Churchill", "name_el": "Ακρωτήριο Τσώρτσιλ", "name_hi": "केप चर्चिल", "name_hu": "Churchill-fok", "name_id": "Tanjung Churchill", "name_it": "Cape Churchill", "name_ja": "チャーチル岬", "name_ko": "케이프 처칠", "name_nl": "Cape Churchill", "name_pl": "Cape Churchill", "name_pt": "Cabo Churchill", "name_ru": "мыс Черчилл", "name_sv": "Cape Churchill", "name_tr": "Churchill Burnu", "name_vi": "Mũi Churchill", "name_zh": "丘吉尔角", "wikidataid": null, "ne_id": 1159105013, "name_fa": "دماغه چرچیل", "name_he": "כף צ'רצ'יל", "name_uk": "мис Черчіль", "name_ur": "کیپ چرچل", "name_zht": "丘吉爾角" }, "geometry": { "type": "Point", "coordinates": [ -93.182118293353767, 58.752081610150327 ] } },
{ "type": "Feature", "properties": { "scalerank": 3, "featurecla": "cape", "name": "Cape Cod", "comment": null, "name_alt": null, "lat_y": 41.734867, "long_x": -69.964865, "region": "North America", "subregion": null, "min_zoom": 5.1, "label": "Cape Cod", "name_ar": "رأس كاد", "name_bn": "কেপ কড", "name_de": "Cape Cod", "name_en": "Cape Cod", "name_es": "Cabo Cod", "name_fr": "cap Cod", "name_el": "Ακρωτήριο Κοντ", "name_hi": "केप कॉड", "name_hu": "Cape Cod", "name_id": "Tanjung Cod", "name_it": "Capo Cod", "name_ja": "ケープコッド", "name_ko": "케이프코드", "name_nl": "Cape Cod", "name_pl": "Cape Cod", "name_pt": "Cabo Cod", "name_ru": "Кейп-Код", "name_sv": "Cape Cod", "name_tr": "Cod Burnu", "name_vi": "Mũi Cod", "name_zh": "鳕鱼角", "wikidataid": "Q49152", "ne_id": 1159105015, "name_fa": "دماغه کاد", "name_he": "קייפ קוד", "name_uk": "Кейп-Код", "name_ur": "کیپ کاڈ", "name_zht": "鳕鱼角" }, "geometry": { "type": "Point", "coordinates": [ -70.036878335674459, 41.991458993438499 ] } },
{ "type": "Feature", "properties": { "scalerank": 3, "featurecla": "cape", "name": "Cape May", "comment": null, "name_alt": null, "lat_y": 37.2017, "long_x": -75.926791, "region": "North America", "subregion": null, "min_zoom": 5.1, "label": "Cape May", "name_ar": "رأس ماي", "name_bn": "কেপ মে", "name_de": "Cape May", "name_en": "Cape May", "name_es": "Cabo May", "name_fr": "Cape May", "name_el": "Ακρωτήριο Μέι", "name_hi": "केप मे", "name_hu": "May-fok", "name_id": "Tanjung May", "name_it": "Cape May", "name_ja": "メイ岬", "name_ko": "케이프 메이", "name_nl": "Cape May", "name_pl": "Cape May", "name_pt": "Cape May", "name_ru": "Мей", "name_sv": "Cape May", "name_tr": "May Burnu", "name_vi": "Mũi May", "name_zh": "五月角", "wikidataid": "Q2065437", "ne_id": 1159105017, "name_fa": "دماغه می", "name_he": "כף מאי", "name_uk": "мис Мей", "name_ur": "کیپ مے", "name_zht": "開普梅" }, "geometry": { "type": "Point", "coordinates": [ -74.951219331649881, 38.929696459870677 ] } },
{ "type": "Feature", "properties": { "scalerank": 3, "featurecla": "cape", "name": "Cabo de Hornos", "comment": null, "name_alt": "Cape Horn", "lat_y": -55.862824, "long_x": -67.169425, "region": "South America", "subregion": null, "min_zoom": 5.1, "label": "Cabo de Hornos", "name_ar": "كايب هورن", "name_bn": "কেপ হর্ন", "name_de": "Kap Hoorn", "name_en": "Cape Horn", "name_es": "Cabo de Hornos", "name_fr": "cap Horn", "name_el": "Ακρωτήριο Χορν", "name_hi": "हॉर्न अंतरीप", "name_hu": "Horn-fok", "name_id": "Tanjung Horn", "name_it": "Capo Horn", "name_ja": "ホーン岬", "name_ko": "혼곶", "name_nl": "Kaap Hoorn", "name_pl": "Horn", "name_pt": "Cabo Horn", "name_ru": "Горн", "name_sv": "Kap Horn", "name_tr": "Horn Burnu", "name_vi": "Cape Horn", "name_zh": "合恩角", "wikidataid": "Q4078", "ne_id": 1159105049, "name_fa": "دماغه هورن", "name_he": "כף הורן", "name_uk": "мис Горн", "name_ur": "راس ہورن", "name_zht": "合恩角" }, "geometry": { "type": "Point", "coordinates": [ -67.169422980853767, -55.862847589068423 ] } },
{ "type": "Feature", "properties": { "scalerank": 3, "featurecla": "cape", "name": "Cape of Good Hope", "comment": null, "name_alt": null, "lat_y": -34.307311, "long_x": 18.441206, "region": "Africa", "subregion": null, "min_zoom": 5.1, "label": "Cape of Good Hope", "name_ar": "رأس الرجاء الصالح", "name_bn": "উত্তমাশা অন্তরীপ", "name_de": "Kap der Guten Hoffnung", "name_en": "Cape of Good Hope", "name_es": "Cabo de Buena Esperanza", "name_fr": "cap de Bonne-Espérance", "name_el": "Ακρωτήριο της Καλής Ελπίδος", "name_hi": "केप ऑफ़ गुड होप", "name_hu": "Jóreménység foka", "name_id": "Tanjung Harapan", "name_it": "Capo di Buona Speranza", "name_ja": "喜望峰", "name_ko": "희망봉", "name_nl": "Kaap de Goede Hoop", "name_pl": "Przylądek Dobrej Nadziei", "name_pt": "Cabo da Boa Esperança", "name_ru": "Мыс Доброй Надежды", "name_sv": "Godahoppsudden", "name_tr": "Ümit Burnu", "name_vi": "Mũi Hảo Vọng", "name_zh": "好望角", "wikidataid": "Q4092", "ne_id": 1159105165, "name_fa": "دماغه امید نیک", "name_he": "כף התקווה הטובה", "name_uk": "Мис Доброї Надії", "name_ur": "راس امید", "name_zht": "好望角" }, "geometry": { "type": "Point", "coordinates": [ 18.441294792583733, -34.307183526568423 ] } },
{ "type": "Feature", "properties": { "scalerank": 3, "featurecla": "cape", "name": "Cape Palmas", "comment": null, "name_alt": null, "lat_y": 4.373924, "long_x": -7.457356, "region": "Africa", "subregion": null, "min_zoom": 5.1, "label": "Cape Palmas", "name_ar": "رأس النخيل", "name_bn": "কেপ পামাস", "name_de": "Cape Palmas", "name_en": "Cape Palmas", "name_es": "Cabo Palmas", "name_fr": "cap des Palmes", "name_el": "Ακρωτήριο Πάλμας", "name_hi": "केप पालमास", "name_hu": "Pálma-fok", "name_id": "Tanjung Palmas", "name_it": "Capo Palmas", "name_ja": "パルマス岬", "name_ko": "케이프 팔마스", "name_nl": "Cape Palmas", "name_pl": "Cape Palmas", "name_pt": "Cabo Palmas", "name_ru": "Пальмас", "name_sv": "Cape Palmas", "name_tr": "Palmas Burnu", "name_vi": "Mũi Palmas", "name_zh": "帕尔马斯角", "wikidataid": "Q1034489", "ne_id": 1159105169, "name_fa": "دماغه پالماس", "name_he": "כף פלמס", "name_uk": "мис Пальмас", "name_ur": "کیپ پالماس", "name_zht": "帕爾馬斯角" }, "geometry": { "type": "Point", "coordinates": [ -7.457386848041267, 4.373968817181577 ] } },
{ "type": "Feature", "properties": { "scalerank": 3, "featurecla": "cape", "name": "Cape Verde", "comment": null, "name_alt": null, "lat_y": 14.732312, "long_x": -17.471776, "region": "Africa", "subregion": null, "min_zoom": 5.1, "label": "Cape Verde", "name_ar": "شبه جزيرة الرأس الأخضر", "name_bn": "কেপ ভার্দে", "name_de": "Cap-Vert-Halbinsel", "name_en": "Cap-Vert", "name_es": "Cabo Verde", "name_fr": "Presqu'île du Cap-Vert", "name_el": "Πράσινο Ακρωτήριο", "name_hi": "केप वर्दे", "name_hu": "Zöld-fok", "name_id": "Tanjung Verde", "name_it": "Penisola di Capo Verde", "name_ja": "ヴェルデ岬", "name_ko": "베르데곶", "name_nl": "Kaap Verde", "name_pl": "Przylądek Zielony", "name_pt": "Cabo Verde", "name_ru": "Зелёный Мыс", "name_sv": "Kap Verdehalvön", "name_tr": "Cap-Vert", "name_vi": "Mũi Verde", "name_zh": "佛得角半岛", "wikidataid": "Q216889", "ne_id": 1159105171, "name_fa": "دماغه ورده", "name_he": "קאפ-ור", "name_uk": "Зелений Мис", "name_ur": "کیپ وردے", "name_zht": "佛得角半島" }, "geometry": { "type": "Point", "coordinates": [ -17.471730109760017, 14.732489324994077 ] } },
{ "type": "Feature", "properties": { "scalerank": 3, "featurecla": "cape", "name": "Cap Bon", "comment": null, "name_alt": null, "lat_y": 37.073954, "long_x": 11.024061, "region": "Africa", "subregion": null, "min_zoom": 5.1, "label": "Cap Bon", "name_ar": "الرأس الطيب", "name_bn": "ক্যাপ বঁ", "name_de": "Kap Bon", "name_en": "Cap Bon", "name_es": "Cabo Bon", "name_fr": "cap Bon", "name_el": "Καπ Μπον", "name_hi": "कैप बोन", "name_hu": "Cap Bon", "name_id": "Tanjung Bon", "name_it": "Capo Bon", "name_ja": "ボン岬半島", "name_ko": "캡 본", "name_nl": "Kaap Bon", "name_pl": "Al-Watan al-Kibli", "name_pt": "Cabo Bon", "name_ru": "Бон", "name_sv": "Kap Bon", "name_tr": "Cap Bon", "name_vi": "Mũi Bon", "name_zh": "卡本半岛", "wikidataid": "Q849879", "ne_id": 1159105173, "name_fa": "دماغه بون", "name_he": "כף בון", "name_uk": "Бон", "name_ur": "کیپ بون", "name_zht": "卡本半島" }, "geometry": { "type": "Point", "coordinates": [ 11.024180534771233, 37.073981024212827 ] } },
{ "type": "Feature", "properties": { "scalerank": 3, "featurecla": "pole", "name": "Oceanic pole of inaccessibility", "comment": null, "name_alt": null, "lat_y": -48.865032, "long_x": -123.401986, "region": "Seven seas (open ocean)", "subregion": "South Pacific Ocean", "min_zoom": 5.1, "label": null, "name_ar": "قطب المحيط المتعذر الوصول إليه", "name_bn": "ওশেনিক পোল অফ ইনঅ্যাক্সেসিবিলিটি", "name_de": "Pol der Unzugänglichkeit", "name_en": "pole of inaccessibility", "name_es": "Polo de inaccesibilidad", "name_fr": "pôle d'inaccessibilité", "name_el": "Ωκεάνιος πόλος της σχετικής προσπέλασης", "name_hi": "दुर्गमता का महासागरीय ध्रुव", "name_hu": "Némó-pont", "name_id": "Titik terpencil", "name_it": "Polo dell'inaccessibilità", "name_ja": "到達不能極", "name_ko": "도달불능극", "name_nl": "pool van ontoegankelijkheid", "name_pl": "Biegun niedostępności", "name_pt": "polo de inacessibilidade", "name_ru": "Полюс недоступности", "name_sv": "otillgänglighetspol", "name_tr": "Erişilemez okyanus kutbu", "name_vi": "Cực bất khả tiếp cận", "name_zh": "難抵極", "wikidataid": "Q752003", "ne_id": 1159105175, "name_fa": "دوردستترینها", "name_he": "הקוטב האוקיאני הבלתי נגיש", "name_uk": "Полюс недосяжності", "name_ur": "اوشینک پول آف ان ایکسیسیبلٹی", "name_zht": "難抵極" }, "geometry": { "type": "Point", "coordinates": [ -123.402027961322517, -48.865044854693423 ] } },
{ "type": "Feature", "properties": { "scalerank": 3, "featurecla": "pole", "name": "South Magnetic Pole 2005 (est)", "comment": null, "name_alt": null, "lat_y": -48.865032, "long_x": -123.401986, "region": "Antarctica", "subregion": "Southern Ocean", "min_zoom": 5.1, "label": null, "name_ar": "قطب جنوبي مغناطيسي", "name_bn": "দক্ষিণ চৌম্বক মেরু 2005 (est)", "name_de": "magnetischer Südpol", "name_en": "South Magnetic Pole", "name_es": "polo sur magnético", "name_fr": "Pôle Sud magnétique", "name_el": "Νότος Μαγνητικός Πόλος 2005 (est)", "name_hi": "दक्षिण चुंबकीय ध्रुव 2005 (स्था)", "name_hu": "Déli Mágneses Pólus (2005-óta)", "name_id": "Kutub Magnetis Selatan", "name_it": "Polo Sud Magnetico", "name_ja": "南磁極", "name_ko": "자남극", "name_nl": "Magnetische zuidpool 2005", "name_pl": "Biegun Południowy 2005 (est)", "name_pt": "polo sul magnético", "name_ru": "южный магнитный полюс", "name_sv": "magnetiska sydpolen", "name_tr": "Güney Manyetik Kutbu 2005 (est)", "name_vi": "Cực Nam từ", "name_zh": "地磁南极", "wikidataid": "Q1043682", "ne_id": 1159105177, "name_fa": "قطب مغناطیسی جنوب", "name_he": "קוטב מגנטי דרום 2005 (est)", "name_uk": "південний магнітний полюс", "name_ur": "ساؤتھ میگنیٹک پول 2005 (est)", "name_zht": "地磁南極" }, "geometry": { "type": "Point", "coordinates": [ 137.854258659771233, -64.518243096880923 ] } },
{ "type": "Feature", "properties": { "scalerank": 3, "featurecla": "pole", "name": "North Magnetic Pole 2005 (est)", "comment": null, "name_alt": null, "lat_y": -48.865032, "long_x": -123.401986, "region": "Seven seas (open ocean)", "subregion": "Arctic Ocean", "min_zoom": 5.1, "label": null, "name_ar": "قطب شمالي مغناطيسي", "name_bn": "নর্থ ম্যাগনেটিক পোল 2005 (est)", "name_de": "magnetischer Nordpol", "name_en": "North Magnetic Pole", "name_es": "Polo norte magnético", "name_fr": "Pôle Nord magnétique", "name_el": "μαγνητικός Βόρειος Πόλος", "name_hi": "उत्तर चुम्बकीय ध्रुव", "name_hu": "North Magnetic Pole 2005 (est)", "name_id": "Kutub Utara Medan Magnet Bumi 2005 (perkiraan)", "name_it": "Polo Nord magnetico 2005 (est)", "name_ja": "北磁極", "name_ko": "자북극", "name_nl": "magnetische noordpool", "name_pl": "Biegun północny 2005 (est)", "name_pt": "polo norte magnético", "name_ru": "северный магнитный полюс", "name_sv": "magnetiska nordpolen", "name_tr": "Manyetik Kuzey Kutbu", "name_vi": "Cực Bắc từ", "name_zh": "地磁北极", "wikidataid": "Q842763", "ne_id": 1159105179, "name_fa": "قطب مغناطیسی شمال", "name_he": "הקוטב המגנטי הצפוני 2005 (est)", "name_uk": "Північний магнітний полюс", "name_ur": "نارتھ میگنیٹک پول 2005 (est)", "name_zht": "地磁北極" }, "geometry": { "type": "Point", "coordinates": [ -114.405690070697517, 82.710089422650327 ] } },
{ "type": "Feature", "properties": { "scalerank": 4, "featurecla": "cape", "name": "Lands End", "comment": null, "name_alt": null, "lat_y": 50.069677, "long_x": -5.668629, "region": "Europe", "subregion": "British Isles", "min_zoom": 5.7, "label": "Lands End", "name_ar": "لاندز إند", "name_bn": "ল্যান্ডস এন্ড", "name_de": "Land’s End", "name_en": "Land's End", "name_es": "Land's End", "name_fr": "Land's End", "name_el": "Λαντς Έντ", "name_hi": "लैंड्स एंड", "name_hu": "Lands End", "name_id": "Lands End", "name_it": "Land's End", "name_ja": "ランズ・エンド", "name_ko": "랜즈 엔드", "name_nl": "Land's End", "name_pl": "Land's End", "name_pt": "Land's End", "name_ru": "Лендс-Энд", "name_sv": "Land's End", "name_tr": "Lands End", "name_vi": "Mũi Lands End", "name_zh": "兰兹角", "wikidataid": "Q169532", "ne_id": 1159104689, "name_fa": "لندز اند", "name_he": "לנדס אנד", "name_uk": "Лендс-Енд", "name_ur": "لینڈز اینڈ", "name_zht": "蘭茲角" }, "geometry": { "type": "Point", "coordinates": [ -5.668629523822517, 50.069708563275327 ] } },
{ "type": "Feature", "properties": { "scalerank": 4, "featurecla": "cape", "name": "Cape York", "comment": null, "name_alt": null, "lat_y": 76.218919, "long_x": -68.218612, "region": "North America", "subregion": "Greenland", "min_zoom": 5.7, "label": "Cape York", "name_ar": "رأس يورك", "name_bn": "কেপ ইয়র্ক", "name_de": "Kap York", "name_en": "Cape York", "name_es": "Cabo York", "name_fr": "cap York", "name_el": "Ακρωτήριο Γιορκ", "name_hi": "केप यॉर्क", "name_hu": "York-fok", "name_id": "Tanjung York", "name_it": "Capo York", "name_ja": "ヨーク岬", "name_ko": "케이프 요크", "name_nl": "Kaap York", "name_pl": "Kap York", "name_pt": "Cabo York", "name_ru": "Йорк", "name_sv": "Kap York", "name_tr": "York Burnu", "name_vi": "Mũi York", "name_zh": "约克角", "wikidataid": "Q1636266", "ne_id": 1159104697, "name_fa": "دماغه یورک", "name_he": "כף יורק", "name_uk": "Мис Йорк", "name_ur": "کیپ یارک", "name_zht": "約克角" }, "geometry": { "type": "Point", "coordinates": [ -68.218617316791267, 76.218878485150327 ] } },
{ "type": "Feature", "properties": { "scalerank": 4, "featurecla": "cape", "name": "Nunap Isua", "comment": null, "name_alt": "Cape Farewell", "lat_y": 59.862583, "long_x": -43.90088, "region": "North America", "subregion": "Greenland", "min_zoom": 5.7, "label": null, "name_ar": "نوناب إيسوا", "name_bn": "নানাপ ইসুয়া", "name_de": "Kap Farvel", "name_en": "Cape Farewell", "name_es": "Cabo Farewell", "name_fr": "cap Farvel", "name_el": "Ακρωτήριο Φάρβελ", "name_hi": "नुनाप इसुआ", "name_hu": "Farvel-fok", "name_id": "Nunap Isua", "name_it": "Capo Farvel", "name_ja": "ファーベル岬", "name_ko": "누납 이수아", "name_nl": "Kaap Vaarwel", "name_pl": "Farvel", "name_pt": "Cabo Farvel", "name_ru": "Фарвель", "name_sv": "Kap Farvel", "name_tr": "Nunap Isua", "name_vi": "Mũi Nunap Isua", "name_zh": "法韦尔角", "wikidataid": "Q128097", "ne_id": 1159104701, "name_fa": "نوناپ ایسوا", "name_he": "כף פרוול", "name_uk": "Мис Фарвель", "name_ur": "نوناپ ایسوا", "name_zht": "法韋爾角" }, "geometry": { "type": "Point", "coordinates": [ -43.900807258197517, 59.862677313275327 ] } },
{ "type": "Feature", "properties": { "scalerank": 4, "featurecla": "cape", "name": "Cape Vohimena", "comment": null, "name_alt": null, "lat_y": -25.546355, "long_x": 45.158683, "region": "Africa", "subregion": "Indian Ocean", "min_zoom": 5.7, "label": null, "name_ar": "رأس فوهيمينا", "name_bn": "কেপ ভোহিমেনা", "name_de": "Cap Vohimena", "name_en": "Cape Saint Marie", "name_es": "Cabo Vohimena", "name_fr": "Cap Sainte-Marie", "name_el": "Ακρωτήριο Βοχίμενα", "name_hi": "केप वोहिमेन", "name_hu": "Vohimena-fok", "name_id": "Tanjung Vohimena", "name_it": "Cape Vohimena", "name_ja": "ボヒメナ岬", "name_ko": "케이프 보히메나", "name_nl": "Cape Saint Marie", "name_pl": "Przylądek Tanjona Vohimena", "name_pt": "Cabo de Santa Maria", "name_ru": "Вухимена", "name_sv": "Tanjon' i Vohimena", "name_tr": "Vohimena Burnu", "name_vi": "Mũi Vohimena", "name_zh": "沃希梅纳角", "wikidataid": "Q1352197", "ne_id": 1159104711, "name_fa": "کیپ سنت ماری", "name_he": "כף ווהימנה", "name_uk": "мис Вогімена", "name_ur": "کیپ وہیمینا", "name_zht": "武伊梅納角" }, "geometry": { "type": "Point", "coordinates": [ 45.158702019146233, -25.546319268755923 ] } },
{ "type": "Feature", "properties": { "scalerank": 4, "featurecla": "island", "name": "Vavau", "comment": null, "name_alt": null, "lat_y": -18.590062, "long_x": -173.976769, "region": "Oceania", "subregion": "Polynesia", "min_zoom": 5.7, "label": "Vavau", "name_ar": "فافاو", "name_bn": "ভ্যাভাউ", "name_de": "ʻUtu Vavaʻu", "name_en": "Vavaʻu", "name_es": "Vava'u", "name_fr": "Vavaʻu", "name_el": "Βαβάου", "name_hi": "वावौ", "name_hu": "Vavau", "name_id": "Vavau", "name_it": "Vavau", "name_ja": "ヴァヴァウ島", "name_ko": "바바우", "name_nl": "Vavaʻu", "name_pl": "Vavau", "name_pt": "Vavaʻu", "name_ru": "остров Вавау", "name_sv": "Vavau", "name_tr": "Vavau", "name_vi": "Đảo Vavau", "name_zh": "瓦瓦乌岛", "wikidataid": "Q20456736", "ne_id": 1159104833, "name_fa": "واوائو", "name_he": "האי וואוואו", "name_uk": "Вава'у", "name_ur": "واوو", "name_zht": "瓦瓦烏島" }, "geometry": { "type": "Point", "coordinates": [ -173.976734992572517, -18.590020440630923 ] } },
{ "type": "Feature", "properties": { "scalerank": 4, "featurecla": "island", "name": "I. de Pascua", "comment": null, "name_alt": "Easter I.", "lat_y": -27.102117, "long_x": -109.367953, "region": "Oceania", "subregion": "Polynesia", "min_zoom": 5.7, "label": null, "name_ar": "جزيرة القيامة", "name_bn": "ইস্টার দ্বীপ", "name_de": "Osterinsel", "name_en": "Easter Island", "name_es": "Isla de Pascua", "name_fr": "île de Pâques", "name_el": "Νησί του Πάσχα", "name_hi": "ईस्टर द्वीप", "name_hu": "Húsvét-sziget", "name_id": "Pulau Paskah", "name_it": "Isola di Pasqua", "name_ja": "イースター島", "name_ko": "이스터섬", "name_nl": "Paaseiland", "name_pl": "Wyspa Wielkanocna", "name_pt": "Ilha de Páscoa", "name_ru": "Остров Пасхи", "name_sv": "Påskön", "name_tr": "Paskalya Adası", "name_vi": "Đảo Phục Sinh", "name_zh": "复活节岛", "wikidataid": "Q14452", "ne_id": 1159104835, "name_fa": "جزیره ایستر", "name_he": "אי הפסחא", "name_uk": "Острів Пасхи", "name_ur": "جزیرہ ایسٹر", "name_zht": "復活節島" }, "geometry": { "type": "Point", "coordinates": [ -109.367909308978767, -27.102227471880923 ] } },
{ "type": "Feature", "properties": { "scalerank": 4, "featurecla": "cape", "name": "Cape Agulhas", "comment": null, "name_alt": null, "lat_y": -34.801182, "long_x": 19.993472, "region": "Africa", "subregion": null, "min_zoom": 5.7, "label": "Cape Agulhas", "name_ar": "رأس أقولاس", "name_bn": "কেপ আগুলহাস", "name_de": "Kap Agulhas", "name_en": "Cape Agulhas", "name_es": "Cabo de las Agujas", "name_fr": "cap des Aiguilles", "name_el": "Ακρωτήριο Αγκούλιας", "name_hi": "एगुलस अन्तरीप", "name_hu": "Agulhas-fok", "name_id": "Tanjung Agulhas", "name_it": "Capo Agulhas", "name_ja": "アガラス岬", "name_ko": "아굴라스곶", "name_nl": "Kaap Agulhas", "name_pl": "Przylądek Igielny", "name_pt": "Cabo das Agulhas", "name_ru": "Игольный", "name_sv": "Agulhas", "name_tr": "Agulhas Burnu", "name_vi": "Mũi Agulhas", "name_zh": "厄加勒斯角", "wikidataid": "Q4085", "ne_id": 1159104883, "name_fa": "دماغه آگولاس", "name_he": "כף אגולס", "name_uk": "Мис Голковий", "name_ur": "کیپ آگولاز", "name_zht": "厄加勒斯角" }, "geometry": { "type": "Point", "coordinates": [ 19.993418816021233, -34.801080010943423 ] } },
{ "type": "Feature", "properties": { "scalerank": 4, "featurecla": "plain", "name": "Plain of Jars", "comment": null, "name_alt": null, "lat_y": 20.550709, "long_x": 101.890532, "region": "Asia", "subregion": null, "min_zoom": 5.7, "label": null, "name_ar": "سهل الجرار", "name_bn": "প্লেন অফ জারস", "name_de": "Ebene der Tonkrüge", "name_en": "Plain of Jars", "name_es": "Páramo de las tinajas", "name_fr": "Plaine des Jarres", "name_el": "ΠΕΔΙΑΔΑ ΤΖΑΡΣ", "name_hi": "जार का मैदान", "name_hu": "Plain of Jars-síkság", "name_id": "Dataran Guci", "name_it": "Piana delle giare", "name_ja": "ジャール平原", "name_ko": "단지평원", "name_nl": "Vlakte der Kruiken", "name_pl": "Równina Dzbanów", "name_pt": "Planície dos Jarros", "name_ru": "Долина Кувшинов", "name_sv": "Krukslätten", "name_tr": "Küpler Vadisi", "name_vi": "Cánh đồng Chum", "name_zh": "查爾平原", "wikidataid": "Q870258", "ne_id": 1159104967, "name_fa": "دشت خمرهها", "name_he": "עמק הכדים", "name_uk": "Долина глеків", "name_ur": "پلین آف جارز", "name_zht": "查爾平原" }, "geometry": { "type": "Point", "coordinates": [ 101.890635612896233, 20.550909735150327 ] } },
{ "type": "Feature", "properties": { "scalerank": 4, "featurecla": "cape", "name": "Cabo Corrientes", "comment": null, "name_alt": null, "lat_y": 20.409471, "long_x": -105.683581, "region": "North America", "subregion": null, "min_zoom": 5.7, "label": "Cabo Corrientes", "name_ar": "كابو كورينتس", "name_bn": "কাবো কোররিয়েন্তেস", "name_de": "Cabo Corrientes", "name_en": "Cabo Corrientes", "name_es": "Cabo Corrientes", "name_fr": "Cabo Corrientes", "name_el": "Κάμπο Κορριέντες", "name_hi": "काबो कोरियंटेस", "name_hu": "Corrientes-fok", "name_id": "Tanjung Corrientes", "name_it": "Cabo Corrientes", "name_ja": "コリエンテス岬", "name_ko": "카보 코리엔테스", "name_nl": "Cabo Corrientes", "name_pl": "Przylądek Corrientes", "name_pt": "Cabo Corrientes", "name_ru": "Кабо-Корриентес", "name_sv": "Cabo Corrientes", "name_tr": "Corrientes Burnu", "name_vi": "Cabo Corrientes", "name_zh": "卡波科連特斯", "wikidataid": "Q2932434", "ne_id": 1159104991, "name_fa": "کابو کورینته", "name_he": "כף קוריינטס", "name_uk": "Кабо Коррієнтес", "name_ur": "کابو کورائنٹیس", "name_zht": "卡波科連特斯" }, "geometry": { "type": "Point", "coordinates": [ -105.677958738747989, 20.420365114940253 ] } },
{ "type": "Feature", "properties": { "scalerank": 4, "featurecla": "cape", "name": "Pt. Eugenia", "comment": null, "name_alt": null, "lat_y": 27.861925, "long_x": -115.07629, "region": "North America", "subregion": null, "min_zoom": 5.7, "label": "Pt. Eugenia", "name_ar": "قمة يوجينيا", "name_bn": "পয়েন্ট ইউজেনিয়া", "name_de": "Punta Eugenia", "name_en": "Punta Eugenia", "name_es": "Puerto Eugenia", "name_fr": "Punta Eugenia", "name_el": "Πτ. Ευγενία", "name_hi": "पॉइंट यूजेनिया", "name_hu": "Port Eugenia-fok", "name_id": "Pt. Eugenia", "name_it": "Punta Eugenia", "name_ja": "エウヘニア岬", "name_ko": "푼타 유지니아", "name_nl": "Punta Eugenia", "name_pl": "Eugenia", "name_pt": "Ponta Eugenia", "name_ru": "мыс Пунта-Эухения", "name_sv": "Punta Eugenia", "name_tr": "Pt. Eugenia", "name_vi": "Mũi Eugenia", "name_zh": "尤金伲亚角", "wikidataid": null, "ne_id": 1159104993, "name_fa": "پونتا اوگنیا", "name_he": "פוינט יוג'יניה", "name_uk": "мис Юджина", "name_ur": "PT. یوجینیا", "name_zht": "尤金尼亞角" }, "geometry": { "type": "Point", "coordinates": [ -115.046239450461371, 27.842887092585283 ] } },
{ "type": "Feature", "properties": { "scalerank": 4, "featurecla": "cape", "name": "Point Conception", "comment": null, "name_alt": null, "lat_y": 34.582313, "long_x": -120.659016, "region": "North America", "subregion": null, "min_zoom": 5.7, "label": null, "name_ar": "جبل كونسيبشن", "name_bn": "পয়েন্ট কনসেপশন", "name_de": "Point Conception", "name_en": "Point Conception", "name_es": "Punta Concepción", "name_fr": "Point Conception", "name_el": "Πόιντ Κονσεπσιόν", "name_hi": "पॉइंट कन्सेप्शन", "name_hu": "Point Conception-fok", "name_id": "Point Conception", "name_it": "Point Conception", "name_ja": "ポイント・コンセプション", "name_ko": "포인트 컨셉션", "name_nl": "Point Conception", "name_pl": "Point Conception", "name_pt": "Point Conception", "name_ru": "мыс Консепшн", "name_sv": "Point Conception", "name_tr": "Point Conception", "name_vi": "Mũi Conception", "name_zh": "康塞普申角", "wikidataid": "Q3307973", "ne_id": 1159104995, "name_fa": "پوینت کانسپشن", "name_he": "פוינט קונספשן", "name_uk": "Поінт-Консепсьон", "name_ur": "پوائنٹ کنسیپٹیون", "name_zht": "康塞普申角" }, "geometry": { "type": "Point", "coordinates": [ -120.463600362028671, 34.46027592467621 ] } },
{ "type": "Feature", "properties": { "scalerank": 4, "featurecla": "cape", "name": "Cape Hatteras", "comment": null, "name_alt": null, "lat_y": 35.437762, "long_x": -75.450543, "region": "North America", "subregion": null, "min_zoom": 5.7, "label": "Cape Hatteras", "name_ar": "رأس هاتيراس", "name_bn": "কেপ হ্যাত্তেরাস", "name_de": "Cape Hatteras", "name_en": "Cape Hatteras", "name_es": "Cabo Hatteras", "name_fr": "cap Hatteras", "name_el": "Ακρωτήριο Χατέρας", "name_hi": "केप हैटरस", "name_hu": "Cape Hatteras", "name_id": "Tanjung Hatteras", "name_it": "capo Hatteras", "name_ja": "ハッテラス岬", "name_ko": "케이프 해테라스", "name_nl": "Cape Hatteras", "name_pl": "przylądek Hatteras", "name_pt": "Cabo Hatteras", "name_ru": "Хаттерас", "name_sv": "Cape Hatteras", "name_tr": "Hatteras Burnu", "name_vi": "Mũi Hatteras", "name_zh": "哈特拉斯角", "wikidataid": "Q978032", "ne_id": 1159104997, "name_fa": "دماغه هتراس", "name_he": "כף האטראס", "name_uk": "Мис Гаттерас", "name_ur": "کیپ ہیٹاراس", "name_zht": "哈特拉斯角" }, "geometry": { "type": "Point", "coordinates": [ -75.540329524133114, 35.244752638128951 ] } },
{ "type": "Feature", "properties": { "scalerank": 4, "featurecla": "cape", "name": "Cape Sable", "comment": null, "name_alt": null, "lat_y": 25.124896, "long_x": -81.090442, "region": "North America", "subregion": null, "min_zoom": 5.7, "label": "Cape Sable", "name_ar": "رأس سابل", "name_bn": "কেপ স্যাবেল", "name_de": "Cape Sable", "name_en": "Cape Sable", "name_es": "Cabo Sable", "name_fr": "cap Sable", "name_el": "Ακρωτήριο Σέιμπλ", "name_hi": "केप सेबल", "name_hu": "Sable-fok", "name_id": "Tanjung Sable", "name_it": "Cape Sable", "name_ja": "サブレ岬", "name_ko": "케이프 세이블", "name_nl": "Cape Sable", "name_pl": "Cape Sable", "name_pt": "Cabo Sable", "name_ru": "мыс Сейбл", "name_sv": "Cape Sable", "name_tr": "Sable Burnu", "name_vi": "Mũi Sable", "name_zh": "沙布耳角", "wikidataid": "Q2937102", "ne_id": 1159104999, "name_fa": "دماغه سیبل", "name_he": "כף סייבל", "name_uk": "мис Сейбл", "name_ur": "کیپ سیبل", "name_zht": "沙布耳角" }, "geometry": { "type": "Point", "coordinates": [ -81.090443488666267, 25.124762274212827 ] } },
{ "type": "Feature", "properties": { "scalerank": 4, "featurecla": "cape", "name": "Cape Hope", "comment": null, "name_alt": null, "lat_y": 68.35638, "long_x": -166.815582, "region": "North America", "subregion": null, "min_zoom": 5.7, "label": "Cape Hope", "name_ar": "رأس هوب", "name_bn": "কেপ হোপ", "name_de": "Cape Hope", "name_en": "Point Hope", "name_es": "Cabo Hope", "name_fr": "Kap Hope", "name_el": "Ακρωτήριο της Ελπίδας", "name_hi": "केप होप", "name_hu": "Hope-fok", "name_id": "Tanjung Hope", "name_it": "Capo di Buona Speranza", "name_ja": "ホープ岬", "name_ko": "케이프 호프", "name_nl": "Cape Hope", "name_pl": "Cape Hope", "name_pt": "Point Hope", "name_ru": "мыс Хоуп", "name_sv": "Kap Hope", "name_tr": "Hope Burnu", "name_vi": "Mũi Hope", "name_zh": "好望角", "wikidataid": "Q7208042", "ne_id": 1159105001, "name_fa": "دماغه هوپ", "name_he": "כף הופ", "name_uk": "мис Надії", "name_ur": "کیپ ہوپ", "name_zht": "好望角" }, "geometry": { "type": "Point", "coordinates": [ -166.813212687695426, 68.353802075439717 ] } },
{ "type": "Feature", "properties": { "scalerank": 4, "featurecla": "cape", "name": "Point Barrow", "comment": null, "name_alt": null, "lat_y": 71.372637, "long_x": -156.615894, "region": "North America", "subregion": null, "min_zoom": 5.7, "label": "Point Barrow", "name_ar": "نقطة بارو", "name_bn": "ব্যারো বিন্দু", "name_de": "Point Barrow", "name_en": "Point Barrow", "name_es": "Punta Barrow", "name_fr": "Point Barrow", "name_el": "Πόιντ Μπάροου", "name_hi": "पॉइंट बैरो", "name_hu": "Point Barrow-fok", "name_id": "Point Barrow", "name_it": "Punta Barrow", "name_ja": "ポイント・バロー", "name_ko": "배로곶", "name_nl": "Point Barrow", "name_pl": "Point Barrow", "name_pt": "Point Barrow", "name_ru": "Барроу", "name_sv": "Point Barrow", "name_tr": "Point Barrow", "name_vi": "Mũi Barrow", "name_zh": "巴罗角", "wikidataid": "Q1343019", "ne_id": 1159105003, "name_fa": "پوینت بارو", "name_he": "פוינט בארו", "name_uk": "Мис Барроу", "name_ur": "پوائنٹ بیرو", "name_zht": "巴羅角" }, "geometry": { "type": "Point", "coordinates": [ -156.471949209166809, 71.405891287630965 ] } },
{ "type": "Feature", "properties": { "scalerank": 4, "featurecla": "cape", "name": "Punta Negra", "comment": null, "name_alt": null, "lat_y": -5.948875, "long_x": -81.108252, "region": "South America", "subregion": null, "min_zoom": 5.7, "label": null, "name_ar": "بونتا نيجرا", "name_bn": "পুন্টা নেগ্রা", "name_de": "Punta Negra", "name_en": "Punta Negra", "name_es": "Punta Negra", "name_fr": "Punta Negra", "name_el": "Πούντα Νέγκρα", "name_hi": "पुंटा नेग्रा", "name_hu": "Punta Negra", "name_id": "Punta Negra", "name_it": "Punta Negra", "name_ja": "プンタ・ネグラ", "name_ko": "푼타 네그라", "name_nl": "Punta Negra", "name_pl": "Punta Negra", "name_pt": "Punta Negra", "name_ru": "мыс Пунта-Негра", "name_sv": "Punta Negra", "name_tr": "Punta Negra", "name_vi": "Mũi Negra", "name_zh": "内格拉角", "wikidataid": "Q987098", "ne_id": 1159105045, "name_fa": "پونتا نگارا", "name_he": "פונטה נגרה", "name_uk": "Пунта-Негра", "name_ur": "پونٹا نیگرا", "name_zht": "內格拉角" }, "geometry": { "type": "Point", "coordinates": [ -81.108326789447517, -5.948663018755923 ] } },
{ "type": "Feature", "properties": { "scalerank": 4, "featurecla": "cape", "name": "Punta Lavapié", "comment": null, "name_alt": null, "lat_y": -37.262867, "long_x": -73.606377, "region": "South America", "subregion": null, "min_zoom": 5.7, "label": null, "name_ar": "بونتا لافابيه", "name_bn": "পুন্টা লাভাপি", "name_de": "Punta Lavapié", "name_en": "Punta Lavapié", "name_es": "Punta Lavapié", "name_fr": "Punta Lavapié", "name_el": "Πούντα Λαβαπιέ", "name_hi": "पुंटा लावापिएस", "name_hu": "Punta Lavapié", "name_id": "Punta Lavapie", "name_it": "Punta Lavapié", "name_ja": "プンタ・ラバピエ", "name_ko": "푼타 라바피에", "name_nl": "Punta Lavapié", "name_pl": "Punta Lavapié", "name_pt": "Punta Lavapié", "name_ru": "мыс Пунта-Лавапье", "name_sv": "Punta Lavapié", "name_tr": "Punta Lavapié", "name_vi": "Mũi Lavapié", "name_zh": "拉瓦皮埃角", "wikidataid": null, "ne_id": 1159105047, "name_fa": "پونتا لاواپیه", "name_he": "פונטה לאוואפיה", "name_uk": "Пунта-Лавапі", "name_ur": "پونٹا لاواپئی", "name_zht": "拉瓦皮耶角" }, "geometry": { "type": "Point", "coordinates": [ -73.603043962437823, -37.171200029338053 ] } },
{ "type": "Feature", "properties": { "scalerank": 4, "featurecla": "cape", "name": "Punta Galera", "comment": null, "name_alt": null, "lat_y": 0.731221, "long_x": -80.062205, "region": "South America", "subregion": null, "min_zoom": 5.7, "label": null, "name_ar": "بونتا جاليرا", "name_bn": "পুন্টা গ্যালেরা", "name_de": "Punta Galera", "name_en": "Punta Galera", "name_es": "Punta Galera", "name_fr": "Punta Galera", "name_el": "Πούντα Γκαλέρα", "name_hi": "पुंटा गैलेरा", "name_hu": "Punta Galera", "name_id": "Punta Galera", "name_it": "Punta Galera", "name_ja": "プンタ・ガレラ", "name_ko": "푼타 갈레라", "name_nl": "Punta Galera", "name_pl": "Punta Galera", "name_pt": "Punta Galera", "name_ru": "мыс Пунта-Галера", "name_sv": "Punta Galera", "name_tr": "Punta Galera", "name_vi": "Mũi Galera", "name_zh": "加莱拉角", "wikidataid": null, "ne_id": 1159105157, "name_fa": "پونتا گالرا", "name_he": "פונטה גאלרה", "name_uk": "Пунта-Галера", "name_ur": "پونٹا گیلیرا", "name_zht": "加列拉角" }, "geometry": { "type": "Point", "coordinates": [ -80.062123176166267, 0.731207586712827 ] } },
{ "type": "Feature", "properties": { "scalerank": 4, "featurecla": "cape", "name": "Cap Lopez", "comment": null, "name_alt": null, "lat_y": -0.604761, "long_x": 8.726423, "region": "Africa", "subregion": null, "min_zoom": 5.7, "label": null, "name_ar": "رأس لوبيز", "name_bn": "ক্যাপ লোপেজ", "name_de": "Cap Lopez", "name_en": "Cape Lopez", "name_es": "Cabo López", "name_fr": "Cap Lopez", "name_el": "Καπ Λόπεζ", "name_hi": "कैप लोपेज़", "name_hu": "Lopez-fok", "name_id": "Tanjung Lopez", "name_it": "Cap Lopez", "name_ja": "ロペス岬", "name_ko": "캡 로페즈", "name_nl": "Kaap Lopez", "name_pl": "Przylądek Lopez", "name_pt": "Cabo Lopes", "name_ru": "мыс Лопес", "name_sv": "Cap Lopez", "name_tr": "Cap Lopez", "name_vi": "Mũi Lopez", "name_zh": "洛佩斯角", "wikidataid": null, "ne_id": 1159105159, "name_fa": "دماغه لوپز", "name_he": "כף לופז", "name_uk": "мис Лопез", "name_ur": "کیپ لوپیز", "name_zht": "洛佩茲角" }, "geometry": { "type": "Point", "coordinates": [ 8.727299789450319, -0.615086490513119 ] } },
{ "type": "Feature", "properties": { "scalerank": 4, "featurecla": "cape", "name": "Cape Bobaomby", "comment": null, "name_alt": null, "lat_y": -11.966598, "long_x": 49.262904, "region": "Africa", "subregion": null, "min_zoom": 5.7, "label": "Cape Bobaomby", "name_ar": "رأس بوبومبي", "name_bn": "কেপ বোবাওম্বে", "name_de": "Capa Babaomby", "name_en": "Cap d'Ambre", "name_es": "Cabo Bobaomby", "name_fr": "cap d'Ambre", "name_el": "Ακρωτήριο Μπόμπαομπι", "name_hi": "केप बोबाओम्बी", "name_hu": "Bobaomby-fok", "name_id": "Tanjung Bobaomby", "name_it": "Capo Bobaomby", "name_ja": "ブバオンビ岬", "name_ko": "케이프 보바옴비", "name_nl": "Cap d'Ambre", "name_pl": "Tanjona Bobaomby", "name_pt": "Cabo Bobaomby", "name_ru": "Бубаумби", "name_sv": "Cap d'Ambre", "name_tr": "Bobaomby Burnu", "name_vi": "Mũi Bobaomby", "name_zh": "波班比角", "wikidataid": "Q2937135", "ne_id": 1159105161, "name_fa": "دماغه بوبامبی", "name_he": "כף בובאומבי", "name_uk": "мис Бобаомбі", "name_ur": "کیپ بوبا اومبی", "name_zht": "波班比角" }, "geometry": { "type": "Point", "coordinates": [ 49.262827995708733, -11.966485284380923 ] } },
{ "type": "Feature", "properties": { "scalerank": 4, "featurecla": "cape", "name": "Cap Blanc", "comment": null, "name_alt": null, "lat_y": 20.822108, "long_x": -17.052856, "region": "Africa", "subregion": null, "min_zoom": 5.7, "label": null, "name_ar": "الرأس الأبيض", "name_bn": "ক্যাপ ব্ল্যাঁ", "name_de": "Cap Blanc", "name_en": "Ras Nouadhibou", "name_es": "Cabo Blanc", "name_fr": "Cap Blanc", "name_el": "Καπ Μπλανκ", "name_hi": "कैप ब्लैंक", "name_hu": "Blanc-fok", "name_id": "Tanjung Blanc", "name_it": "Cap Blanc", "name_ja": "カップ・ブラン", "name_ko": "캡 블랑", "name_nl": "Cap Blanc", "name_pl": "Przylądek Biały", "name_pt": "Cabo Branco", "name_ru": "мыс Кап-Блан", "name_sv": "Cap Blanc", "name_tr": "Cap Blanc", "name_vi": "Mũi Blanc", "name_zh": "卡普布朗角", "wikidataid": null, "ne_id": 1159105163, "name_fa": "دماغه بلانک", "name_he": "כף בלאן", "name_uk": "мис Бланк", "name_ur": "کیپ بلینک", "name_zht": "布朗克角" }, "geometry": { "type": "Point", "coordinates": [ -17.052906867572517, 20.822088934369077 ] } },
{ "type": "Feature", "properties": { "scalerank": 5, "featurecla": "cape", "name": "South West Cape", "comment": null, "name_alt": null, "lat_y": -43.510984, "long_x": 146.054227, "region": "Oceania", "subregion": "Australia", "min_zoom": 6.0, "label": "South West Cape", "name_ar": "رأس الركن الجنوبي الغربي", "name_bn": "দক্ষিণ পশ্চিম কেপ", "name_de": "South West Cape", "name_en": "South West Cape", "name_es": "Cabo Suroeste", "name_fr": "Cap Sud-Ouest", "name_el": "Νοτιοδυτικό Ακρωτήριο", "name_hi": "दक्षिण पश्चिम केप", "name_hu": "Délnyugati-fok", "name_id": "South West Cape", "name_it": "South West Cape", "name_ja": "サウス・ウェスト岬", "name_ko": "사우스 웨스트 케이프", "name_nl": "South West Cape", "name_pl": "Południowo-zachodnia pokrywa", "name_pt": "Cabo Sudoeste", "name_ru": "мыс Саут-Вест", "name_sv": "South West Cape", "name_tr": "Güneybatı Burnu", "name_vi": "Mũi South West", "name_zh": "西南角", "wikidataid": "Q7568836", "ne_id": 1159104653, "name_fa": "دماغه جنوب غرب", "name_he": "דרום מערב הכף", "name_uk": "Саус-Вест", "name_ur": "ساؤتھ ویسٹ کیپ", "name_zht": "西南海角" }, "geometry": { "type": "Point", "coordinates": [ 146.033798046095683, -43.540402568370602 ] } },
{ "type": "Feature", "properties": { "scalerank": 5, "featurecla": "cape", "name": "Cape Howe", "comment": null, "name_alt": null, "lat_y": -37.488775, "long_x": 149.958534, "region": "Oceania", "subregion": "Australia", "min_zoom": 6.0, "label": null, "name_ar": "رأس هو", "name_bn": "কেপ হোয়ে", "name_de": "Cape Howe", "name_en": "Cape Howe", "name_es": "Cabo Howe", "name_fr": "Cape Howe", "name_el": "Ακρωτήριο Χάου", "name_hi": "केप होव", "name_hu": "Howe-fok", "name_id": "Tanjung Howe", "name_it": "Capo Howe", "name_ja": "ハウ岬", "name_ko": "케이프 하우", "name_nl": "Cape Howe", "name_pl": "Cape Howe", "name_pt": "Cabo Howe", "name_ru": "мыс Хау", "name_sv": "Cape Howe", "name_tr": "Howe Burnu", "name_vi": "Mũi Howe", "name_zh": "豪角", "wikidataid": null, "ne_id": 1159104655, "name_fa": "دماغه هو", "name_he": "כף האו", "name_uk": "мис Хоу", "name_ur": "کیپ ہوئی", "name_zht": "豪角" }, "geometry": { "type": "Point", "coordinates": [ 149.958384636333733, -37.488946221880923 ] } },
{ "type": "Feature", "properties": { "scalerank": 5, "featurecla": "cape", "name": "Cape Otway", "comment": null, "name_alt": null, "lat_y": -38.857622, "long_x": 143.565403, "region": "Oceania", "subregion": "Australia", "min_zoom": 6.0, "label": "Cape Otway", "name_ar": "رأس أوتواي", "name_bn": "কেপ ওটোয়ে", "name_de": "Cape Otway", "name_en": "Cape Otway", "name_es": "Cabo Otway", "name_fr": "cap Otway", "name_el": "Ακρωτήριο Ότγουεϊ", "name_hi": "केप ओटवे", "name_hu": "Otway-fok", "name_id": "Tanjung Otway", "name_it": "Capo Otway", "name_ja": "ケープ・オトウェイ", "name_ko": "케이프 오트웨이", "name_nl": "Cape Otway", "name_pl": "Cape Otway", "name_pt": "Cabo Otway", "name_ru": "мыс Отуэй", "name_sv": "Cape Otway", "name_tr": "Otway Burnu", "name_vi": "Mũi Otway", "name_zh": "奥特韦角", "wikidataid": "Q838457", "ne_id": 1159104657, "name_fa": "کیپ آتوی", "name_he": "כף אוטוויי", "name_uk": "мис Отвей", "name_ur": "کیپ اوٹوے", "name_zht": "奧特威角" }, "geometry": { "type": "Point", "coordinates": [ 143.537005108191011, -38.85472383068997 ] } },
{ "type": "Feature", "properties": { "scalerank": 5, "featurecla": "cape", "name": "Cape Jaffa", "comment": null, "name_alt": null, "lat_y": -36.944244, "long_x": 139.690866, "region": "Oceania", "subregion": "Australia", "min_zoom": 6.0, "label": null, "name_ar": "رأس جافا", "name_bn": "কেপ জাফফা", "name_de": "Cape Jaffa", "name_en": "Cape Jaffa", "name_es": "Cabo Jaffa", "name_fr": "Cape Jaffa", "name_el": "Ακρωτήριο Γιάφα", "name_hi": "केप जाफ़ा", "name_hu": "Jaffa-fok", "name_id": "Tanjung Jaffa", "name_it": "Cape Jaffa", "name_ja": "ジャファ岬", "name_ko": "케이프 자파", "name_nl": "Cape Jaffa", "name_pl": "Cape Jaffa", "name_pt": "Cabo Jaffa", "name_ru": "мыс Джаффа", "name_sv": "Cape Jaffa", "name_tr": "Jaffa Burnu", "name_vi": "Mũi Jaffa", "name_zh": "雅法角", "wikidataid": null, "ne_id": 1159104659, "name_fa": "دماغه جفا", "name_he": "כף ג'אפה", "name_uk": "мис Джаффа", "name_ur": "کیپ جافا", "name_zht": "雅法角" }, "geometry": { "type": "Point", "coordinates": [ 139.680619779647458, -36.956243161070859 ] } },
{ "type": "Feature", "properties": { "scalerank": 5, "featurecla": "cape", "name": "Cape Carnot", "comment": null, "name_alt": null, "lat_y": -34.920233, "long_x": 135.656027, "region": "Oceania", "subregion": "Australia", "min_zoom": 6.0, "label": null, "name_ar": "رأس كارنوت", "name_bn": "কেপ কারনোট", "name_de": "Cape Carnot", "name_en": "Cape Carnot", "name_es": "Cabo Carnot", "name_fr": "Cape Carnot", "name_el": "Ακρωτήριο Καρνό", "name_hi": "केप कार्नोट", "name_hu": "Carnot-fok", "name_id": "Tanjung Carnot", "name_it": "Capo Carnot", "name_ja": "カーノット岬", "name_ko": "케이프 카르노", "name_nl": "Cape Carnot", "name_pl": "Przylądek Carnot", "name_pt": "Cabo Carnot", "name_ru": "мыс Карно", "name_sv": "Cape Carnot", "name_tr": "Carnot Burnu", "name_vi": "Mũi Carnot", "name_zh": "卡诺角", "wikidataid": null, "ne_id": 1159104661, "name_fa": "دماغه کارنات", "name_he": "כף קרנוט", "name_uk": "мис Карнот", "name_ur": "کیپ کارنوٹ", "name_zht": "卡諾角" }, "geometry": { "type": "Point", "coordinates": [ 135.653783268970528, -34.93870859313661 ] } },
{ "type": "Feature", "properties": { "scalerank": 5, "featurecla": "cape", "name": "Cape Byron", "comment": null, "name_alt": null, "lat_y": -28.658282, "long_x": 153.632849, "region": "Oceania", "subregion": "Australia", "min_zoom": 6.0, "label": "Cape Byron", "name_ar": "كيب بايرون", "name_bn": "কেপ বায়রন", "name_de": "Cape Byron", "name_en": "Cape Byron", "name_es": "Cabo Byron", "name_fr": "cap Byron", "name_el": "Ακρωτήριο Μπάιρον", "name_hi": "केप बायरोन", "name_hu": "Byron-fok", "name_id": "Tanjung Byron", "name_it": "Capo Byron", "name_ja": "バイロン岬", "name_ko": "케이프 바이런", "name_nl": "Cape Byron", "name_pl": "Przylądek Byrona", "name_pt": "Cabo Byron", "name_ru": "Байрон", "name_sv": "Kap Byron", "name_tr": "Byron Burnu", "name_vi": "Cape Byron", "name_zh": "拜伦角", "wikidataid": "Q1034320", "ne_id": 1159104665, "name_fa": "دماغه بیرون", "name_he": "כף ביירון", "name_uk": "Мис Байрон", "name_ur": "کیپ بائرون", "name_zht": "拜伦角" }, "geometry": { "type": "Point", "coordinates": [ 153.627991760155453, -28.66197417050363 ] } },
{ "type": "Feature", "properties": { "scalerank": 5, "featurecla": "cape", "name": "Cape Manifold", "comment": null, "name_alt": null, "lat_y": -22.702081, "long_x": 150.811228, "region": "Oceania", "subregion": "Australia", "min_zoom": 6.0, "label": null, "name_ar": "رأس مانيفولد", "name_bn": "কেপ মানিফোল্ড", "name_de": "Cape Manifold", "name_en": "Cape Manifold", "name_es": "Cabo Manifold", "name_fr": "Cape Manifold", "name_el": "Ακρωτήριο Μάνιφολντ", "name_hi": "केप मैनिफोल्ड", "name_hu": "Manifold-fok", "name_id": "Tanjung Manifold", "name_it": "Cape Manifold", "name_ja": "マニフォールド岬", "name_ko": "케이프 매니폴드", "name_nl": "Cape Manifold", "name_pl": "Cape Manifold", "name_pt": "Cabo Manifold", "name_ru": "мыс Манифолд", "name_sv": "Cape Manifold", "name_tr": "Manifold Burnu", "name_vi": "Mũi Manifold", "name_zh": "马尼福尔德角", "wikidataid": null, "ne_id": 1159104667, "name_fa": "دماغه مانیفولد", "name_he": "כף מאניפולד", "name_uk": "мис Маніфолд", "name_ur": "کیپ مینیفولڈ", "name_zht": "馬尼福德角" }, "geometry": { "type": "Point", "coordinates": [ 150.811167839458733, -22.702080987505923 ] } },
{ "type": "Feature", "properties": { "scalerank": 5, "featurecla": "cape", "name": "Cape York", "comment": null, "name_alt": null, "lat_y": -10.710859, "long_x": 142.522018, "region": "Oceania", "subregion": "Australia", "min_zoom": 6.0, "label": "Cape York", "name_ar": "رأس يورك", "name_bn": "কেপ ইয়র্ক", "name_de": "Cape York", "name_en": "Cape York", "name_es": "Cabo York", "name_fr": "Péninsule du cap York", "name_el": "Ακρωτήριπ Γιορκ", "name_hi": "केप यॉर्क", "name_hu": "York-fok", "name_id": "Tanjung York", "name_it": "Capo York", "name_ja": "ヨーク岬", "name_ko": "케이프 요크", "name_nl": "Kaap York", "name_pl": "Jork", "name_pt": "Cabo York", "name_ru": "Йорк", "name_sv": "Kap York", "name_tr": "York Burnu", "name_vi": "Mũi York", "name_zh": "约克角", "wikidataid": "Q1728345", "ne_id": 1159104669, "name_fa": "دماغه یورک", "name_he": "כף יורק", "name_uk": "Йорк", "name_ur": "کیپ یارک", "name_zht": "約克角" }, "geometry": { "type": "Point", "coordinates": [ 142.521739128521233, -10.710747979693423 ] } },
{ "type": "Feature", "properties": { "scalerank": 5, "featurecla": "cape", "name": "Cape Melville", "comment": null, "name_alt": null, "lat_y": -14.163629, "long_x": 144.506417, "region": "Oceania", "subregion": "Australia", "min_zoom": 6.0, "label": null, "name_ar": "رأس ميلفيل", "name_bn": "কেপ মেলভিল", "name_de": "Cape Melville", "name_en": "Cape Melville", "name_es": "Cabo Melville", "name_fr": "Cape Melville", "name_el": "Ακρωτήριο Μέλβιλ", "name_hi": "केप मेलविल", "name_hu": "Melville-fok", "name_id": "Tanjung Melville", "name_it": "Capo Melville", "name_ja": "メルビル岬", "name_ko": "케이프 멜빌", "name_nl": "Cape Melville", "name_pl": "Cape Melville", "name_pt": "Cabo Melville", "name_ru": "мыс Мелвилл", "name_sv": "Cape Melville", "name_tr": "Melville Burnu", "name_vi": "Mũi Melville", "name_zh": "麦维尔角", "wikidataid": null, "ne_id": 1159104671, "name_fa": "دماغه ملوی", "name_he": "כף מלוויל", "name_uk": "мис Мелвіл", "name_ur": "کیپ میل ولے", "name_zht": "梅爾維爾角" }, "geometry": { "type": "Point", "coordinates": [ 144.506602409771233, -14.163506768755923 ] } },
{ "type": "Feature", "properties": { "scalerank": 5, "featurecla": "cape", "name": "Cape Arnhem", "comment": null, "name_alt": null, "lat_y": -12.337984, "long_x": 136.952429, "region": "Oceania", "subregion": "Australia", "min_zoom": 6.0, "label": null, "name_ar": "رأس أرنهيم", "name_bn": "কেপ আর্নহেম", "name_de": "Cape Arnhem", "name_en": "Cape Arnhem", "name_es": "Cabo Arnhem", "name_fr": "Cape Arnhem", "name_el": "Ακρωτήριο Άρνεμ", "name_hi": "केप अर्नहेम", "name_hu": "Arnhem-fok", "name_id": "Tanjung Arnhem", "name_it": "Capo Arnhem", "name_ja": "アーネム岬", "name_ko": "케이프 아넘", "name_nl": "Cape Arnhem", "name_pl": "Przylądek Arnhem", "name_pt": "Cabo Arnhem", "name_ru": "мыс Арнхем", "name_sv": "Kap Arnhem", "name_tr": "Arnhem Burnu", "name_vi": "Mũi Arnhem", "name_zh": "阿纳姆角", "wikidataid": null, "ne_id": 1159104673, "name_fa": "دماغه ارنهم", "name_he": "כף ארנהם", "name_uk": "мис Арнем", "name_ur": "کیپ آرنیم", "name_zht": "阿納姆角" }, "geometry": { "type": "Point", "coordinates": [ 136.91481885262823, -12.295662864626316 ] } },
{ "type": "Feature", "properties": { "scalerank": 5, "featurecla": "cape", "name": "West Cape Howe", "comment": null, "name_alt": null, "lat_y": -35.104301, "long_x": 117.597011, "region": "Oceania", "subregion": "Australia", "min_zoom": 6.0, "label": null, "name_ar": "ويست كيب هاو", "name_bn": "ওয়েস্ট কেপ হাও", "name_de": "West Cape Howe", "name_en": "West Cape Howe", "name_es": "West Cape Howe", "name_fr": "West Cape Howe", "name_el": "Δυτικό Ακρωτήριο Χάου", "name_hi": "वेस्ट केप होव", "name_hu": "West Cape Howe", "name_id": "West Cape Howe", "name_it": "West Cape Howe", "name_ja": "ウェスト・ケープ・ハウ", "name_ko": "웨스트 케이프 하우", "name_nl": "West Cape Howe", "name_pl": "West Cape Howe", "name_pt": "West Cape Howe", "name_ru": "мыс Вест-Кейп-Хау", "name_sv": "West Cape Howe", "name_tr": "Batı Howe Burnu", "name_vi": "Mũi West Cape Howe", "name_zh": "西岬洞", "wikidataid": null, "ne_id": 1159104675, "name_fa": "کیپ هاو غربی", "name_he": "ווסט כף האו", "name_uk": "Вест-Кейп-Хоу", "name_ur": "ویسٹ کیپ ہوئے", "name_zht": "西開普豪" }, "geometry": { "type": "Point", "coordinates": [ 117.596934441021233, -35.104302667193423 ] } },
{ "type": "Feature", "properties": { "scalerank": 5, "featurecla": "cape", "name": "Cape Leeuwin", "comment": null, "name_alt": null, "lat_y": -34.297841, "long_x": 115.10633, "region": "Oceania", "subregion": "Australia", "min_zoom": 6.0, "label": "Cape Leeuwin", "name_ar": "كيب ليوين", "name_bn": "কেপ লীউইন", "name_de": "Kap Leeuwin", "name_en": "Cape Leeuwin", "name_es": "Cabo Leeuwin", "name_fr": "cap Leeuwin", "name_el": "Ακρωτήριο Λέουουιν", "name_hi": "केप लीउविन", "name_hu": "Leeuwin-fok", "name_id": "Tanjung Leeuwin", "name_it": "Capo Leeuwin", "name_ja": "ルーウィン岬", "name_ko": "케이프 류윈", "name_nl": "Kaap Leeuwin", "name_pl": "Cape Leeuwin", "name_pt": "Cabo Leeuwin", "name_ru": "Луин", "name_sv": "Cape Leeuwin", "name_tr": "Leeuwin Burnu", "name_vi": "Mũi Leeuwin", "name_zh": "露纹角", "wikidataid": "Q1536418", "ne_id": 1159104677, "name_fa": "دماغه لیووین", "name_he": "כף לואין", "name_uk": "Мис Левін", "name_ur": "کیپ لیوون", "name_zht": "露紋角" }, "geometry": { "type": "Point", "coordinates": [ 115.128008891059594, -34.328007092559645 ] } },
{ "type": "Feature", "properties": { "scalerank": 5, "featurecla": "cape", "name": "Cape Pasley", "comment": null, "name_alt": null, "lat_y": -33.929054, "long_x": 123.517283, "region": "Oceania", "subregion": "Australia", "min_zoom": 6.0, "label": null, "name_ar": "رأس باسلي", "name_bn": "কেপ পেসলি", "name_de": "Cape Pasley", "name_en": "Cape Pasley", "name_es": "Cabo Pasley", "name_fr": "Cape Pasley", "name_el": "Ακρωτήριο Πάσλεϊ", "name_hi": "केप पास्ली", "name_hu": "Pasley-fok", "name_id": "Tanjung Pasley", "name_it": "Cape Pasley", "name_ja": "パスリー岬", "name_ko": "케이프 파슬리", "name_nl": "Cape Pasley", "name_pl": "Przylądek Pasley", "name_pt": "Cabo Pasley", "name_ru": "мыс Пасли", "name_sv": "Cape Pasley", "name_tr": "Pasley Burnu", "name_vi": "Mũi Pasley", "name_zh": "帕斯利角", "wikidataid": null, "ne_id": 1159104679, "name_fa": "دماغه پالسی", "name_he": "כף פאסלי", "name_uk": "мис Паслі", "name_ur": "کیپ پاسلے", "name_zht": "帕斯利角" }, "geometry": { "type": "Point", "coordinates": [ 123.517222526958733, -33.928887628130923 ] } },
{ "type": "Feature", "properties": { "scalerank": 5, "featurecla": "cape", "name": "Cape Londonderry", "comment": null, "name_alt": null, "lat_y": -13.713856, "long_x": 126.964514, "region": "Oceania", "subregion": "Australia", "min_zoom": 6.0, "label": null, "name_ar": "رأس لندنيري", "name_bn": "কেপ লন্ডোন্ডেরই", "name_de": "Kap Londonderry", "name_en": "Cape Londonderry", "name_es": "Cabo Londonderry", "name_fr": "Cape Londonderry", "name_el": "Ακρωτήριο Λοντοντέρι", "name_hi": "केप लंदनडेरी", "name_hu": "Londonderry-fok", "name_id": "Tanjung Londonderry", "name_it": "Cape Londonderry", "name_ja": "ロンドンデリー岬", "name_ko": "케이프 런던데리", "name_nl": "Cape Londonderry", "name_pl": "Cape Londonderry", "name_pt": "Cabo Londonderry", "name_ru": "мыс Лондондерри", "name_sv": "Kap Londonderry", "name_tr": "Londonderry Burnu", "name_vi": "Mũi Londonderry", "name_zh": "伦敦德里角", "wikidataid": null, "ne_id": 1159104683, "name_fa": "دماغه لاندونری", "name_he": "כף לונדונדרי", "name_uk": "мис Лондондеррі", "name_ur": "کیپ لندن ڈیری", "name_zht": "倫敦德里角" }, "geometry": { "type": "Point", "coordinates": [ 126.941300456871048, -13.742906426678021 ] } },
{ "type": "Feature", "properties": { "scalerank": 5, "featurecla": "cape", "name": "Steep Point", "comment": null, "name_alt": null, "lat_y": -26.16822, "long_x": 113.169959, "region": "Oceania", "subregion": "Australia", "min_zoom": 6.0, "label": "Steep Point", "name_ar": "نقطة الانحدار", "name_bn": "স্টেপ পয়েন্ট", "name_de": "Steep Point", "name_en": "Steep Point", "name_es": "Punta Steep", "name_fr": "pointe Escarpée", "name_el": "Στιπ Πόιντ", "name_hi": "स्टीप पॉइंट", "name_hu": "Steep Point", "name_id": "Steep Point", "name_it": "Steep Point", "name_ja": "スティープ・ポイント", "name_ko": "스팁 포인트", "name_nl": "Steep Point", "name_pl": "Steep Point", "name_pt": "Steep Point", "name_ru": "Стип-Пойнт", "name_sv": "Steep Point", "name_tr": "Steep Point", "name_vi": "Mũi Steep", "name_zh": "斯提普角", "wikidataid": "Q1999953", "ne_id": 1159104685, "name_fa": "استیپ پوینت", "name_he": "נקודה תלולה", "name_uk": "Стіп-Поінт", "name_ur": "اسٹیپ پوائنٹ", "name_zht": "陡峭點" }, "geometry": { "type": "Point", "coordinates": [ 113.145195632890932, -26.157463616878637 ] } },
{ "type": "Feature", "properties": { "scalerank": 5, "featurecla": "cape", "name": "North West Cape", "comment": null, "name_alt": null, "lat_y": -21.809776, "long_x": 114.117534, "region": "Oceania", "subregion": "Australia", "min_zoom": 6.0, "label": null, "name_ar": "نورث ويست كيب", "name_bn": "নর্থ ওয়েস্ট কেপ", "name_de": "North West Cape (Nordwestkap)", "name_en": "North West Cape", "name_es": "Cabo Noroeste", "name_fr": "North West Cape", "name_el": "Βορειοδυτικό Ακρωτήριο", "name_hi": "उत्तर पश्चिम केप", "name_hu": "Északnyugati-fok", "name_id": "North West Cape", "name_it": "Capo Nord-Ovest", "name_ja": "ノース・ウェスト岬", "name_ko": "노스 웨스트 케이프", "name_nl": "North West Cape", "name_pl": "Północno-zachodnia pokrywa", "name_pt": "Cabo Noroeste", "name_ru": "мыс Норт-Уэст-Кейп", "name_sv": "North West Cape", "name_tr": "Kuzeybatı Burnu", "name_vi": "Mũi North West", "name_zh": "西北角", "wikidataid": null, "ne_id": 1159104687, "name_fa": "دماغه شمال غرب", "name_he": "הכף הצפון מערבית", "name_uk": "Норт-Вест", "name_ur": "نارتھ ویسٹ کیپ", "name_zht": "西北角" }, "geometry": { "type": "Point", "coordinates": [ 114.160107612138091, -21.801474697071743 ] } },
{ "type": "Feature", "properties": { "scalerank": 5, "featurecla": "cape", "name": "Cabo Gracias a Dios", "comment": null, "name_alt": null, "lat_y": 14.994242, "long_x": -83.15866, "region": "North America", "subregion": "Central America", "min_zoom": 6.0, "label": null, "name_ar": "كابو غراسياس آ ديوس", "name_bn": "কাবো গ্রাসিয়াস আ দিয়োস", "name_de": "Cabo Gracias a Dios", "name_en": "Cabo Gracias a Dios", "name_es": "Cabo Gracias a Dios", "name_fr": "Cabo Gracias a Dios", "name_el": "Κάμπο Γκράσια α Ντίος", "name_hi": "काबो ग्रेसिआज़ अ डायओस", "name_hu": "Cabo Gracias a Dios", "name_id": "Tanjung Gracias a Dios", "name_it": "Cabo Gracias a Dios", "name_ja": "グラシアス・ア・ディオス岬", "name_ko": "카보 그라시아스 아 디오스", "name_nl": "Kaap Gracias a Dios", "name_pl": "Przylądek Gracias a Dios", "name_pt": "Cabo Gracias a Dios", "name_ru": "Кабо-Грасиас-а-Диос", "name_sv": "Cabo Gracias a Dios", "name_tr": "Cabo Gracias a Dios", "name_vi": "Mũi Gracias a Dios", "name_zh": "格拉西亞斯阿迪奧斯角", "wikidataid": null, "ne_id": 1159104691, "name_fa": "کابو فریو", "name_he": "כף גרסיאס א דיוס", "name_uk": "Кабо-Граціас-а-Діос", "name_ur": "کابو گراسیاس اے ڈائوس", "name_zht": "格拉夏斯迪歐斯角" }, "geometry": { "type": "Point", "coordinates": [ -83.158741828510017, 14.994208074994077 ] } },
{ "type": "Feature", "properties": { "scalerank": 5, "featurecla": "cape", "name": "Cape Brewster", "comment": null, "name_alt": null, "lat_y": 70.150754, "long_x": -22.122616, "region": "North America", "subregion": "Greenland", "min_zoom": 6.0, "label": "Cape Brewster", "name_ar": "رأس بروستر", "name_bn": "কেপ ব্রুস্টার", "name_de": "Kap Brewster", "name_en": "Cape Brewster", "name_es": "Cabo Brewster", "name_fr": "Cape Brewster", "name_el": "Ακρωτήριο Μπρούστερ", "name_hi": "केप ब्रूस्टर", "name_hu": "Brewster-fok", "name_id": "Tanjung Brewster", "name_it": "Capo Brewster", "name_ja": "ブリュースター岬", "name_ko": "케이프 브루스터", "name_nl": "Kaap Brewster", "name_pl": "Przylądek Brewstera", "name_pt": "Cabo Brewster", "name_ru": "мыс Брюстер", "name_sv": "Kap Brewster", "name_tr": "Brewster Burnu", "name_vi": "Mũi Brewster", "name_zh": "布鲁斯特角", "wikidataid": "Q3657109", "ne_id": 1159104693, "name_fa": "دماغه بروستر", "name_he": "כף ברוסטר", "name_uk": "мис Брюстер", "name_ur": "کیپ بریوسٹر", "name_zht": "布魯斯特角" }, "geometry": { "type": "Point", "coordinates": [ -22.122731086322517, 70.150885321087827 ] } },
{ "type": "Feature", "properties": { "scalerank": 5, "featurecla": "cape", "name": "Cape Morris Jesup", "comment": null, "name_alt": null, "lat_y": 83.626331, "long_x": -32.491541, "region": "North America", "subregion": "Greenland", "min_zoom": 6.0, "label": "Cape Morris Jesup", "name_ar": "رأس موريس جيسوب", "name_bn": "কেপ মরিস জেসাপ", "name_de": "Kap Morris Jesup", "name_en": "Cape Morris Jesup", "name_es": "Cabo Morris Jesup", "name_fr": "cap Morris Jesup", "name_el": "Ακρωτήριο Μόρις Τζέσουπ", "name_hi": "केप मॉरिस जेसुप", "name_hu": "Morris Jesup-fok", "name_id": "Tanjung Morris Jesup", "name_it": "Capo Morris Jesup", "name_ja": "モリス・ジェサップ岬", "name_ko": "모리스재섭곶", "name_nl": "Kaap Morris Jesup", "name_pl": "Kap Morris Jesup", "name_pt": "Cabo Morris Jesup", "name_ru": "Моррис-Джесуп", "name_sv": "Kap Morris Jesup", "name_tr": "Morris Jesup Burnu", "name_vi": "Mũi Morris Jesup", "name_zh": "莫里斯·杰塞普角", "wikidataid": "Q917353", "ne_id": 1159104695, "name_fa": "دماغه موریس جسوپ", "name_he": "כף מוריס יסופ", "name_uk": "Мис Моррис-Джесуп", "name_ur": "کیپ مورس جیسپ", "name_zht": "莫里斯·傑塞普角" }, "geometry": { "type": "Point", "coordinates": [ -32.491505500385017, 83.626288153119077 ] } },
{ "type": "Feature", "properties": { "scalerank": 5, "featurecla": "island", "name": "Grímsey", "comment": null, "name_alt": null, "lat_y": 66.669359, "long_x": -18.251096, "region": "Europe", "subregion": "Iceland", "min_zoom": 6.0, "label": "Grímsey", "name_ar": "غريمساى", "name_bn": "গ্রিমসে", "name_de": "Grímsey", "name_en": "Grímsey", "name_es": "Grímsey", "name_fr": "Grímsey", "name_el": "Γκρίμσεϊ", "name_hi": "ग्रिमसे", "name_hu": "Grímsey", "name_id": "Grimsey", "name_it": "Grímsey", "name_ja": "グリムセイ島", "name_ko": "그림세이", "name_nl": "Grímsey", "name_pl": "Grímsey", "name_pt": "Grímsey", "name_ru": "Гримсей", "name_sv": "Grímsey", "name_tr": "Grímsey", "name_vi": "Grímsey", "name_zh": "格里姆赛岛", "wikidataid": "Q213707", "ne_id": 1159104705, "name_fa": "گریمسی", "name_he": "האי גרימזי", "name_uk": "Ґрімсей", "name_ur": "گرمسی", "name_zht": "格里姆賽島" }, "geometry": { "type": "Point", "coordinates": [ -18.251088019916267, 66.669378973431577 ] } },
{ "type": "Feature", "properties": { "scalerank": 5, "featurecla": "island", "name": "Surtsey", "comment": null, "name_alt": null, "lat_y": 63.217764, "long_x": -20.434929, "region": "Europe", "subregion": "Iceland", "min_zoom": 6.0, "label": "Surtsey", "name_ar": "سرتسي", "name_bn": "সার্টসে", "name_de": "Surtsey", "name_en": "Surtsey", "name_es": "Surtsey", "name_fr": "Surtsey", "name_el": "Σούρτσεϊ", "name_hi": "सरट्से", "name_hu": "Surtsey", "name_id": "Surtsey", "name_it": "Surtsey", "name_ja": "スルツェイ島", "name_ko": "쉬르트세이섬", "name_nl": "Surtsey", "name_pl": "Surtsey", "name_pt": "Surtsey", "name_ru": "Сюртсей", "name_sv": "Surtsey", "name_tr": "Surtsey", "name_vi": "Surtsey", "name_zh": "叙尔特塞", "wikidataid": "Q178124", "ne_id": 1159104707, "name_fa": "سورت", "name_he": "סירטסיי", "name_uk": "Суртсей", "name_ur": "سورتسی", "name_zht": "敘爾特塞" }, "geometry": { "type": "Point", "coordinates": [ -20.434803840228767, 63.217718817181577 ] } },
{ "type": "Feature", "properties": { "scalerank": 5, "featurecla": "cape", "name": "Cap Est", "comment": null, "name_alt": null, "lat_y": -15.274849, "long_x": 50.499889, "region": "Africa", "subregion": "Indian Ocean", "min_zoom": 6.0, "label": null, "name_ar": "رأس إيست", "name_bn": "ক্যাপ এস্ত", "name_de": "Cap Est", "name_en": "Tanjona Angontsy", "name_es": "Cap Est", "name_fr": "Cap Est", "name_el": "Καπ Εστ", "name_hi": "कैप एस्ट", "name_hu": "Est-fok", "name_id": "Tanjung Est", "name_it": "Cap Est", "name_ja": "キャップ・エスト", "name_ko": "캡 에스트", "name_nl": "Cap Est", "name_pl": "Przylądek Wschodni", "name_pt": "Cabo del Este", "name_ru": null, "name_sv": "Cap Est", "name_tr": "Cap Est", "name_vi": "Mũi Est", "name_zh": "东角", "wikidataid": null, "ne_id": 1159104709, "name_fa": "دماغه است", "name_he": "הכף המזרחית", "name_uk": "мис Ест", "name_ur": "کیپ ایسٹ", "name_zht": "伊斯特角" }, "geometry": { "type": "Point", "coordinates": [ 50.499766472271233, -15.274956964068423 ] } },
{ "type": "Feature", "properties": { "scalerank": 5, "featurecla": "cape", "name": "Cape Cretin", "comment": null, "name_alt": null, "lat_y": -6.637492, "long_x": 147.852392, "region": "Oceania", "subregion": "Melanesia", "min_zoom": 6.0, "label": null, "name_ar": "رأس كريتين", "name_bn": "কেপ ক্রেটিন", "name_de": "Cape Cretin", "name_en": "Cape Cretin", "name_es": "Cabo Cretin", "name_fr": "Cape Cretin", "name_el": "Ακρωτήριο Κρέτιν", "name_hi": "केप क्रेटिन", "name_hu": "Cretin-fok", "name_id": "Tanjung Cretin", "name_it": "Capo Cretin", "name_ja": "クレティン岬", "name_ko": "케이프 크레틴", "name_nl": "Cape Cretin", "name_pl": "Cape Cretin", "name_pt": "Cabo Cretin", "name_ru": "мыс Кретин", "name_sv": "Kap Cretin", "name_tr": "Cretin Burnu", "name_vi": "Mũi Cretin", "name_zh": "克雷廷角", "wikidataid": null, "ne_id": 1159104727, "name_fa": "دماغه کرتین", "name_he": "כף קרטין", "name_uk": "мис Кретин", "name_ur": "کیپ کریٹن", "name_zht": "克雷廷角" }, "geometry": { "type": "Point", "coordinates": [ 147.852427605083733, -6.637261651568423 ] } },
{ "type": "Feature", "properties": { "scalerank": 5, "featurecla": "island", "name": "Îles Chesterfield", "comment": null, "name_alt": null, "lat_y": -19.20447, "long_x": 159.95171, "region": "Oceania", "subregion": "Melanesia", "min_zoom": 6.0, "label": null, "name_ar": "جزر تشيسترفيلد", "name_bn": "ইলেস চেস্টারফিল্ড", "name_de": "Chesterfieldinseln", "name_en": "Chesterfield Islands", "name_es": "Islas Chesterfield", "name_fr": "Îles Chesterfield", "name_el": "Ίλ Τσέστερφιλντ", "name_hi": "इलेस चेस्टरफ़ील्ड", "name_hu": "Chesterfield-sziget", "name_id": "Kepulauan Chesterfield", "name_it": "Îles Chesterfield", "name_ja": "チェスターフィールド諸島", "name_ko": "일스 체스터필드", "name_nl": "Chesterfield Islands", "name_pl": "Wyspy Chesterfield", "name_pt": "Ilhas Chesterfield", "name_ru": "острова Честерфилд", "name_sv": "Chesterfieldöarna", "name_tr": "Îles Chesterfield", "name_vi": "Đảo Chesterfield", "name_zh": "切斯特菲尔德群岛", "wikidataid": null, "ne_id": 1159104729, "name_fa": "جزایر چسترفیلد", "name_he": "האי צ'סטרפילד", "name_uk": "острови Честерфільд", "name_ur": "آئیس چیسٹرفیلڈ", "name_zht": "赤斯特非島" }, "geometry": { "type": "Point", "coordinates": [ 159.951670769146233, -19.204644464068423 ] } },
{ "type": "Feature", "properties": { "scalerank": 5, "featurecla": "island", "name": "Pagan", "comment": null, "name_alt": null, "lat_y": 18.119631, "long_x": 145.785087, "region": "Oceania", "subregion": "Micronesia", "min_zoom": 6.0, "label": "Pagan", "name_ar": "باجان", "name_bn": "পাগান", "name_de": "Pagan", "name_en": "Pagan", "name_es": "isla de Pagán", "name_fr": "île Pagan", "name_el": "Παγκάν", "name_hi": "पगान", "name_hu": "Pagan", "name_id": "Pagan", "name_it": "Pagan", "name_ja": "パガン島", "name_ko": "페이간", "name_nl": "Pagan", "name_pl": "Pagan", "name_pt": "Ilha Pagan", "name_ru": "Паган", "name_sv": "Pagan", "name_tr": "Pagan Adası", "name_vi": "Đảo Pagan", "name_zh": "帕甘岛", "wikidataid": "Q1126761", "ne_id": 1159104751, "name_fa": "پاگان", "name_he": "האי פאגאן", "name_uk": "Паган", "name_ur": "پیگن", "name_zht": "帕甘島" }, "geometry": { "type": "Point", "coordinates": [ 145.784922722271233, 18.119635321087827 ] } },
{ "type": "Feature", "properties": { "scalerank": 5, "featurecla": "island", "name": "Wake I.", "comment": null, "name_alt": null, "lat_y": 19.303497, "long_x": 166.636262, "region": "Oceania", "subregion": "Micronesia", "min_zoom": 6.0, "label": null, "name_ar": "جزيرة ويك", "name_bn": "ওয়েক আইল্যান্ড", "name_de": "Wake Island", "name_en": "Wake Island", "name_es": "Isla Wake", "name_fr": "Île Wake", "name_el": "Νήσος Γουέικ", "name_hi": "वेक द्वीप", "name_hu": "Wake sziget", "name_id": "Pulau Wake", "name_it": "Isola di Wake", "name_ja": "ウェーク島", "name_ko": "웨이크 아일랜드", "name_nl": "Wake-eiland", "name_pl": "Wake", "name_pt": "Ilha Wake", "name_ru": "остров Уэйк", "name_sv": "Wakeöarna", "name_tr": "Wake Adası", "name_vi": "Đảo Wake", "name_zh": "威克岛", "wikidataid": null, "ne_id": 1159104755, "name_fa": "جزیره ویک", "name_he": "האי וואקה", "name_uk": "острів Вейк", "name_ur": "ویک I۔", "name_zht": "威克島" }, "geometry": { "type": "Point", "coordinates": [ 166.636241081646233, 19.303595282025327 ] } },
{ "type": "Feature", "properties": { "scalerank": 5, "featurecla": "island", "name": "Tabiteuea", "comment": null, "name_alt": null, "lat_y": -1.201405, "long_x": 174.755207, "region": "Oceania", "subregion": "Micronesia", "min_zoom": 6.0, "label": "Tabiteuea", "name_ar": "تابيتويا", "name_bn": "ট্যাবিটিউয়া", "name_de": "Tabiteuea", "name_en": "Tabiteuea", "name_es": "Tabiteuea", "name_fr": "Tabiteuea", "name_el": "Ταμπιτεουέα", "name_hi": "ताबीतेयूआ", "name_hu": "Tabiteuea", "name_id": "Tabiteuea", "name_it": "Tabiteuea", "name_ja": "タビテウエア", "name_ko": "타비테우에아", "name_nl": "Tabiteuea", "name_pl": "Tabiteuea", "name_pt": "Tabiteuea", "name_ru": "Табитеуэа", "name_sv": "Tabiteuea", "name_tr": "Tabiteuea", "name_vi": "Tabiteuea", "name_zh": "塔比特韋亞環礁", "wikidataid": "Q1059267", "ne_id": 1159104757, "name_fa": "تابیتیویا", "name_he": "טאביטאואה", "name_uk": "Табітеуеа", "name_ur": "تابیٹیوا", "name_zht": "塔位元韋亞環礁" }, "geometry": { "type": "Point", "coordinates": [ 174.755137566021233, -1.201348565630923 ] } },
{ "type": "Feature", "properties": { "scalerank": 5, "featurecla": "island", "name": "Aranuka", "comment": null, "name_alt": null, "lat_y": 0.226766, "long_x": 173.626286, "region": "Oceania", "subregion": "Micronesia", "min_zoom": 6.0, "label": "Aranuka", "name_ar": "أرانوكا", "name_bn": "আরানুকা", "name_de": "Aranuka", "name_en": "Aranuka", "name_es": "Aranuka", "name_fr": "Aranuka", "name_el": "Αρανούκα", "name_hi": "अरनुका", "name_hu": "Aranuka", "name_id": "Aranuka", "name_it": "Aranuka", "name_ja": "アラヌーカ環礁", "name_ko": "아라누카", "name_nl": "Aranuka", "name_pl": "Aranuka", "name_pt": "Aranuka", "name_ru": "Аранука", "name_sv": "Aranuka", "name_tr": "Aranuka", "name_vi": "Đảo Aranuka", "name_zh": "阿拉努卡環礁", "wikidataid": "Q626095", "ne_id": 1159104759, "name_fa": "آرانوکا", "name_he": "אראנוקה", "name_uk": "Аранука", "name_ur": "آرانوکا", "name_zht": "阿拉努卡環礁" }, "geometry": { "type": "Point", "coordinates": [ 173.626231316021233, 0.226752020306577 ] } },
{ "type": "Feature", "properties": { "scalerank": 5, "featurecla": "island", "name": "Nauru", "comment": null, "name_alt": null, "lat_y": -0.505856, "long_x": 166.930778, "region": "Oceania", "subregion": "Micronesia", "min_zoom": 6.0, "label": "Nauru", "name_ar": "ناورو", "name_bn": "নাউরু", "name_de": "Nauru", "name_en": "Nauru", "name_es": "Nauru", "name_fr": "Nauru", "name_el": "Ναούρου", "name_hi": "नाउरू", "name_hu": "Nauru", "name_id": "Nauru", "name_it": "Nauru", "name_ja": "ナウル島", "name_ko": "나우루", "name_nl": "Nauru", "name_pl": "Nauru", "name_pt": "Nauru", "name_ru": "Науру", "name_sv": "Nauru", "name_tr": "Nauru", "name_vi": "Đảo Nauru", "name_zh": "瑙鲁岛", "wikidataid": "Q30151675", "ne_id": 1159104761, "name_fa": "نائورو", "name_he": "נאורו", "name_uk": "Науру", "name_ur": "ناورو", "name_zht": "諾魯島" }, "geometry": { "type": "Point", "coordinates": [ 166.930674675396233, -0.505791925005923 ] } },
{ "type": "Feature", "properties": { "scalerank": 5, "featurecla": "island", "name": "Ebon", "comment": null, "name_alt": null, "lat_y": 4.59977, "long_x": 168.736432, "region": "Oceania", "subregion": "Micronesia", "min_zoom": 6.0, "label": null, "name_ar": "إيبون", "name_bn": "এবন", "name_de": "Ebon-Atoll", "name_en": "Ebon", "name_es": "Ebon", "name_fr": "Ebon", "name_el": "Έμπον", "name_hi": "एबोन", "name_hu": "Ebon", "name_id": "Ebon", "name_it": "Ebon", "name_ja": "エボン島", "name_ko": "에본", "name_nl": "Ebon", "name_pl": "Ebon", "name_pt": "Ebon", "name_ru": null, "name_sv": "Ebon", "name_tr": "Ebon", "name_vi": "Đảo Ebon", "name_zh": "埃邦环礁", "wikidataid": null, "ne_id": 1159104763, "name_fa": "ابرون", "name_he": "האי איבון", "name_uk": "Ебон", "name_ur": "ایبون", "name_zht": "埃邦島" }, "geometry": { "type": "Point", "coordinates": [ 168.736338737896233, 4.599798895306577 ] } },
{ "type": "Feature", "properties": { "scalerank": 5, "featurecla": "island", "name": "Jaluit", "comment": null, "name_alt": null, "lat_y": 5.964455, "long_x": 169.682894, "region": "Oceania", "subregion": "Micronesia", "min_zoom": 6.0, "label": "Jaluit", "name_ar": "جالويت", "name_bn": "জালুইট", "name_de": "Jaluit", "name_en": "Jaluit Island", "name_es": "Jaluit", "name_fr": "Jaluit", "name_el": "Τζαλουίτ", "name_hi": "जलुइत", "name_hu": "Jaluit", "name_id": "Jaluit", "name_it": "Jaluit", "name_ja": "ヤルート島", "name_ko": "잘루이트", "name_nl": "Jaluit", "name_pl": "Jaluit", "name_pt": "Jaluit", "name_ru": "атолл Джалуит", "name_sv": "Jaluit", "name_tr": "Jaluit", "name_vi": "Đảo Jaluit", "name_zh": "加路伊岛", "wikidataid": "Q27577106", "ne_id": 1159104765, "name_fa": "جالیوت", "name_he": "האי ג'אלויט", "name_uk": "Джалуіт", "name_ur": "جالوئت", "name_zht": "加路伊島" }, "geometry": { "type": "Point", "coordinates": [ 169.682994011333733, 5.964483953900327 ] } },
{ "type": "Feature", "properties": { "scalerank": 5, "featurecla": "island", "name": "Mili", "comment": null, "name_alt": null, "lat_y": 6.107334, "long_x": 171.725875, "region": "Oceania", "subregion": "Micronesia", "min_zoom": 6.0, "label": null, "name_ar": "ميلي", "name_bn": "মিলি", "name_de": "Mili", "name_en": "Mili Atoll", "name_es": "Mili", "name_fr": "Mili", "name_el": "Μίλι", "name_hi": "मिली", "name_hu": "Mili", "name_id": "Mili", "name_it": "Mili", "name_ja": "ミリ島", "name_ko": "밀리", "name_nl": "Mili", "name_pl": "Mili", "name_pt": "Mili", "name_ru": "атолл Мили", "name_sv": "Mili", "name_tr": "Mili", "name_vi": "Đảo Mili", "name_zh": "米利环礁", "wikidataid": null, "ne_id": 1159104767, "name_fa": "میلی", "name_he": "האי מיל", "name_uk": "Мілі", "name_ur": "ملی", "name_zht": "密里" }, "geometry": { "type": "Point", "coordinates": [ 171.725840691021233, 6.107489324994077 ] } },
{ "type": "Feature", "properties": { "scalerank": 5, "featurecla": "island", "name": "Majuro", "comment": null, "name_alt": null, "lat_y": 7.118009, "long_x": 171.159743, "region": "Oceania", "subregion": "Micronesia", "min_zoom": 6.0, "label": "Majuro", "name_ar": "ماجورو", "name_bn": "মাজুরো", "name_de": "Majuro-Atoll", "name_en": "Majuro Island", "name_es": "Majuro", "name_fr": "Majuro", "name_el": "Ματζούρο", "name_hi": "माजुरो", "name_hu": "Majuro", "name_id": "Majuro", "name_it": "Majuro", "name_ja": "マジュロ", "name_ko": "마주로", "name_nl": "Majuro", "name_pl": "Majuro", "name_pt": "Majuro", "name_ru": "атолл Маджуро", "name_sv": "Majuro Island", "name_tr": "Majuro", "name_vi": "Đảo Majuro", "name_zh": "马朱罗", "wikidataid": "Q27577464", "ne_id": 1159104769, "name_fa": "ماجورو", "name_he": "מקאמבה", "name_uk": "Маджуро", "name_ur": "ماجورو", "name_zht": "馬久羅島" }, "geometry": { "type": "Point", "coordinates": [ 171.159800651958733, 7.117987371869077 ] } },
{ "type": "Feature", "properties": { "scalerank": 5, "featurecla": "island", "name": "Ailinglapalap", "comment": null, "name_alt": null, "lat_y": 7.276392, "long_x": 168.596926, "region": "Oceania", "subregion": "Micronesia", "min_zoom": 6.0, "label": "Ailinglapalap", "name_ar": "أيلينجلابلاب", "name_bn": "আইলিংলাপালাপ", "name_de": "Ailinglaplap", "name_en": "Ailinglaplap", "name_es": "Ailinglapalap", "name_fr": "Ailinglaplap", "name_el": "Αϊλινγκλαπαλάπ", "name_hi": "ऐलिंगलैपालैप", "name_hu": "Ailinglapalap", "name_id": "Ailinglapalap", "name_it": "Ailinglapalap", "name_ja": "アイリングラップ環礁", "name_ko": "아일링라팔랍", "name_nl": "Ailinglapalap", "name_pl": "Ailinglapalap", "name_pt": "Ailinglapalap", "name_ru": "Аилинглапалап", "name_sv": "Ailinglaplap", "name_tr": "Ailinglapalap", "name_vi": "Đảo Ailinglapalap", "name_zh": "马绍尔岛", "wikidataid": "Q27577510", "ne_id": 1159104773, "name_fa": "آیلینگلاپالاپ", "name_he": "האי איילינגלאפלאפ", "name_uk": "Аілінглапалап", "name_ur": "ایلینگاپالپ", "name_zht": "艾林拉帕拉普環礁" }, "geometry": { "type": "Point", "coordinates": [ 168.596934441021233, 7.276495672650327 ] } },
{ "type": "Feature", "properties": { "scalerank": 5, "featurecla": "island", "name": "Kwajalein", "comment": null, "name_alt": null, "lat_y": 8.746619, "long_x": 167.735072, "region": "Oceania", "subregion": "Micronesia", "min_zoom": 6.0, "label": null, "name_ar": "كواجالين", "name_bn": "কোওয়াজালেন", "name_de": "Kwajalein", "name_en": "Kwajalein Island", "name_es": "Kwajalein", "name_fr": "Kwajalein", "name_el": "Κβατζαλέιν", "name_hi": "क्वाजालीन", "name_hu": "Kwajalein", "name_id": "Kwajalein", "name_it": "Kwajalein", "name_ja": "クェゼリン", "name_ko": "콰잘레인", "name_nl": "Kwajalein", "name_pl": "Kwajalein", "name_pt": "Kwajalein", "name_ru": "атолл Меншикова", "name_sv": "Kwajaleinatollen", "name_tr": "Kwajalein", "name_vi": "Đảo Kwajalein", "name_zh": "夸贾林岛", "wikidataid": null, "ne_id": 1159104775, "name_fa": "کواجالین", "name_he": "האי קוואייג'לין", "name_uk": "Кваджалейн", "name_ur": "کواجلاین", "name_zht": "瓜加林島" }, "geometry": { "type": "Point", "coordinates": [ 167.735118034771233, 8.746710516400327 ] } },
{ "type": "Feature", "properties": { "scalerank": 5, "featurecla": "island", "name": "Rongelap", "comment": null, "name_alt": null, "lat_y": 11.164329, "long_x": 166.869876, "region": "Oceania", "subregion": "Micronesia", "min_zoom": 6.0, "label": null, "name_ar": "رونغلاب", "name_bn": "রঞ্জল্যাপ", "name_de": "Rongelap-Atoll", "name_en": "Rongelap Atoll", "name_es": "Rongelap", "name_fr": "Rongelap", "name_el": "Ρόνγκελαπ", "name_hi": "रौंगेलैप", "name_hu": "Rongelap", "name_id": "Rongelap", "name_it": "Rongelap", "name_ja": "ロンゲラップ", "name_ko": "롱겔랍", "name_nl": "Rongelap", "name_pl": "Rongelap", "name_pt": "Rongelap", "name_ru": "атолл Ронгелап", "name_sv": "Rongelap", "name_tr": "Rongelap", "name_vi": "Đảo Rongelap", "name_zh": "朗格拉普岛", "wikidataid": null, "ne_id": 1159104777, "name_fa": "رونگلاپ", "name_he": "האי רונגלאפ", "name_uk": "Ронглап", "name_ur": "رونگےلیپ", "name_zht": "朗格拉普島" }, "geometry": { "type": "Point", "coordinates": [ 166.869883659771233, 11.164496160931577 ] } },
{ "type": "Feature", "properties": { "scalerank": 5, "featurecla": "island", "name": "Bikini", "comment": null, "name_alt": null, "lat_y": 11.639231, "long_x": 165.550698, "region": "Oceania", "subregion": "Micronesia", "min_zoom": 6.0, "label": "Bikini", "name_ar": "بيكيني", "name_bn": "বিকিনি", "name_de": "Bikini-Atoll", "name_en": "Bikini Atoll", "name_es": "Bikini", "name_fr": "Bikini", "name_el": "Μπικίνι", "name_hi": "बिकीनी", "name_hu": "Bikini", "name_id": "Bikini", "name_it": "Bikini", "name_ja": "ビキニ島", "name_ko": "비키니", "name_nl": "Bikini", "name_pl": "Bikini", "name_pt": "Bikini", "name_ru": "Бикини", "name_sv": "Bikini", "name_tr": "Bikini", "name_vi": "Đảo Bikini", "name_zh": "比基尼岛", "wikidataid": "Q27577613", "ne_id": 1159104779, "name_fa": "بیکینی", "name_he": "האי ביקיני", "name_uk": "Бікіні", "name_ur": "بکنی", "name_zht": "比基尼島" }, "geometry": { "type": "Point", "coordinates": [ 165.550425651958733, 11.639288641400327 ] } },
{ "type": "Feature", "properties": { "scalerank": 5, "featurecla": "cape", "name": "Cape Reinga", "comment": null, "name_alt": null, "lat_y": -34.432767, "long_x": 172.728503, "region": "Oceania", "subregion": "New Zealand", "min_zoom": 6.0, "label": "Cape Reinga", "name_ar": "رأس رينيغا", "name_bn": "কেপ রেগিনা", "name_de": "Cape Reinga", "name_en": "Cape Reinga / Te Rerenga Wairua", "name_es": "Cabo Reinga", "name_fr": "cap Reinga", "name_el": "Ακρωτήριο Ρέινγκα", "name_hi": "केप रींगा", "name_hu": "Reinga-fok", "name_id": "Tanjung Reinga", "name_it": "Capo Reinga", "name_ja": "レインガ岬", "name_ko": "레잉가곶", "name_nl": "Cape Reinga", "name_pl": "Przylądek Reinga", "name_pt": "Cabo Reinga", "name_ru": "Реинга", "name_sv": "Kap Reinga", "name_tr": "Reinga Burnu", "name_vi": "Mũi Reinga", "name_zh": "雷恩加角", "wikidataid": "Q1034494", "ne_id": 1159104781, "name_fa": "دماغه رینگا", "name_he": "קייפ ריאנגה", "name_uk": "мис Реінга", "name_ur": "کیپ رینگا", "name_zht": "雷恩加角" }, "geometry": { "type": "Point", "coordinates": [ 172.705581171374547, -34.42039113947056 ] } },
{ "type": "Feature", "properties": { "scalerank": 5, "featurecla": "island", "name": "Kanton Island", "comment": null, "name_alt": null, "lat_y": -2.757106, "long_x": -171.717033, "region": "Oceania", "subregion": "Polynesia", "min_zoom": 6.0, "label": "Kanton", "name_ar": "جزيرة كانتون", "name_bn": "কান্টন আইল্যান্ড", "name_de": "Kanton", "name_en": "Kanton Island", "name_es": "Kanton", "name_fr": "Canton", "name_el": "Νήσος Καντών", "name_hi": "कैंटन द्वीप", "name_hu": "Kanton-sziget", "name_id": "Pulau Kanton", "name_it": "Canton", "name_ja": "カントン島", "name_ko": "캔턴섬", "name_nl": "Kanton", "name_pl": "Kanton", "name_pt": "Ilha Kanton", "name_ru": "Кантон", "name_sv": "Kantonatollen", "name_tr": "Kanton Adası", "name_vi": "Đảo Kanton", "name_zh": "阿巴里靈阿環礁", "wikidataid": "Q30895", "ne_id": 1159104819, "name_fa": "جزیره کانتون", "name_he": "קנטון", "name_uk": "Кантон", "name_ur": "کینٹن آئیلینڈ", "name_zht": "阿巴里靈阿環礁" }, "geometry": { "type": "Point", "coordinates": [ -171.717030402728767, -2.757134698443423 ] } },
{ "type": "Feature", "properties": { "scalerank": 5, "featurecla": "island", "name": "Tabuaeran", "comment": null, "name_alt": "Fanning I.", "lat_y": 3.866545, "long_x": -159.326781, "region": "Oceania", "subregion": "Polynesia", "min_zoom": 6.0, "label": null, "name_ar": "تابوارين", "name_bn": "তাবুয়ারান", "name_de": "Tabuaeran", "name_en": "Tabuaeran", "name_es": "Tabuaeran", "name_fr": "Tabuaeran", "name_el": "Ταμπουαεράν", "name_hi": "तबुआरान", "name_hu": "Tabuaeran", "name_id": "Tabuaeran", "name_it": "Tabuaeran", "name_ja": "タブアエラン島", "name_ko": "타부에란", "name_nl": "Tabuaeran", "name_pl": "Tabuaeran", "name_pt": "Tabuaeran", "name_ru": "атолл Табуаэран", "name_sv": "Tabuaeran", "name_tr": "Tabuaeran", "name_vi": "Đảo Tabuaeran", "name_zh": "塔布阿埃兰环礁", "wikidataid": null, "ne_id": 1159104821, "name_fa": "تابوآئران", "name_he": "האי טבוארן", "name_uk": "Табуаеран", "name_ur": "تابوایران", "name_zht": "塔布埃蘭島" }, "geometry": { "type": "Point", "coordinates": [ -159.326832648822517, 3.866705633587827 ] } },
{ "type": "Feature", "properties": { "scalerank": 5, "featurecla": "island", "name": "Malden Island", "comment": null, "name_alt": null, "lat_y": -4.042491, "long_x": -154.983478, "region": "Oceania", "subregion": "Polynesia", "min_zoom": 6.0, "label": "Malden", "name_ar": "جزيرة مالدن", "name_bn": "মালদেন আইল্যান্ড", "name_de": "Malden", "name_en": "Malden Island", "name_es": "Isla Malden", "name_fr": "Malden", "name_el": "Μάλντεν Νήσος", "name_hi": "माल्देन द्वीप", "name_hu": "Malden-sziget", "name_id": "Pulau Malden", "name_it": "Malden", "name_ja": "マルデン島", "name_ko": "몰덴 섬", "name_nl": "Malden", "name_pl": "Malden Island", "name_pt": "Ilha Malden", "name_ru": "Молден", "name_sv": "Malden Island", "name_tr": "Malden Adası", "name_vi": "Đảo Malden", "name_zh": "莫爾登島", "wikidataid": "Q532590", "ne_id": 1159104823, "name_fa": "جزیره مالدن", "name_he": "מאלדן", "name_uk": "Молден", "name_ur": "مالدین جزیرہ", "name_zht": "莫爾登島" }, "geometry": { "type": "Point", "coordinates": [ -154.983509894916267, -4.042657159380923 ] } },
{ "type": "Feature", "properties": { "scalerank": 5, "featurecla": "island", "name": "Rarotonga", "comment": null, "name_alt": null, "lat_y": -21.201867, "long_x": -159.797637, "region": "Oceania", "subregion": "Polynesia", "min_zoom": 6.0, "label": "Rarotonga", "name_ar": "راروتونغا", "name_bn": "রারোটোঙ্গা", "name_de": "Rarotonga", "name_en": "Rarotonga", "name_es": "Rarotonga", "name_fr": "Rarotonga", "name_el": "Ραροτόνγκα", "name_hi": "रैरोटोंगा", "name_hu": "Rarotonga", "name_id": "Rarotonga", "name_it": "Rarotonga", "name_ja": "ラロトンガ島", "name_ko": "라로통가섬", "name_nl": "Rarotonga", "name_pl": "Rarotonga", "name_pt": "Rarotonga", "name_ru": "Раротонга", "name_sv": "Rarotonga", "name_tr": "Rarotonga", "name_vi": "Rarotonga", "name_zh": "拉罗汤加岛", "wikidataid": "Q471793", "ne_id": 1159104827, "name_fa": "راروتونگا", "name_he": "ררוטונגה", "name_uk": "Раротонга", "name_ur": "راروتونجا", "name_zht": "拉羅湯加島" }, "geometry": { "type": "Point", "coordinates": [ -159.797718879291267, -21.201836846880923 ] } },
{ "type": "Feature", "properties": { "scalerank": 5, "featurecla": "island", "name": "Rangiroa", "comment": null, "name_alt": null, "lat_y": -15.2046, "long_x": -147.773967, "region": "Oceania", "subregion": "Polynesia", "min_zoom": 6.0, "label": "Rangiroa", "name_ar": "رانجيروا", "name_bn": "রঙ্গিরোয়া", "name_de": "Rangiroa", "name_en": "Rangiroa", "name_es": "Rangiroa", "name_fr": "Rangiroa", "name_el": "Ρανγκιρόα", "name_hi": "रांगिरो", "name_hu": "Rangiroa", "name_id": "Rangiroa", "name_it": "Rangiroa", "name_ja": "ランギロア環礁", "name_ko": "랑이로아 환초", "name_nl": "Rangiroa", "name_pl": "Rangiroa", "name_pt": "Rangiroa", "name_ru": "Рангироа", "name_sv": "Rangiroa", "name_tr": "Rangiroa", "name_vi": "Đảo Rangiroa", "name_zh": "伦吉拉环礁", "wikidataid": "Q757399", "ne_id": 1159104829, "name_fa": "رانگیروا", "name_he": "האי ראנגירואה", "name_uk": "Рангіроа", "name_ur": "رانگیروا", "name_zht": "倫吉拉環礁" }, "geometry": { "type": "Point", "coordinates": [ -147.774037238666267, -15.204766534380923 ] } },
{ "type": "Feature", "properties": { "scalerank": 5, "featurecla": "island", "name": "Funafuti", "comment": null, "name_alt": null, "lat_y": -8.491577, "long_x": 179.198413, "region": "Oceania", "subregion": "Polynesia", "min_zoom": 6.0, "label": "Funafuti", "name_ar": "فونافوتي", "name_bn": "ফুনাফুটি", "name_de": "Fongafale", "name_en": "Fongafale", "name_es": "Fongafale", "name_fr": "Fongafale", "name_el": "Φονγκαφάλε", "name_hi": "फ़नाफ़ुटि", "name_hu": "Fongafale", "name_id": "Funafuti", "name_it": "Fongafale", "name_ja": "フォンガファレ島", "name_ko": "푸나푸티", "name_nl": "Fongafale", "name_pl": "Fongafale", "name_pt": "Fongafale", "name_ru": "Фонгафале", "name_sv": "Fongafale", "name_tr": "Fongafale", "name_vi": "Đảo Funafuti", "name_zh": "风加法列", "wikidataid": "Q731947", "ne_id": 1159104831, "name_fa": "فونافوتی", "name_he": "פונגפייל", "name_uk": "Фунафуті", "name_ur": "فونافوٹی", "name_zht": "風加法列" }, "geometry": { "type": "Point", "coordinates": [ 179.198374870708733, -8.491631768755923 ] } },
{ "type": "Feature", "properties": { "scalerank": 5, "featurecla": "island", "name": "Saint Croix", "comment": null, "name_alt": null, "lat_y": 17.762944, "long_x": -64.763088, "region": "North America", "subregion": "West Indies", "min_zoom": 6.0, "label": "St. Croix", "name_ar": "سينت كروا", "name_bn": "সেন্ট ক্রিক্স", "name_de": "Saint Croix", "name_en": "Saint Croix", "name_es": "Saint Croix", "name_fr": "Sainte-Croix", "name_el": "Σαιντ Κρουά", "name_hi": "सेंट क्रोइक्स", "name_hu": "Saint Croix", "name_id": "Santo Croix", "name_it": "Saint Croix", "name_ja": "セント・クロイ島", "name_ko": "세인트크로이섬", "name_nl": "Saint Croix", "name_pl": "Saint Croix", "name_pt": "Saint Croix", "name_ru": "Санта-Крус", "name_sv": "Saint Croix", "name_tr": "Saint Croix", "name_vi": "Saint Croix", "name_zh": "圣克洛伊岛", "wikidataid": "Q642481", "ne_id": 1159104837, "name_fa": "سنت کرویکس، جزایر ویرجین ایالات متحده", "name_he": "סנט קרואה", "name_uk": "Санта-Крус", "name_ur": "سینٹ کروی، امریکی جزائر ورجن", "name_zht": "聖克洛伊島" }, "geometry": { "type": "Point", "coordinates": [ -64.763172980853767, 17.763006903119077 ] } },
{ "type": "Feature", "properties": { "scalerank": 5, "featurecla": "island", "name": "Grand Cayman", "comment": null, "name_alt": null, "lat_y": 19.315829, "long_x": -81.271416, "region": "North America", "subregion": "West Indies", "min_zoom": 6.0, "label": "Grand Cayman", "name_ar": "جراند كايمان", "name_bn": "গ্র্যান্ড কেম্যান", "name_de": "Grand Cayman", "name_en": "Grand Cayman", "name_es": "Gran Caimán", "name_fr": "Grand Cayman", "name_el": "Γκραντ Κέιμαν", "name_hi": "ग्रैंड केमैन", "name_hu": "Grand Cayman", "name_id": "Grand Cayman", "name_it": "Grand Cayman", "name_ja": "グランドケイマン", "name_ko": "그랜드 케이맨", "name_nl": "Grand Cayman", "name_pl": "Wielki Kajman", "name_pt": "Grande Caimão", "name_ru": "Большой Кайман", "name_sv": "Grand Cayman", "name_tr": "Grand Cayman", "name_vi": "Đảo Grand Cayman", "name_zh": "大开曼", "wikidataid": "Q737765", "ne_id": 1159104839, "name_fa": "گرند کیمن", "name_he": "גראנד קיימן", "name_uk": "Великий Кайман", "name_ur": "گرینڈ کیمین", "name_zht": "大開曼" }, "geometry": { "type": "Point", "coordinates": [ -81.271595832416267, 19.315802313275327 ] } },
{ "type": "Feature", "properties": { "scalerank": 5, "featurecla": "island", "name": "San Salvador", "comment": null, "name_alt": null, "lat_y": 24.052793, "long_x": -74.492848, "region": "North America", "subregion": "West Indies", "min_zoom": 6.0, "label": "San Salvador", "name_ar": "جزيرة سان سلفادور", "name_bn": "সান সালভাদর আইল্যান্ড", "name_de": "San Salvador", "name_en": "San Salvador Island", "name_es": "San Salvador", "name_fr": "San Salvador", "name_el": "Σαν Σαλβαντόρ", "name_hi": "सैन साल्वाडोर द्वीप", "name_hu": "San Salvador", "name_id": "Pulau San Salvador", "name_it": "San Salvador", "name_ja": "サン・サルバドル島", "name_ko": "산살바도르섬", "name_nl": "San Salvador", "name_pl": "San Salvador", "name_pt": "San Salvador", "name_ru": "Сан-Сальвадор", "name_sv": "San Salvador", "name_tr": "San Salvador Adaları", "name_vi": "Đảo San Salvador", "name_zh": "圣萨尔瓦多岛", "wikidataid": "Q845540", "ne_id": 1159104841, "name_fa": "جزیره سان سالوادور", "name_he": "סן סלבדור", "name_uk": "Сан-Сальвадор", "name_ur": "جزیرہ سان سلواڈور", "name_zht": "聖薩爾瓦多島" }, "geometry": { "type": "Point", "coordinates": [ -74.492909308978767, 24.052801824994077 ] } },
{ "type": "Feature", "properties": { "scalerank": 5, "featurecla": "island", "name": "Grenada", "comment": null, "name_alt": null, "lat_y": 12.105978, "long_x": -61.723079, "region": "North America", "subregion": "West Indies", "min_zoom": 6.0, "label": "Grenada", "name_ar": "غرينادا", "name_bn": "গ্রেনাডা", "name_de": "Grenada", "name_en": "Grenada", "name_es": "Grenada", "name_fr": "Grenade", "name_el": "Γρενάδα", "name_hi": "ग्रेनाडा", "name_hu": "Grenada", "name_id": "Grenada", "name_it": "Grenada", "name_ja": "グレナダ島", "name_ko": "그레나다", "name_nl": "Grenada", "name_pl": "Grenada", "name_pt": "Grenada", "name_ru": "Гренада", "name_sv": "Grenada", "name_tr": "Grenada", "name_vi": "Đảo Grenada", "name_zh": "格林纳达岛", "wikidataid": "Q3116419", "ne_id": 1159104845, "name_fa": "گرنادا", "name_he": "האי גרנדה", "name_uk": "Гренада", "name_ur": "گریناڈا", "name_zht": "格林纳达岛" }, "geometry": { "type": "Point", "coordinates": [ -61.723194953510017, 12.105963446087827 ] } },
{ "type": "Feature", "properties": { "scalerank": 5, "featurecla": "island", "name": "Barbuda", "comment": null, "name_alt": null, "lat_y": 17.622525, "long_x": -61.789243, "region": "North America", "subregion": "West Indies", "min_zoom": 6.0, "label": "Barbuda", "name_ar": "باربودا", "name_bn": "বারবুডা", "name_de": "Barbuda", "name_en": "Barbuda", "name_es": "Barbuda", "name_fr": "Barbuda", "name_el": "Μπαρμπούντα", "name_hi": "बारबूडा", "name_hu": "Barbuda", "name_id": "Barbuda", "name_it": "Barbuda", "name_ja": "バーブーダ島", "name_ko": "바부다섬", "name_nl": "Barbuda", "name_pl": "Barbuda", "name_pt": "Barbuda", "name_ru": "Барбуда", "name_sv": "Barbuda", "name_tr": "Barbuda", "name_vi": "Barbuda", "name_zh": "巴布达岛", "wikidataid": "Q238752", "ne_id": 1159104847, "name_fa": "بارابودا", "name_he": "ברבודה", "name_uk": "Барбуда", "name_ur": "باربوڈا", "name_zht": "巴布達島" }, "geometry": { "type": "Point", "coordinates": [ -61.789296027728767, 17.622626043744077 ] } },
{ "type": "Feature", "properties": { "scalerank": 5, "featurecla": "island", "name": "Antigua", "comment": null, "name_alt": null, "lat_y": 17.040441, "long_x": -61.775982, "region": "North America", "subregion": "West Indies", "min_zoom": 6.0, "label": "Antigua", "name_ar": "أنتيغوا", "name_bn": "আন্টিগুয়া", "name_de": "Antigua", "name_en": "Antigua", "name_es": "Isla Antigua", "name_fr": "Antigua", "name_el": "Αντίγκουα", "name_hi": "एंटीगा", "name_hu": "Antigua", "name_id": "Antigua", "name_it": "Antigua", "name_ja": "アンティグア島", "name_ko": "앤티가섬", "name_nl": "Antigua", "name_pl": "Antigua", "name_pt": "Antígua", "name_ru": "Антигуа", "name_sv": "Antigua", "name_tr": "Antigua", "name_vi": "Antigua", "name_zh": "安提瓜島", "wikidataid": "Q316390", "ne_id": 1159104849, "name_fa": "آنتیگوا", "name_he": "אנטיגואה", "name_uk": "Антигуа", "name_ur": "اینٹیگوا", "name_zht": "安地卡島" }, "geometry": { "type": "Point", "coordinates": [ -61.775929328510017, 17.040594793744077 ] } },
{ "type": "Feature", "properties": { "scalerank": 5, "featurecla": "island", "name": "Guadeloupe", "comment": null, "name_alt": null, "lat_y": 16.180583, "long_x": -61.656947, "region": "North America", "subregion": "West Indies", "min_zoom": 6.0, "label": "Guadeloupe", "name_ar": "غوادالوبي", "name_bn": "গুয়াদেলৌপে", "name_de": "Guadeloupe", "name_en": "Guadeloupe", "name_es": "Isla Guadalupe", "name_fr": "Guadeloupe", "name_el": "Γουαδελούπη", "name_hi": "गुआडालूपे", "name_hu": "Guadeloupe", "name_id": "Guadeloupe", "name_it": "Guadalupa", "name_ja": "グアドループ島", "name_ko": "과들루프", "name_nl": "Guadeloupe", "name_pl": "Gwadelupa", "name_pt": "Guadalupe", "name_ru": "Гваделупа", "name_sv": "Guadeloupe", "name_tr": "Guadeloupe", "name_vi": "Đảo Guadeloupe", "name_zh": "瓜德罗普岛", "wikidataid": "Q3118683", "ne_id": 1159104851, "name_fa": "گوآدلوپ", "name_he": "האי גוואדלופ", "name_uk": "Гваделупа", "name_ur": "گواڈیلوپ", "name_zht": "瓜德羅普島" }, "geometry": { "type": "Point", "coordinates": [ -61.657032844135017, 16.180670477337827 ] } },
{ "type": "Feature", "properties": { "scalerank": 5, "featurecla": "island", "name": "Dominica", "comment": null, "name_alt": null, "lat_y": 15.452943, "long_x": -61.352652, "region": "North America", "subregion": "West Indies", "min_zoom": 6.0, "label": "Dominica", "name_ar": "دومينيكا", "name_bn": "ডোমিনিকা", "name_de": "Dominica", "name_en": "Dominika", "name_es": "Dominica", "name_fr": "Dominique", "name_el": "Ντομίνικα", "name_hi": "डोमिनिका", "name_hu": "Dominika", "name_id": "Dominica", "name_it": "Dominica", "name_ja": "ドミニカ島", "name_ko": "도미니카", "name_nl": "Dominica", "name_pl": "Dominika", "name_pt": "Dominica", "name_ru": "Доминика", "name_sv": "Dominica", "name_tr": "Dominica", "name_vi": "Đảo Dominica", "name_zh": "多米尼加岛", "wikidataid": "Q4165857", "ne_id": 1159104853, "name_fa": "دومینیکا", "name_he": "האי דומיניקה", "name_uk": "Домініка", "name_ur": "ڈومینیکا", "name_zht": "多米尼克島" }, "geometry": { "type": "Point", "coordinates": [ -61.352711555072517, 15.452887274212827 ] } },
{ "type": "Feature", "properties": { "scalerank": 5, "featurecla": "island", "name": "Martinique", "comment": null, "name_alt": null, "lat_y": 14.672462, "long_x": -61.008715, "region": "North America", "subregion": "West Indies", "min_zoom": 6.0, "label": "Martinique", "name_ar": "مارتينيك", "name_bn": "মার্তিনিক", "name_de": "Martinique", "name_en": "Martinique", "name_es": "Martinica", "name_fr": "Martinique", "name_el": "Μαρτινίκα", "name_hi": "मार्टीनिक", "name_hu": "Martinique", "name_id": "Martinik", "name_it": "Martinica", "name_ja": "マルティニーク", "name_ko": "마르티니크", "name_nl": "Martinique", "name_pl": "Martynika", "name_pt": "Martinica", "name_ru": "Мартиника", "name_sv": "Martinique", "name_tr": "Martinik", "name_vi": "Martinique", "name_zh": "马提尼克", "wikidataid": "Q17054", "ne_id": 1159104855, "name_fa": "مارتینیک", "name_he": "מרטיניק", "name_uk": "Мартиніка", "name_ur": "مارٹینیک", "name_zht": "馬丁尼克" }, "geometry": { "type": "Point", "coordinates": [ -61.008839484760017, 14.672491766400327 ] } },
{ "type": "Feature", "properties": { "scalerank": 5, "featurecla": "island", "name": "Saint Lucia", "comment": null, "name_alt": null, "lat_y": 13.918332, "long_x": -60.982225, "region": "North America", "subregion": "West Indies", "min_zoom": 6.0, "label": "Saint Lucia", "name_ar": "سان لوسيا", "name_bn": "সেন্ট লুসিয়া", "name_de": "St. Lucia", "name_en": "Saint Lucia", "name_es": "Santa Lucía", "name_fr": "Sainte-Lucie", "name_el": "Αγία Λουκία", "name_hi": "सेंट लूसिया", "name_hu": "Saint Lucia", "name_id": "Saint Lucia", "name_it": "Saint Lucia", "name_ja": "セントルシア", "name_ko": "세인트 루시아", "name_nl": "Saint Lucia", "name_pl": "Saint Lucia", "name_pt": "Santa Lúcia", "name_ru": "остров Сент-Люсия", "name_sv": "Saint Lucia", "name_tr": "Saint Lucia", "name_vi": "Đảo Saint Lucia", "name_zh": "圣卢西亚岛", "wikidataid": "Q27508090", "ne_id": 1159104857, "name_fa": "سنت لوسیا", "name_he": "האי סנט לוסיה", "name_uk": "Сан-Лючиа", "name_ur": "سینٹ لوشیا", "name_zht": "圣卢西亚岛" }, "geometry": { "type": "Point", "coordinates": [ -60.982228156635017, 13.918280340619077 ] } },
{ "type": "Feature", "properties": { "scalerank": 5, "featurecla": "island", "name": "Saint Vincent", "comment": null, "name_alt": null, "lat_y": 13.270131, "long_x": -61.207143, "region": "North America", "subregion": "West Indies", "min_zoom": 6.0, "label": "Saint Vincent", "name_ar": "سانت فينسنت", "name_bn": "সেন্ট ভিনসেন্ট", "name_de": "St. Vincent", "name_en": "Saint Vincent", "name_es": "Isla de San Vicente", "name_fr": "Saint-Vincent", "name_el": "Άγιος Βικέντιος", "name_hi": "सेंट विंसेंट", "name_hu": "Saint Vincent", "name_id": "Saint Vincent", "name_it": "Saint Vincent", "name_ja": "セイント・ヴィンセント島", "name_ko": "세인트빈센트섬", "name_nl": "Saint Vincent", "name_pl": "Saint Vincent", "name_pt": "Ilha de São Vicente", "name_ru": "Сент-Винсент", "name_sv": "Saint Vincent", "name_tr": "Saint Vincent", "name_vi": "Đảo Saint Vincent", "name_zh": "圣文森特岛", "wikidataid": "Q379656", "ne_id": 1159104859, "name_fa": "سنت وینسنت", "name_he": "סנט וינסנט", "name_uk": "Сент-Вінсент", "name_ur": "سینٹ ونسنٹ", "name_zht": "圣文森特岛" }, "geometry": { "type": "Point", "coordinates": [ -61.207203742572517, 13.270209051556577 ] } },
{ "type": "Feature", "properties": { "scalerank": 5, "featurecla": "island", "name": "Barbados", "comment": null, "name_alt": null, "lat_y": 13.164326, "long_x": -59.566742, "region": "North America", "subregion": "West Indies", "min_zoom": 6.0, "label": "Barbados", "name_ar": "باربادوس", "name_bn": "বার্বাদোস", "name_de": "Barbados", "name_en": "Barbados", "name_es": "Barbados", "name_fr": "Barbade", "name_el": "Μπαρμπάντος", "name_hi": "बारबाडोस", "name_hu": "Barbados", "name_id": "Barbados", "name_it": "Barbados", "name_ja": "バルバドス島", "name_ko": "바베이도스", "name_nl": "Barbados", "name_pl": "Barbados", "name_pt": "Barbados", "name_ru": "Барбадос", "name_sv": "Barbados", "name_tr": "Barbados", "name_vi": "Đảo Barbados", "name_zh": "巴巴多斯", "wikidataid": "Q30151210", "ne_id": 1159104863, "name_fa": "باربادوس", "name_he": "ברבדוס", "name_uk": "Барбадос", "name_ur": "بارباڈوس", "name_zht": "巴貝多" }, "geometry": { "type": "Point", "coordinates": [ -59.566822883197517, 13.164252020306577 ] } },
{ "type": "Feature", "properties": { "scalerank": 5, "featurecla": "island", "name": "Tobago", "comment": null, "name_alt": null, "lat_y": 11.259334, "long_x": -60.677992, "region": "South America", "subregion": "West Indies", "min_zoom": 6.0, "label": "Tobago", "name_ar": "توباغو", "name_bn": "টোবাগো", "name_de": "Tobago", "name_en": "Tobago", "name_es": "Tobago", "name_fr": "Tobago", "name_el": "Τομπάγκο", "name_hi": "टोबैगो", "name_hu": "Tobago", "name_id": "Tobago", "name_it": "Tobago", "name_ja": "トバゴ島", "name_ko": "토바고섬", "name_nl": "Tobago", "name_pl": "Tobago", "name_pt": "Tobago", "name_ru": "Тобаго", "name_sv": "Tobago", "name_tr": "Tobago", "name_vi": "Tobago", "name_zh": "多巴哥岛", "wikidataid": "Q185111", "ne_id": 1159104865, "name_fa": "توباگو", "name_he": "טובגו", "name_uk": "Тобаго", "name_ur": "ٹوباگو", "name_zht": "多巴哥島" }, "geometry": { "type": "Point", "coordinates": [ -60.678089973041267, 11.259283758587827 ] } },
{ "type": "Feature", "properties": { "scalerank": 5, "featurecla": "island", "name": "Margarita", "comment": null, "name_alt": null, "lat_y": 10.981467, "long_x": -64.051401, "region": "South America", "subregion": "West Indies", "min_zoom": 6.0, "label": "Margarita", "name_ar": "جزيرة مارغريتا", "name_bn": "মারগারিতা", "name_de": "Isla Margarita", "name_en": "Margarita Island", "name_es": "Isla de Margarita", "name_fr": "île Margarita", "name_el": "Νήσος Μαργαρίτα", "name_hi": "मार्गरीटा", "name_hu": "Margarita", "name_id": "Isla Margarita", "name_it": "Margarita", "name_ja": "マルガリータ島", "name_ko": "마르가리타섬", "name_nl": "Isla Margarita", "name_pl": "Margarita", "name_pt": "Ilha de Margarita", "name_ru": "Маргарита", "name_sv": "Isla Margarita", "name_tr": "Margarita", "name_vi": "Đảo Margarita", "name_zh": "玛格丽塔岛", "wikidataid": "Q334738", "ne_id": 1159104867, "name_fa": "جزیره مارگاریتا", "name_he": "מרגריטה", "name_uk": "Маргарита", "name_ur": "مارگریٹا", "name_zht": "瑪格麗塔島" }, "geometry": { "type": "Point", "coordinates": [ -64.051442023822517, 10.981512762494077 ] } },
{ "type": "Feature", "properties": { "scalerank": 5, "featurecla": "island", "name": "Curaçao", "comment": null, "name_alt": null, "lat_y": 12.185355, "long_x": -68.999109, "region": "North America", "subregion": "West Indies", "min_zoom": 6.0, "label": "Curaçao", "name_ar": "كوراساو", "name_bn": "কিউরাসাও", "name_de": "Curaçao", "name_en": "Curaçao", "name_es": "Curazao", "name_fr": "Curaçao", "name_el": "Κουρασάο", "name_hi": "कुराकाओ", "name_hu": "Curaçao", "name_id": "Curaçao", "name_it": "Curaçao", "name_ja": "キュラソー", "name_ko": "퀴라소", "name_nl": "Curaçao", "name_pl": "Curaçao", "name_pt": "Curaçao", "name_ru": "Кюрасао", "name_sv": "Curaçao", "name_tr": "Curaçao", "name_vi": "Curaçao", "name_zh": "库拉索", "wikidataid": "Q25279", "ne_id": 1159104869, "name_fa": "کوراسائو", "name_he": "קוראסאו", "name_uk": "Кюрасао", "name_ur": "کیوراساؤ", "name_zht": "古拉索" }, "geometry": { "type": "Point", "coordinates": [ -68.999195930072517, 12.185309149212827 ] } },
{ "type": "Feature", "properties": { "scalerank": 5, "featurecla": "island", "name": "Aruba", "comment": null, "name_alt": null, "lat_y": 12.502849, "long_x": -69.96488, "region": "North America", "subregion": "West Indies", "min_zoom": 6.0, "label": "Aruba", "name_ar": "أروبا", "name_bn": "আরুবা", "name_de": "Aruba", "name_en": "Aruba", "name_es": "Aruba", "name_fr": "Aruba", "name_el": "Αρούμπα", "name_hi": "अरूबा", "name_hu": "Aruba", "name_id": "Aruba", "name_it": "Aruba", "name_ja": "アルバ", "name_ko": "아루바", "name_nl": "Aruba", "name_pl": "Aruba", "name_pt": "Aruba", "name_ru": "Аруба", "name_sv": "Aruba", "name_tr": "Aruba", "name_vi": "Aruba", "name_zh": "阿鲁巴", "wikidataid": "Q21203", "ne_id": 1159104871, "name_fa": "آروبا", "name_he": "ארובה", "name_uk": "Аруба", "name_ur": "اروبا", "name_zht": "阿魯巴" }, "geometry": { "type": "Point", "coordinates": [ -69.965016242572517, 12.502752996869077 ] } },
{ "type": "Feature", "properties": { "scalerank": 5, "featurecla": "cape", "name": "Ra’s Banäs", "comment": null, "name_alt": null, "lat_y": 23.950592, "long_x": 35.778059, "region": "Africa", "subregion": null, "min_zoom": 6.0, "label": null, "name_ar": "رأس باناس", "name_bn": "রা'স বানাস", "name_de": "Ras Banas", "name_en": "Ras Banas", "name_es": "Ra’s Banäs", "name_fr": "Râs Banas", "name_el": "Ρα'ς Μπανάς", "name_hi": "रास बनास", "name_hu": "Ra’s Banäs", "name_id": "Ras Banas", "name_it": "Ra’s Banäs", "name_ja": "ラスバナス", "name_ko": "라스 바나스", "name_nl": "Ras Banas", "name_pl": "Banäs", "name_pt": "Ra’s Banäs", "name_ru": "мыс Рас-Банас", "name_sv": "Ra’s Banäs", "name_tr": "Ra’s Banäs", "name_vi": "Mũi Ra’s Banäs", "name_zh": "巴纳斯角", "wikidataid": null, "ne_id": 1159104873, "name_fa": "رأس باناس", "name_he": "כף באנאס", "name_uk": "Рас-Банас", "name_ur": "راس باناس", "name_zht": "巴納斯角" }, "geometry": { "type": "Point", "coordinates": [ 35.778086784771233, 23.950628973431577 ] } },
{ "type": "Feature", "properties": { "scalerank": 5, "featurecla": "cape", "name": "Ponta das Salinas", "comment": null, "name_alt": null, "lat_y": -12.832908, "long_x": 12.928991, "region": "Africa", "subregion": null, "min_zoom": 6.0, "label": null, "name_ar": "بونتا داس ساليناس", "name_bn": "পন্তা দাস সালিনাস", "name_de": "Ponta das Salinas", "name_en": "Ponta das Salinas", "name_es": "Ponta das Salinas", "name_fr": "Ponta das Salinas", "name_el": "Πόντα ντας Σαλίνας", "name_hi": "पोंटा दास सेलिनास", "name_hu": "Ponta das Salinas-fok", "name_id": "Ponta das Salinas", "name_it": "Ponta das Salinas", "name_ja": "サリナス岬", "name_ko": "폰타 다스 살리나스", "name_nl": "Ponta das Salinas", "name_pl": "Ponta das Salinas", "name_pt": "Ponta das Salinas", "name_ru": null, "name_sv": "Ponta das Salinas", "name_tr": "Ponta das Salinas", "name_vi": "Mũi Salinas", "name_zh": "萨利纳斯角", "wikidataid": null, "ne_id": 1159104875, "name_fa": "پونتا داس سالیناس", "name_he": "פונטה דאס סאלינאס", "name_uk": "Понта-дас-Салінас", "name_ur": "پونٹا داس سالیناس", "name_zht": "薩利納斯角" }, "geometry": { "type": "Point", "coordinates": [ 12.968705086077254, -12.855718342716505 ] } },
{ "type": "Feature", "properties": { "scalerank": 5, "featurecla": "cape", "name": "Ponta das Palmeirinhas", "comment": null, "name_alt": null, "lat_y": -9.071387, "long_x": 12.999549, "region": "Africa", "subregion": null, "min_zoom": 6.0, "label": null, "name_ar": "بونتا داس بالميرينهاس", "name_bn": "পন্তা দাস পালমেইরিনহাস", "name_de": "Ponta das Palmeirinhas", "name_en": "Ponta das Palmeirinhas", "name_es": "Ponta das Palmeirinhas", "name_fr": "Ponta das Palmeirinhas", "name_el": "Πόντα ντας Παλμεϊρίνιας", "name_hi": "पोंटा दास पाल्मिरिनहास", "name_hu": "Ponta das Palmeirinhas-fok", "name_id": "Ponta das Palmeirinhas", "name_it": "Ponta das Palmeirinhas", "name_ja": "パルメイリナス岬", "name_ko": "폰타 다스 팔메이리냐스", "name_nl": "Ponta das Palmeirinhas", "name_pl": "Ponta das Palmeirinhas", "name_pt": "Ponta das Palmeirinhas", "name_ru": null, "name_sv": "Ponta das Palmeirinhas", "name_tr": "Ponta das Palmeirinhas", "name_vi": "Mũi Palmeirinhas", "name_zh": "帕尔梅拉斯角", "wikidataid": null, "ne_id": 1159104877, "name_fa": "پونتا داس پالمرینهاس", "name_he": "פונטה דאס פאלמיירינהאס", "name_uk": "Понта-дас-Палмейрінхас", "name_ur": "پونٹا داس پالمیریناس", "name_zht": "帕梅里亞斯角" }, "geometry": { "type": "Point", "coordinates": [ 13.033811372274608, -9.099938228394153 ] } },
{ "type": "Feature", "properties": { "scalerank": 5, "featurecla": "cape", "name": "Cabo Bojador", "comment": null, "name_alt": null, "lat_y": 26.157836, "long_x": -14.473111, "region": "Africa", "subregion": null, "min_zoom": 6.0, "label": "Cabo Bojador", "name_ar": "رأس بوجادور", "name_bn": "কাবো বোজাদোর", "name_de": "Kap Bojador", "name_en": "Cape Bojador", "name_es": "Cabo Bojador", "name_fr": "cap Boujdour", "name_el": "Κάμπο Μποχαντόρ", "name_hi": "काबो बोजादोर", "name_hu": "Cabo Bojador", "name_id": "Tanjung Bojador", "name_it": "Capo Bojador", "name_ja": "カボ・ボハドール", "name_ko": "보자도르곶", "name_nl": "Kaap Bojador", "name_pl": "Ras Budżdur", "name_pt": "Cabo Bojador", "name_ru": "Буждур", "name_sv": "Kap Bojador", "name_tr": "Cabo Bojador", "name_vi": "Mũi Bojador", "name_zh": "博哈多爾角", "wikidataid": "Q185222", "ne_id": 1159104881, "name_fa": "رأس بوجادور", "name_he": "הקפת כף בוז'דור", "name_uk": "Буждур", "name_ur": "کابو بوجاڈور", "name_zht": "博哈多爾角" }, "geometry": { "type": "Point", "coordinates": [ -14.473194953510017, 26.157965399212827 ] } },
{ "type": "Feature", "properties": { "scalerank": 5, "featurecla": "cape", "name": "Cape Comorin", "comment": null, "name_alt": null, "lat_y": 8.143554, "long_x": 77.471497, "region": "Asia", "subregion": null, "min_zoom": 6.0, "label": "Cape Comorin", "name_ar": "رأس كومورين", "name_bn": "কন্যাকুমারী", "name_de": "Kap Komorin", "name_en": "Cape Comorin", "name_es": "Cabo Comorin", "name_fr": "cap Comorin", "name_el": "Ακρωτήριο Κομορίν", "name_hi": "केप कोमोरिन", "name_hu": "Comorin-fok", "name_id": "Tanjung Comorin", "name_it": "Capo Comorin", "name_ja": "コモリン岬", "name_ko": "케이프 코모린", "name_nl": "Kanyakumari", "name_pl": "Komoryn", "name_pt": "Cabo Comorim", "name_ru": "Коморин", "name_sv": "Kap Comorin", "name_tr": "Comorin Burnu", "name_vi": "Mũi Comorin", "name_zh": "科摩林角", "wikidataid": "Q946721", "ne_id": 1159104929, "name_fa": "دماغه کومورین", "name_he": "כף קומורין", "name_uk": "мик Коморин", "name_ur": "کیپ کومورین", "name_zht": "科摩林角" }, "geometry": { "type": "Point", "coordinates": [ 77.51210506924555, 8.085338515340696 ] } },
{ "type": "Feature", "properties": { "scalerank": 5, "featurecla": "cape", "name": "Dondra Head", "comment": null, "name_alt": null, "lat_y": 5.947528, "long_x": 80.616321, "region": "Asia", "subregion": null, "min_zoom": 6.0, "label": "Dondra Head", "name_ar": "رأس دوندرا", "name_bn": "দোন্দ্রা হেড", "name_de": "Dondra Head", "name_en": "Dondra Head", "name_es": "Dondra", "name_fr": "Dondra", "name_el": "Ντόντρα Χεντ", "name_hi": "डोंड्रा हेड", "name_hu": "Dondra Head", "name_id": "Dondra", "name_it": "Dondra Head", "name_ja": "ドンドラヘッド", "name_ko": "돈드라 헤드", "name_nl": "Dondra", "name_pl": "Dewundara Tuduwa", "name_pt": "Cabo Dondra", "name_ru": "Дондра Хэд", "name_sv": "Dondra Head", "name_tr": "Dondra Head", "name_vi": "Mũi Dondra", "name_zh": "栋德勒角", "wikidataid": "Q2426307", "ne_id": 1159104931, "name_fa": "دوندرا هد", "name_he": "כף דונדרה הד", "name_uk": "Дондра", "name_ur": "ڈونڈرا ہیڈ", "name_zht": "棟德勒角" }, "geometry": { "type": "Point", "coordinates": [ 80.591809255713315, 5.929580617022318 ] } },
{ "type": "Feature", "properties": { "scalerank": 5, "featurecla": "cape", "name": "Cape Yelizavety", "comment": null, "name_alt": null, "lat_y": 54.416083, "long_x": 142.720445, "region": "Asia", "subregion": null, "min_zoom": 6.0, "label": "Cape Yelizavety", "name_ar": "رأس يلزافيتي", "name_bn": "কেপ ইয়লিজাভেতি", "name_de": "Cape Elizabeth", "name_en": "Cape Elizabeth", "name_es": "Cabo Yelizavety", "name_fr": "cap Élisabeth", "name_el": "Ακρωτήριο Γελιζαβέτι", "name_hi": "केप येलिज़ावेटी", "name_hu": "YelizavetyCape Yelizavety", "name_id": "Tanjung Yelizavety", "name_it": "Capo Elizaveta", "name_ja": "エリザベス岬", "name_ko": "케이프 옐리자베티", "name_nl": "Mis Elizaveti", "name_pl": "Przylądek Elżbiety", "name_pt": "Cabo Elizabeth", "name_ru": "Мыс Елизаветы", "name_sv": "Kap Jelizavety", "name_tr": "Yelizavety Burnu", "name_vi": "Mũi Yelizavety", "name_zh": "耶利扎维蒂角", "wikidataid": "Q2469144", "ne_id": 1159104935, "name_fa": "دماغه یلیزاوتی", "name_he": "כף יליזאווטי", "name_uk": "Мис Єлизавети", "name_ur": "کیپ ییلیزاویٹی", "name_zht": "耶利扎維帝角" }, "geometry": { "type": "Point", "coordinates": [ 142.720591667583733, 54.416205145306577 ] } },
{ "type": "Feature", "properties": { "scalerank": 5, "featurecla": "cape", "name": "Pt. Yuzhnyy", "comment": null, "name_alt": null, "lat_y": 57.733572, "long_x": 156.796426, "region": "Asia", "subregion": null, "min_zoom": 6.0, "label": null, "name_ar": "قمة يوزهنو", "name_bn": "পয়েন্ট ইউঝন্য", "name_de": "Hafen Yuzhny", "name_en": "Mys Yuzhnyy", "name_es": "Puerto de Yuzhnyy", "name_fr": "Port Yuzhnyi", "name_el": "Πτ. Γιούζνιι", "name_hi": "पॉइंट योज़्नी", "name_hu": "Port Juzsnij-fok", "name_id": "Pt. Yuzhnyy", "name_it": "Punta Yuzhnyy", "name_ja": "ユザニー岬", "name_ko": "푼타 유즈니", "name_nl": "Mys Yuzhnyy", "name_pl": "Yuzhnyy", "name_pt": "Ponta Yuzhny", "name_ru": "мыс Южный", "name_sv": "Kap Yuzhnyy", "name_tr": "Pt. Yuzhnyy", "name_vi": "Mũi Yuzhnyy", "name_zh": "尤日内角", "wikidataid": null, "ne_id": 1159104937, "name_fa": "بندر یوژنی", "name_he": "פוינט יוז'ניי", "name_uk": "мис Південний", "name_ur": "PT. یوزہنی", "name_zht": "猶日尼角" }, "geometry": { "type": "Point", "coordinates": [ 156.796641472271233, 57.733465887494077 ] } },
{ "type": "Feature", "properties": { "scalerank": 5, "featurecla": "cape", "name": "Cape Sata", "comment": null, "name_alt": null, "lat_y": 31.026941, "long_x": 130.695089, "region": "Asia", "subregion": null, "min_zoom": 6.0, "label": "Cape Sata", "name_ar": "رأس ساتا", "name_bn": "কেপ সাতা", "name_de": "Cape Sata", "name_en": "Cape Sata", "name_es": "Cabo Sata", "name_fr": "cap Sata", "name_el": "Ακρωτήριο Σάτα", "name_hi": "केप सैटा", "name_hu": "Sata-fok", "name_id": "Tanjung Sata", "name_it": "Capo Sata", "name_ja": "佐多岬", "name_ko": "사타곶", "name_nl": "Cape Sata", "name_pl": "Przylądek Sata", "name_pt": "Cabo Sata", "name_ru": "мыс Сата", "name_sv": "Kap Sata", "name_tr": "Sata Burnu", "name_vi": "Mũi Sata", "name_zh": "佐多岬", "wikidataid": "Q431595", "ne_id": 1159104939, "name_fa": "دماغه ساتا", "name_he": "כף סאטה", "name_uk": "мис Сата", "name_ur": "کیپ سٹاٹا", "name_zht": "佐多岬" }, "geometry": { "type": "Point", "coordinates": [ 130.695201042583733, 31.026922918744077 ] } },
{ "type": "Feature", "properties": { "scalerank": 5, "featurecla": "cape", "name": "Cape Aniva", "comment": null, "name_alt": null, "lat_y": 46.081706, "long_x": 143.434871, "region": "Asia", "subregion": null, "min_zoom": 6.0, "label": "Cape Aniva", "name_ar": "رأس أنيفا", "name_bn": "কেপ আনিভা", "name_de": "Kap Aniwa", "name_en": "Cape Aniva", "name_es": "Cabo Aniva", "name_fr": "cap Aniva", "name_el": "Ακρωτήριο Άνιβα", "name_hi": "केप एनिवा", "name_hu": "Aniva-fok", "name_id": "Tanjung Aniva", "name_it": "Capo Aniva", "name_ja": "中知床岬", "name_ko": "케이프 아니바", "name_nl": "Aniva", "name_pl": "Przylądek Aniva", "name_pt": "Cabo Aniva", "name_ru": "мыс Анива", "name_sv": "Aniva", "name_tr": "Aniva Burnu", "name_vi": "Mũi Aniva", "name_zh": "阿尼瓦岬", "wikidataid": "Q1083875", "ne_id": 1159104941, "name_fa": "دماغه انیوا", "name_he": "כף אניבה", "name_uk": "Мис Аніва", "name_ur": "کیپ آنیوا", "name_zht": "阿尼瓦岬" }, "geometry": { "type": "Point", "coordinates": [ 143.434825066021233, 46.081793524212827 ] } },
{ "type": "Feature", "properties": { "scalerank": 5, "featurecla": "cape", "name": "Cape Terpeniya", "comment": null, "name_alt": null, "lat_y": 48.66928, "long_x": 144.712582, "region": "Asia", "subregion": null, "min_zoom": 6.0, "label": "Cape Terpeniya", "name_ar": "رأس تيربنيا", "name_bn": "কেপ তেরপেনিয়া", "name_de": "Kap Terpeniya", "name_en": "Terpeniya Peninsula", "name_es": "Cabo Terpeniya", "name_fr": "cap Terpenia", "name_el": "Ακρωτήριο Τερπενίγια", "name_hi": "केप टेरपेनिया", "name_hu": "Terpeniya-fok", "name_id": "Tanjung Terpeniya", "name_it": "Capo Terpenija", "name_ja": "北知床岬", "name_ko": "케이프 테르페니야", "name_nl": "Poluostrov Terpeniya", "name_pl": "Cape Terpeniya", "name_pt": "Cabo Terpeniya", "name_ru": "Мыс Терпения", "name_sv": "Kap Terpenija", "name_tr": "Terpeniya Burnu", "name_vi": "Mũi Terpeniya", "name_zh": "北知床岬", "wikidataid": "Q4309490", "ne_id": 1159104943, "name_fa": "دماغه ترپنیا", "name_he": "כף טרפניה", "name_uk": "мис Терпіння", "name_ur": "کیپ ٹرپینیا", "name_zht": "北知床岬" }, "geometry": { "type": "Point", "coordinates": [ 144.712535026958733, 48.669378973431577 ] } },
{ "type": "Feature", "properties": { "scalerank": 5, "featurecla": "cape", "name": "Cape Lopatka", "comment": null, "name_alt": null, "lat_y": 50.914155, "long_x": 156.651536, "region": "Asia", "subregion": null, "min_zoom": 6.0, "label": "Cape Lopatka", "name_ar": "رأس لوباتكا", "name_bn": "কেপ লোপাটকা", "name_de": "Kap Lopatka", "name_en": "Cape Lopatka", "name_es": "Cabo Lopatka", "name_fr": "cap Lopatka", "name_el": "Ακρωτήριο Λοπάτκα", "name_hi": "केप लोपाटका", "name_hu": "Lopatka-fok", "name_id": "Tanjung Lopatka", "name_it": "capo Lopatka", "name_ja": "ロパートカ岬", "name_ko": "로팟카곶", "name_nl": "Kaap Lopatka", "name_pl": "Łopatka", "name_pt": "Cabo Lopatka", "name_ru": "Лопатка", "name_sv": "Kap Lopatka", "name_tr": "Lopatka Burnu", "name_vi": "Mũi Lopatka", "name_zh": "洛帕特卡角", "wikidataid": "Q1199044", "ne_id": 1159104945, "name_fa": "دماغه لوپاتکا", "name_he": "כף לופאטקה", "name_uk": "Лопатка", "name_ur": "کیپ لوپاٹکا", "name_zht": "洛帕特卡角" }, "geometry": { "type": "Point", "coordinates": [ 156.651621941021233, 50.914129949994077 ] } },
{ "type": "Feature", "properties": { "scalerank": 5, "featurecla": "cape", "name": "Cape Ozernoy", "comment": null, "name_alt": null, "lat_y": 57.7708, "long_x": 163.246685, "region": "Asia", "subregion": null, "min_zoom": 6.0, "label": null, "name_ar": "رأس أوزيروني", "name_bn": "কেপ ওজেরনয়", "name_de": "Cape Ozernoy", "name_en": "Ozernoy Peninsula", "name_es": "Cabo Ozernoy", "name_fr": "Cape Ozernoy", "name_el": "Ακρωτήριο Οζερνόι", "name_hi": "केप ओज़र्नॉय", "name_hu": "Ozernoy-fok", "name_id": "Tanjung Ozernoy", "name_it": "Capo Ozernoj", "name_ja": "オジョールノイ岬", "name_ko": "케이프 오제르노이", "name_nl": "Ozernoy (kaap)", "name_pl": "Przylądek Ozernoy", "name_pt": "Cabo Ozernoy", "name_ru": "Озерной мыс", "name_sv": "Kap Ozernoj", "name_tr": "Ozernoy Burnu", "name_vi": "Mũi Ozernoy", "name_zh": "奥泽诺伊角", "wikidataid": null, "ne_id": 1159104947, "name_fa": "دماغه اوزرنوی", "name_he": "כף אוזרנוי", "name_uk": "мис Озерний", "name_ur": "کیپ اوزرنوئے", "name_zht": "歐澤諾伊角" }, "geometry": { "type": "Point", "coordinates": [ 163.246836784771233, 57.770880438275327 ] } },
{ "type": "Feature", "properties": { "scalerank": 5, "featurecla": "cape", "name": "Cape Olyutorskiy", "comment": null, "name_alt": null, "lat_y": 59.960807, "long_x": 170.312651, "region": "Asia", "subregion": null, "min_zoom": 6.0, "label": "Cape Olyutorskiy", "name_ar": "رأس أوليوتورسكي", "name_bn": "কেপ ওল্যুতোরস্কিয়", "name_de": "Cape Olyutorskiy", "name_en": "Cape Olyutorsky", "name_es": "Cabo Olyutorskiy", "name_fr": "cap Olioutorski", "name_el": "Ακρωτήριο Ολυοτόρσκι", "name_hi": "केप ओल्युटोर्स्की", "name_hu": "Oljutorszkij-fok", "name_id": "Tanjung Olyutorskiy", "name_it": "Penisola Oljutorskij", "name_ja": "オリュトルスキー岬", "name_ko": "케이프 올류토르스키", "name_nl": "Kaap Oljoetorski", "name_pl": "Przylądek Olutorski", "name_pt": "Cabo Olyutorskiy", "name_ru": "Олюторский", "name_sv": "Kap Oljutorskij", "name_tr": "Olyutorskiy Burnu", "name_vi": "Mũi Olyutorskiy", "name_zh": "奥柳托尔斯基角", "wikidataid": "Q3463471", "ne_id": 1159104949, "name_fa": "دماغه اولیوتورسکی", "name_he": "כף אוליטורסקי", "name_uk": "мис Олюторський", "name_ur": "کیپ اولیوٹورسکی", "name_zht": "奧留托斯基角" }, "geometry": { "type": "Point", "coordinates": [ 170.312876823833733, 59.960821844525327 ] } },
{ "type": "Feature", "properties": { "scalerank": 5, "featurecla": "cape", "name": "Cape Navarin", "comment": null, "name_alt": null, "lat_y": 62.327239, "long_x": 179.074225, "region": "Asia", "subregion": null, "min_zoom": 6.0, "label": "Cape Navarin", "name_ar": "رأس نافارين", "name_bn": "কেপ নাভারিন", "name_de": "Kap Navarin", "name_en": "Cape Navarin", "name_es": "Cabo Navarin", "name_fr": "Mys Navarin", "name_el": "Ακρωτήριο Ναυαρίνου", "name_hi": "केप नवारिन", "name_hu": "Navarin-fok", "name_id": "Tanjung Navarin", "name_it": "Capo Navarin", "name_ja": "ナバリン岬", "name_ko": "케이프 나바린", "name_nl": "Capo Navarin", "name_pl": "Przylądek Nawarin", "name_pt": "Cabo Navarin", "name_ru": "Наварин", "name_sv": "Kap Navarin", "name_tr": "Navarin Burnu", "name_vi": "Mũi Navarin", "name_zh": "纳瓦林角", "wikidataid": "Q3562501", "ne_id": 1159104953, "name_fa": "دماغه ناوارین", "name_he": "כף נבארין", "name_uk": "мис Наварін", "name_ur": "کیپ نیوارن", "name_zht": "納瓦林角" }, "geometry": { "type": "Point", "coordinates": [ 179.074229362896233, 62.327276922650327 ] } },
{ "type": "Feature", "properties": { "scalerank": 5, "featurecla": "cape", "name": "Cape Lopatka", "comment": null, "name_alt": null, "lat_y": 71.907853, "long_x": 150.066042, "region": "Asia", "subregion": null, "min_zoom": 6.0, "label": "Cape Lopatka", "name_ar": "رأس لوباتكا", "name_bn": "কেপ লোপাটকা", "name_de": "Kap Lopatka", "name_en": "Cape Lopatka", "name_es": "Cabo Lopatka", "name_fr": "cap Lopatka", "name_el": "Ακρωτήριο Λοπάτκα", "name_hi": "केप लोपाटका", "name_hu": "Lopatka-fok", "name_id": "Tanjung Lopatka", "name_it": "capo Lopatka", "name_ja": "ロパートカ岬", "name_ko": "로팟카곶", "name_nl": "Kaap Lopatka", "name_pl": "Łopatka", "name_pt": "Cabo Lopatka", "name_ru": "Лопатка", "name_sv": "Kap Lopatka", "name_tr": "Lopatka Burnu", "name_vi": "Mũi Lopatka", "name_zh": "洛帕特卡角", "wikidataid": "Q1199044", "ne_id": 1159104955, "name_fa": "دماغه لوپاتکا", "name_he": "כף לופאטקה", "name_uk": "Лопатка", "name_ur": "کیپ لوپاٹکا", "name_zht": "洛帕特卡角" }, "geometry": { "type": "Point", "coordinates": [ 150.065928581646233, 71.907782293744077 ] } },
{ "type": "Feature", "properties": { "scalerank": 5, "featurecla": "cape", "name": "Cape Ince", "comment": null, "name_alt": null, "lat_y": 42.084312, "long_x": 34.983358, "region": "Asia", "subregion": null, "min_zoom": 6.0, "label": null, "name_ar": "رأس إنس", "name_bn": "কেপ ইন্স", "name_de": "Cape Ince", "name_en": "Cape İnce", "name_es": "Cabo Ince", "name_fr": "Cape Jaffa", "name_el": "Ακρωτήριο Ίντσε", "name_hi": "केप इंस", "name_hu": "Ince-fok", "name_id": "Tanjung Ince", "name_it": "Capo Ince", "name_ja": "インジェ岬", "name_ko": "케이프 인스", "name_nl": "Kaap Ince", "name_pl": "Cape Ince", "name_pt": "Cabo İnce", "name_ru": "мыс Индже", "name_sv": "Kap Ince", "name_tr": "Ince Burnu", "name_vi": "Mũi Ince", "name_zh": "因斯角", "wikidataid": null, "ne_id": 1159104957, "name_fa": "دماغه اینک", "name_he": "כף אינצה", "name_uk": "мис Інке", "name_ur": "کیپ انس", "name_zht": "因斯角" }, "geometry": { "type": "Point", "coordinates": [ 34.983286980083733, 42.084173895306577 ] } },
{ "type": "Feature", "properties": { "scalerank": 5, "featurecla": "cape", "name": "Ra’s Fartak", "comment": null, "name_alt": null, "lat_y": 15.677412, "long_x": 52.229105, "region": "Asia", "subregion": null, "min_zoom": 6.0, "label": null, "name_ar": "رأس فرتك", "name_bn": "রা'স ফার্তাক", "name_de": "Ra’s Fartak", "name_en": "Ra’s Fartak", "name_es": "Ra’s Fartak", "name_fr": "Ra’s Fartak", "name_el": "Ρα'ς Φαρτάκ", "name_hi": "रास फार्टक", "name_hu": "Ra’s Fartak", "name_id": "Ras Fartak", "name_it": "Ra’s Fartak", "name_ja": "ラスファルタク", "name_ko": "라스 파르탁", "name_nl": "Ra’s Fartak", "name_pl": "Fartak", "name_pt": "Ra’s Fartak", "name_ru": "мыс Рас-Фартак", "name_sv": "Ra’s Fartak", "name_tr": "Ra’s Fartak", "name_vi": "Mũi Ra’s Fartak", "name_zh": "法塔克角", "wikidataid": null, "ne_id": 1159104959, "name_fa": "رأس فارتاک", "name_he": "כף פארטאק", "name_uk": "Рас-Фартак", "name_ur": "راس فرتاک", "name_zht": "法塔克角" }, "geometry": { "type": "Point", "coordinates": [ 52.238969699993902, 15.65795249845498 ] } },
{ "type": "Feature", "properties": { "scalerank": 5, "featurecla": "cape", "name": "Ras Sharbatat", "comment": null, "name_alt": null, "lat_y": 18.164534, "long_x": 56.56827, "region": "Asia", "subregion": null, "min_zoom": 6.0, "label": null, "name_ar": "رأس شربتات", "name_bn": "রাস শরবতাত", "name_de": "Ras Sharbatat", "name_en": "Ras ash Sharbatat", "name_es": "Ras Sharbatat", "name_fr": "Ras Sharbatat", "name_el": "Ρας Σαρμπατάτ", "name_hi": "रास शरबतात", "name_hu": "Ras Sharbatat", "name_id": "Ras Sharbatat", "name_it": "Ras Sharbatat", "name_ja": "ラスシャルバタト", "name_ko": "라스 샤르바타트", "name_nl": "Ras ash-Sharbatat", "name_pl": "Ras Sharbatat", "name_pt": "Ras ash Sharbatat", "name_ru": "мыс Шарбатат", "name_sv": "Ras Sharbatat", "name_tr": "Ras Sharbatat", "name_vi": "Mũi Ras Sharbatat", "name_zh": "沙巴塔角", "wikidataid": null, "ne_id": 1159104961, "name_fa": "راس شارباتات", "name_he": "כף שרבטאט", "name_uk": "Рас-Шарбатат", "name_ur": "راس شرباتات", "name_zht": "拉斯沙巴塔角" }, "geometry": { "type": "Point", "coordinates": [ 56.558165806017215, 18.166986171245085 ] } },
{ "type": "Feature", "properties": { "scalerank": 5, "featurecla": "cape", "name": "Ra's al Had", "comment": null, "name_alt": null, "lat_y": 22.530158, "long_x": 59.849134, "region": "Asia", "subregion": null, "min_zoom": 6.0, "label": "Ra's al Had", "name_ar": "رأس الحد", "name_bn": "রা'স আল হাদ", "name_de": "Ras al-Hadd", "name_en": "Ras al Hadd", "name_es": "Ra's al Had", "name_fr": "Ras al Hadd", "name_el": "Ρας αλ Χαντ", "name_hi": "रास अल हद", "name_hu": "Ra's al Had", "name_id": "Ras Al-Hadd", "name_it": "Ra's al Had", "name_ja": "ラス・アル・ハッド", "name_ko": "라스 알 하드", "name_nl": "Ras Al Hadd", "name_pl": "Al Hadd", "name_pt": "Ra's al Had", "name_ru": "Эль-Хадд", "name_sv": "Ra's al Had", "name_tr": "Ra's al Had", "name_vi": "Mũi Ra's al Had", "name_zh": "哈德角", "wikidataid": "Q1329208", "ne_id": 1159104963, "name_fa": "رأس الحد", "name_he": "כף אל חד", "name_uk": "Рас-аль-Хад", "name_ur": "راس ال حد", "name_zht": "哈德角" }, "geometry": { "type": "Point", "coordinates": [ 59.799516817543697, 22.518675327148298 ] } },
{ "type": "Feature", "properties": { "scalerank": 5, "featurecla": "island", "name": "Hachijō-jima", "comment": null, "name_alt": null, "lat_y": 33.109796, "long_x": 139.804903, "region": "Asia", "subregion": null, "min_zoom": 6.0, "label": "Hachijō-jima", "name_ar": "هاتشيجو جيما", "name_bn": "হাচিজো-জিমা", "name_de": "Hachijō-jima", "name_en": "Hachijō-jima", "name_es": "Hachijōjima", "name_fr": "Hachijō-jima", "name_el": "Χατσίγιο-τζίμα", "name_hi": "हचिजो-जिमा", "name_hu": "Hachijō-jima", "name_id": "Hachijō-jima", "name_it": "Hachijō-jima", "name_ja": "八丈島", "name_ko": "하치조섬", "name_nl": "Hachijojima", "name_pl": "Hachijō-jima", "name_pt": "Hachijo-jima", "name_ru": "Хатидзёдзима", "name_sv": "Hachijō-jima", "name_tr": "Hachijōjima", "name_vi": "Hachijō-jima", "name_zh": "八丈岛", "wikidataid": "Q1191120", "ne_id": 1159104965, "name_fa": "هاچیجوجیما", "name_he": "האי האצ'יג'ו-ג'ימה", "name_uk": "Острів Хатідзьо", "name_ur": "ہاچیجو جیما", "name_zht": "八丈島" }, "geometry": { "type": "Point", "coordinates": [ 139.804820183208733, 33.109808660931577 ] } },
{ "type": "Feature", "properties": { "scalerank": 5, "featurecla": "cape", "name": "Nordkapp", "comment": null, "name_alt": null, "lat_y": 71.18337, "long_x": 25.662398, "region": "Europe", "subregion": null, "min_zoom": 6.0, "label": "Nordkapp", "name_ar": "رأس الشمال النرويجي", "name_bn": "নর্ডকাপ", "name_de": "Nordkap", "name_en": "North Cape", "name_es": "Cabo Norte", "name_fr": "cap Nord", "name_el": "Βόρειο Ακρωτήριο", "name_hi": "नॉर्डकैप", "name_hu": "Északi-fok", "name_id": "Tanjung Utara", "name_it": "Capo Nord", "name_ja": "ノールカップ", "name_ko": "노스케이프", "name_nl": "Noordkaap", "name_pl": "Przylądek Północny", "name_pt": "Cabo Norte", "name_ru": "Нордкап", "name_sv": "Nordkap", "name_tr": "Nordkapp", "name_vi": "Mũi Nordkapp", "name_zh": "北角", "wikidataid": "Q4069", "ne_id": 1159104971, "name_fa": "دماغه شمالی", "name_he": "נורדקאפ", "name_uk": "Нордкап", "name_ur": "ناردکاپ", "name_zht": "北角" }, "geometry": { "type": "Point", "coordinates": [ 25.660675197114731, 71.154502067021269 ] } },
{ "type": "Feature", "properties": { "scalerank": 5, "featurecla": "cape", "name": "Cabo de São Vicente", "comment": null, "name_alt": null, "lat_y": 37.038304, "long_x": -8.969391, "region": "Europe", "subregion": null, "min_zoom": 6.0, "label": "Cabo de São Vicente", "name_ar": "كابو دي ساو فيسنتي", "name_bn": "কাবো দে সাও ভিকেন্তে", "name_de": "Cabo de São Vicente", "name_en": "Cape St. Vincent", "name_es": "Cabo de San Vicente", "name_fr": "cap Saint-Vincent", "name_el": "Κάμπο ντε Σάο Βισέντε", "name_hi": "काबो द साओ विसेंटे", "name_hu": "Cabo de São Vicente", "name_id": "Tanjung Sao Vicente", "name_it": "Cabo de São Vicente", "name_ja": "サン・ヴィセンテ岬", "name_ko": "카보 데 상 비센테", "name_nl": "Kaap Sint-Vincent", "name_pl": "Przylądek Świętego Wincentego", "name_pt": "Cabo de São Vicente", "name_ru": "Сан-Висенте", "name_sv": "Kap Sankt Vincent", "name_tr": "Cabo de São Vicente", "name_vi": "Mũi São Vicente", "name_zh": "圣维森特角", "wikidataid": "Q4103", "ne_id": 1159104973, "name_fa": "کابو دو سائو ویسنته", "name_he": "כף סנט וינסנט", "name_uk": "Мис Сен-Вінсент", "name_ur": "کابو ڈی ساؤ ویسینٹے", "name_zht": "圣维森特角" }, "geometry": { "type": "Point", "coordinates": [ -8.969410773822517, 37.038275457806577 ] } },
{ "type": "Feature", "properties": { "scalerank": 5, "featurecla": "cape", "name": "Cabo Fisterra", "comment": null, "name_alt": null, "lat_y": 42.952418, "long_x": -9.267837, "region": "Europe", "subregion": null, "min_zoom": 6.0, "label": "Cabo Fisterra", "name_ar": "كابو فيستيرا", "name_bn": "কাবো ফিস্তেররা", "name_de": "Kap Finisterre", "name_en": "Cape Finisterre", "name_es": "Cabo Finisterre", "name_fr": "cap Finisterre", "name_el": "Κάμπο Φίστερα", "name_hi": "काबो फिस्टर्रा", "name_hu": "Finisterre-fok", "name_id": "Tanjung Fisterra", "name_it": "Cabo Fisterra", "name_ja": "フィニステレ岬", "name_ko": "카보 피스테라", "name_nl": "Cabo Finisterre", "name_pl": "Cabo Fisterra", "name_pt": "Cabo Finisterra", "name_ru": "Финистерре", "name_sv": "Kap Finisterre", "name_tr": "Cabo Fisterra", "name_vi": "Mũi Fisterra", "name_zh": "非尼斯泰尔角", "wikidataid": "Q1136198", "ne_id": 1159104975, "name_fa": "کابو فیسترا", "name_he": "כף פיסטררה", "name_uk": "Фіністерре", "name_ur": "کابو فسٹیئرا", "name_zht": "非尼斯泰尔角" }, "geometry": { "type": "Point", "coordinates": [ -9.26996282865152, 42.92873605781255 ] } },
{ "type": "Feature", "properties": { "scalerank": 5, "featurecla": "cape", "name": "Cape San Blas", "comment": null, "name_alt": null, "lat_y": 29.713967, "long_x": -85.270961, "region": "North America", "subregion": null, "min_zoom": 6.0, "label": "Cape San Blas", "name_ar": "رأس سان بلاس", "name_bn": "কেপ সান ব্লাস", "name_de": "Cape San Blas", "name_en": "Cape San Blas", "name_es": "Cabo San Blas", "name_fr": "Cape San Blas", "name_el": "Ακρωτήριο Σαν Μπλας", "name_hi": "केप सैन ब्लास", "name_hu": "San Blas-fok", "name_id": "Tanjung San Blas", "name_it": "Cape San Blas", "name_ja": "サン・ブラス岬", "name_ko": "케이프 산 블라스", "name_nl": "Cape San Blas", "name_pl": "Przylądek San Blas", "name_pt": "Cabo San Blas", "name_ru": "мыс Сан-Блас", "name_sv": "Cape San Blas", "name_tr": "San Blas Burnu", "name_vi": "Mũi San Blas", "name_zh": "聖布拉斯角", "wikidataid": "Q5035028", "ne_id": 1159104977, "name_fa": "دماغه سان بلاس", "name_he": "כף סן בלאס", "name_uk": "мис Сан-Блас", "name_ur": "کیپ سان بلاس", "name_zht": "聖布拉斯角" }, "geometry": { "type": "Point", "coordinates": [ -85.270924445697517, 29.713995672650327 ] } },
{ "type": "Feature", "properties": { "scalerank": 5, "featurecla": "cape", "name": "Cape Sable", "comment": null, "name_alt": null, "lat_y": 43.469097, "long_x": -65.610769, "region": "North America", "subregion": null, "min_zoom": 6.0, "label": "Cape Sable", "name_ar": "رأس سابل", "name_bn": "কেপ স্যাবেল", "name_de": "Cape Sable", "name_en": "Cape Sable", "name_es": "Cabo Sable", "name_fr": "Cape Sable", "name_el": "Ακρωτήριο Σέιμπλ", "name_hi": "केप सेबल", "name_hu": "Sable-fok", "name_id": "Tanjung Sable", "name_it": "Cape Sable", "name_ja": "セーブル岬", "name_ko": "케이프 세이블", "name_nl": "Cape Sable", "name_pl": "Cape Sable", "name_pt": "Cabo Sable", "name_ru": "мыс Сейбл", "name_sv": "Cape Sable", "name_tr": "Sable Burnu", "name_vi": "Mũi Sable", "name_zh": "塞布尔角", "wikidataid": null, "ne_id": 1159104979, "name_fa": "دماغه سیبل", "name_he": "כף סייבל", "name_uk": "мис Сейбл", "name_ur": "کیپ سیبل", "name_zht": "塞布爾角" }, "geometry": { "type": "Point", "coordinates": [ -65.610829230853767, 43.469000555462827 ] } },
{ "type": "Feature", "properties": { "scalerank": 5, "featurecla": "cape", "name": "Cape Bauld", "comment": null, "name_alt": null, "lat_y": 51.568576, "long_x": -55.430306, "region": "North America", "subregion": null, "min_zoom": 6.0, "label": null, "name_ar": "رأس بولد", "name_bn": "কেপ বাউল্ড", "name_de": "Cape Bauld", "name_en": "Cape Bauld", "name_es": "Cabo Bauld", "name_fr": "Cape Bauld", "name_el": "Ακρωτήριο Μπολντ", "name_hi": "केप बाउल्ड", "name_hu": "Bauld-fok", "name_id": "Tanjung Bauld", "name_it": "Capo Bauld", "name_ja": "ボールド岬", "name_ko": "케이프 볼드", "name_nl": "Cape Bauld", "name_pl": "Przylądek Bauld", "name_pt": "Cabo Bauld", "name_ru": "мыс Болд", "name_sv": "Cape Bauld", "name_tr": "Bauld Burnu", "name_vi": "Mũi Bauld", "name_zh": "鲍尔德角", "wikidataid": null, "ne_id": 1159104981, "name_fa": "دماغه بالد", "name_he": "כף באולד", "name_uk": "мис Баулд", "name_ur": "کیپ بالڈ", "name_zht": "鮑爾德角" }, "geometry": { "type": "Point", "coordinates": [ -55.430287238666267, 51.568487860150327 ] } },
{ "type": "Feature", "properties": { "scalerank": 5, "featurecla": "cape", "name": "Cape Fear", "comment": null, "name_alt": null, "lat_y": 33.867949, "long_x": -77.990568, "region": "North America", "subregion": null, "min_zoom": 6.0, "label": "Cape Fear", "name_ar": "رأس فير", "name_bn": "কেপ ফিয়ার", "name_de": "Cape Fear", "name_en": "Cape Fear", "name_es": "Cape Fear", "name_fr": "Cape Fear", "name_el": "Ακρωτήριο του Φόβου", "name_hi": "केप फियर", "name_hu": "Fear-fok", "name_id": "Tanjung Fear", "name_it": "Cape Fear", "name_ja": "ケープフェア", "name_ko": "케이프 피어", "name_nl": "Cape Fear", "name_pl": "Przylądek Cape Fear", "name_pt": "Cabo Fear", "name_ru": "Кейп-Фир", "name_sv": "Cape Fear", "name_tr": "Fear Burnu", "name_vi": "Mũi Fear", "name_zh": "菲尔角", "wikidataid": "Q1034413", "ne_id": 1159104983, "name_fa": "دماغه فیر", "name_he": "כף פיר", "name_uk": "Мис жаху", "name_ur": "کیپ فیئر", "name_zht": "非爾角" }, "geometry": { "type": "Point", "coordinates": [ -77.990589973041267, 33.867987371869077 ] } },
{ "type": "Feature", "properties": { "scalerank": 5, "featurecla": "island", "name": "I. Guadalupe", "comment": null, "name_alt": null, "lat_y": 29.052552, "long_x": -118.317465, "region": "Seven seas (open ocean)", "subregion": "North Pacific Ocean", "min_zoom": 6.0, "label": "I. Guadalupe", "name_ar": "جزيرة غوادالوبي", "name_bn": "আই. গুয়াদালুপে", "name_de": "Guadalupe", "name_en": "Guadalupe Island", "name_es": "Isla Guadalupe", "name_fr": "île Guadalupe", "name_el": "Νήσος Γουαδαλούπη", "name_hi": "द्वीप ग्वाडालूपे", "name_hu": "Guadalupe-sziget", "name_id": "Pulau Guadalupe", "name_it": "Guadalupe", "name_ja": "グアダルーペ島", "name_ko": "과달루페섬", "name_nl": "Isla Guadalupe", "name_pl": "Guadalupe", "name_pt": "Ilha de Guadalupe", "name_ru": "Гуадалупе", "name_sv": "Guadalupeön", "name_tr": "I. Guadalupe", "name_vi": "Đảo Guadalupe", "name_zh": "瓜达卢普岛", "wikidataid": "Q853909", "ne_id": 1159104985, "name_fa": "جزیره گوادلوپ", "name_he": "גואדלופה", "name_uk": "Гвадалупе", "name_ur": "I. گواڈالوپے", "name_zht": "瓜達盧普島" }, "geometry": { "type": "Point", "coordinates": [ -118.317494269916267, 29.052496649212827 ] } },
{ "type": "Feature", "properties": { "scalerank": 5, "featurecla": "island", "name": "Miquelon", "comment": null, "name_alt": null, "lat_y": 46.929526, "long_x": -56.329884, "region": "North America", "subregion": null, "min_zoom": 6.0, "label": "Miquelon", "name_ar": "ميكلون", "name_bn": "মিকুইলন", "name_de": "Sankt Pierre und Miquelon", "name_en": "Miquelon", "name_es": "Isla de Miquelón", "name_fr": "Miquelon", "name_el": "Μικελόν", "name_hi": "मिकेलॉन", "name_hu": "Miquelon", "name_id": "Miquelon", "name_it": "Miquelon", "name_ja": "ミクロン島", "name_ko": "미클롱", "name_nl": "Miquelon", "name_pl": "Miquelon", "name_pt": "Miquelão", "name_ru": "Микелон", "name_sv": "Miquelon", "name_tr": "Miquelon", "name_vi": "Đảo Miquelon", "name_zh": "密克隆岛", "wikidataid": "Q15076349", "ne_id": 1159104989, "name_fa": "میکوئلون", "name_he": "מיקלון-לנגלייד", "name_uk": "Міквелон", "name_ur": "میکیولون", "name_zht": "密克隆島" }, "geometry": { "type": "Point", "coordinates": [ -56.329884406635017, 46.929388739056577 ] } },
{ "type": "Feature", "properties": { "scalerank": 5, "featurecla": "island", "name": "I. Robinson Crusoe", "comment": null, "name_alt": null, "lat_y": -33.589852, "long_x": -78.872522, "region": "Seven seas (open ocean)", "subregion": "South Pacific Ocean", "min_zoom": 6.0, "label": "I. Robinson Crusoe", "name_ar": "جزيرة روبنسون كروزو", "name_bn": "আই. রবিনসন ক্রুসো", "name_de": "Robinsón Crusoe", "name_en": "Robinson Crusoe Island", "name_es": "Isla Robinson Crusoe", "name_fr": "île Robinson Crusoe", "name_el": "Νήσος Ροβινσώνα Κρούσου", "name_hi": "द्वीप रॉबिन्सन क्रूसो", "name_hu": "Robinson Crusoe-sziget", "name_id": "Pulau Robinson Crusoe", "name_it": "isola di Robinson Crusoe", "name_ja": "ロビンソン・クルーソー島", "name_ko": "로빈슨크루소섬", "name_nl": "Robinson Crusoe", "name_pl": "Robinson Crusoe", "name_pt": "Ilha Robinson Crusoe", "name_ru": "Остров Робинзона Крузо", "name_sv": "Robinson Crusoe-ön", "name_tr": "Robinson Crusoe Adası", "name_vi": "Đảo Robinson Crusoe", "name_zh": "鲁宾逊克鲁索岛", "wikidataid": "Q329422", "ne_id": 1159105027, "name_fa": "جزیره رابینسون کروزوئه", "name_he": "אי רובינזון קרוזו", "name_uk": "Острів Робінзона Крузо", "name_ur": "I. رابنسن کروزو", "name_zht": "魯賓遜克魯索島" }, "geometry": { "type": "Point", "coordinates": [ -78.872547980853767, -33.589654229693423 ] } },
{ "type": "Feature", "properties": { "scalerank": 5, "featurecla": "cape", "name": "Cabo Orange", "comment": null, "name_alt": null, "lat_y": 4.125735, "long_x": -51.242144, "region": "South America", "subregion": null, "min_zoom": 6.0, "label": "Cabo Orange", "name_ar": "كابو أورانج", "name_bn": "কাবো অরেঞ্জ", "name_de": "Cabo Orange", "name_en": "Cape Orange", "name_es": "Cabo Orange", "name_fr": "cap Orange", "name_el": "Κάμπο Όραντζ", "name_hi": "काबो ऑरेंज", "name_hu": "Cabo Orange", "name_id": "Tanjung Orange", "name_it": "Cabo Orange", "name_ja": "オランジェ岬", "name_ko": "카보 오렌지", "name_nl": "Cabo Orange", "name_pl": "Przylądek Orange", "name_pt": "Cabo Orange", "name_ru": "Кабо-Оранж", "name_sv": "Cabo Orange", "name_tr": "Cabo Orange", "name_vi": "Mũi Orange", "name_zh": "奥兰治角", "wikidataid": "Q963259", "ne_id": 1159105029, "name_fa": "کابو آرنج", "name_he": "כף אוראנג'", "name_uk": "Кабо-Оранж", "name_ur": "کابو اورنج", "name_zht": "橘角" }, "geometry": { "type": "Point", "coordinates": [ -51.262877669871791, 4.135614177285231 ] } },
{ "type": "Feature", "properties": { "scalerank": 5, "featurecla": "cape", "name": "Cabo de Santa Marta Grande", "comment": null, "name_alt": null, "lat_y": -28.558078, "long_x": -48.735526, "region": "South America", "subregion": null, "min_zoom": 6.0, "label": null, "name_ar": "كابو دي سانتا مارتا غراندي", "name_bn": "কাবো দে সান্তা মার্তা গ্র্যান্দে", "name_de": "Cabo de Santa Marta Grande", "name_en": "Cabo de Santa Marta Grande", "name_es": "Cabo de Santa Marta Grande", "name_fr": "Cabo de Santa Marta Grande", "name_el": "Κάμπο ντε Σάντα Μάρτα Γκράντε", "name_hi": "काबो द सांता मार्टा ग्रांडे", "name_hu": "Cabo de Santa Marta Grande", "name_id": "Tanjung Santa Marta Grande", "name_it": "Cabo de Santa Marta Grande", "name_ja": "サンタマルタ・グランデ岬", "name_ko": "카보 데 산타 마르타 그란데", "name_nl": "Cabo de Santa Marta Grande", "name_pl": "Przylądek Santa Marta Grande", "name_pt": "Cabo de Santa Marta Grande", "name_ru": "Кабо-де-Санта-Марта-Гранде", "name_sv": "Cabo de Santa Marta Grande", "name_tr": "Cabo de Santa Marta Grande", "name_vi": "Mũi Santa Marta Grande", "name_zh": "圣玛尔塔格兰德角", "wikidataid": null, "ne_id": 1159105031, "name_fa": "کابو د سانتا مارتا گرند", "name_he": "כף סנטה מרתה גרנדה", "name_uk": "Кабо-де-Санта-Марта-Гранде", "name_ur": "کابو ڈی سانٹا مارٹا گرانڈے", "name_zht": "大聖瑪爾塔角" }, "geometry": { "type": "Point", "coordinates": [ -48.803380377346642, -28.571982673235372 ] } },
{ "type": "Feature", "properties": { "scalerank": 5, "featurecla": "cape", "name": "Punta del Este", "comment": null, "name_alt": null, "lat_y": -34.975503, "long_x": -54.933154, "region": "South America", "subregion": null, "min_zoom": 6.0, "label": null, "name_ar": "بونتا دل إيستي", "name_bn": "পুন্তা দেল এস্তে", "name_de": "Punta del Este", "name_en": "Punta del Este", "name_es": "Punta del Este", "name_fr": "Punta del Este", "name_el": "Πούντα ντελ Έστε", "name_hi": "पुंटा डेल एस्टे", "name_hu": "Punta del Este", "name_id": "Punta del Este", "name_it": "Punta del Este", "name_ja": "プンタ・デル・エステ", "name_ko": "푼타 델 에스테", "name_nl": "Punta del Este", "name_pl": "Punta del Este", "name_pt": "Punta del Este", "name_ru": "мыс Пунта-дель-Эсте", "name_sv": "Punta del Este", "name_tr": "Punta del Este", "name_vi": "Mũi Este", "name_zh": "埃斯特角", "wikidataid": null, "ne_id": 1159105033, "name_fa": "پونتا دل استه", "name_he": "פונטה דל אסטה", "name_uk": "Пунта-дель-Есте", "name_ur": "پونٹا ڈیل ایسٹے", "name_zht": "埃斯特角" }, "geometry": { "type": "Point", "coordinates": [ -54.946287690703819, -34.96658679840526 ] } },
{ "type": "Feature", "properties": { "scalerank": 5, "featurecla": "cape", "name": "Cabo San Antonio", "comment": null, "name_alt": null, "lat_y": -36.381052, "long_x": -56.655377, "region": "South America", "subregion": null, "min_zoom": 6.0, "label": null, "name_ar": "كابو سان أنطونيو", "name_bn": "কাবো সান আন্তোনিও", "name_de": "Cabo San Antonio", "name_en": "Cape San Antonio", "name_es": "Cabo San Antonio", "name_fr": "Cabo San Antonio", "name_el": "Κάμπο Σαν Αντόνιο", "name_hi": "काबो सैन एंटोनियो", "name_hu": "Cabo San Antonio", "name_id": "Tanjung San Antonio", "name_it": "Cabo San Antonio", "name_ja": "サンアントニオ岬", "name_ko": "카보 산 안토니오", "name_nl": "Kaap San Antonio", "name_pl": "Przylądek San Antonio", "name_pt": "Cabo San Antonio", "name_ru": "Кабо-Сан-Антонио", "name_sv": "Cabo San Antonio", "name_tr": "Cabo San Antonio", "name_vi": "Mũi San Antonio", "name_zh": "圣安东尼奥角", "wikidataid": null, "ne_id": 1159105035, "name_fa": "کابو سن آنتونیو", "name_he": "כף סן אנטוניו", "name_uk": "Кабо-Сан-Антоніо", "name_ur": "کابو سان اینٹونیو", "name_zht": "聖安東尼奧角" }, "geometry": { "type": "Point", "coordinates": [ -56.716792100626165, -36.409599174389292 ] } },
{ "type": "Feature", "properties": { "scalerank": 5, "featurecla": "cape", "name": "Cabo Corrientes", "comment": null, "name_alt": null, "lat_y": -38.135985, "long_x": -57.546212, "region": "South America", "subregion": null, "min_zoom": 6.0, "label": null, "name_ar": "كابو كورينتس", "name_bn": "কাবো কোররিয়েন্তেস", "name_de": "Cabo Corrientes", "name_en": "Cabo Corrientes", "name_es": "Cabo Corrientes", "name_fr": "Cabo Corrientes", "name_el": "Κάμπο Κορριέντες", "name_hi": "काबो कोरियंटेस", "name_hu": "Cabo Corrientes", "name_id": "Tanjung Corrientes", "name_it": "Cabo Corrientes", "name_ja": "コリエンテス岬", "name_ko": "카보 코리엔테스", "name_nl": "Cabo Corrientes", "name_pl": "Przylądek Corrientes", "name_pt": "Cabo Corrientes", "name_ru": "Кабо-Корриентес", "name_sv": "Cabo Corrientes", "name_tr": "Cabo Corrientes", "name_vi": "Mũi Corrientes", "name_zh": "特斯角", "wikidataid": null, "ne_id": 1159105037, "name_fa": "کابو کورینته", "name_he": "כף קוריינטס", "name_uk": "Кабо Коррієнтес", "name_ur": "کابو کورائنٹیس", "name_zht": "科林特斯角" }, "geometry": { "type": "Point", "coordinates": [ -57.56252349612641, -38.066376942128464 ] } },
{ "type": "Feature", "properties": { "scalerank": 5, "featurecla": "cape", "name": "Punta Rasa", "comment": null, "name_alt": null, "lat_y": -40.834718, "long_x": -62.282201, "region": "South America", "subregion": null, "min_zoom": 6.0, "label": null, "name_ar": "بونتا راسا", "name_bn": "পুন্টা রাসা", "name_de": "Punta Rasa", "name_en": "Punta Rasa", "name_es": "Punta Rasa", "name_fr": "Punta Rasa", "name_el": "Πούντα Ράσα", "name_hi": "पुंटा रस", "name_hu": "Punta Rasa", "name_id": "Punta Rasa", "name_it": "Punta Rasa", "name_ja": "プンタ・ラサ", "name_ko": "푼타 라사", "name_nl": "Punta Rasa", "name_pl": "Punta Rasa", "name_pt": "Punta Rasa", "name_ru": "мыс Пунта-Раса", "name_sv": "Punta Rasa", "name_tr": "Punta Rasa", "name_vi": "Mũi Rasa", "name_zh": "拉莎角", "wikidataid": null, "ne_id": 1159105039, "name_fa": "پونتا راسا", "name_he": "פונטה ראסה", "name_uk": "Пунта-Раса", "name_ur": "پونٹا راسا", "name_zht": "拉薩角" }, "geometry": { "type": "Point", "coordinates": [ -62.25911745789756, -40.726264116567187 ] } },
{ "type": "Feature", "properties": { "scalerank": 5, "featurecla": "cape", "name": "Cabo Dos Bahías", "comment": null, "name_alt": null, "lat_y": -44.9887, "long_x": -65.615952, "region": "South America", "subregion": null, "min_zoom": 6.0, "label": null, "name_ar": "كابو دوس باهياس", "name_bn": "কাবো দোস বাহিয়াস", "name_de": "Cabo Dos Bahías", "name_en": "Cabo Dos Bahías", "name_es": "Cabo Dos Bahías", "name_fr": "Cabo Dos Bahías", "name_el": "Κάμπο Ντος Μπαίας", "name_hi": "काबो दोस बहियास", "name_hu": "Cabo Dos Bahías", "name_id": "Tanjung Dos Bahias", "name_it": "Cabo Dos Bahías", "name_ja": "ドス・バイアス岬", "name_ko": "카보 도스 바이아스", "name_nl": "Cabo Dos Bahías", "name_pl": "Przylądek Dos Bahías", "name_pt": "Cabo Dos Bahías", "name_ru": "Кабо-Дос-Баиас", "name_sv": "Cabo Dos Bahías", "name_tr": "Cabo Dos Bahías", "name_vi": "Mũi Dos Bahías", "name_zh": "达巴亚斯角", "wikidataid": null, "ne_id": 1159105043, "name_fa": "کابو دوس باهیاس", "name_he": "כף דוס בהיאס", "name_uk": "Кабо-дос-Байас", "name_ur": "کابو ڈوس باہیاس", "name_zht": "多斯巴哈斯角" }, "geometry": { "type": "Point", "coordinates": [ -65.543833445168801, -44.89439847091873 ] } },
{ "type": "Feature", "properties": { "scalerank": 5, "featurecla": "cape", "name": "Cabo Delgado", "comment": null, "name_alt": null, "lat_y": -10.670103, "long_x": 40.624309, "region": "Africa", "subregion": null, "min_zoom": 6.0, "label": "Cabo Delgado", "name_ar": "كابو ديلجادو", "name_bn": "কাবো দেল্গাদো", "name_de": "Kap Delgado", "name_en": "Cape Delgado", "name_es": "Cabo Delgado", "name_fr": "cap Delgado", "name_el": "Κάμπο Ντελγκάντο", "name_hi": "काबो डेलगाडो", "name_hu": "Cabo Delgado", "name_id": "Tanjung Delgado", "name_it": "Capo Delgado", "name_ja": "デルガド岬", "name_ko": "카보 델가도", "name_nl": "Cape Delgado", "name_pl": "Przylądek Delgado", "name_pt": "Cabo Delgado", "name_ru": "Кабо-Дельгадо", "name_sv": "Cabo Delgado", "name_tr": "Cabo Delgado", "name_vi": "Mũi Delgado", "name_zh": "德尔加杜角", "wikidataid": "Q1728307", "ne_id": 1159105111, "name_fa": "کابو دلگادو", "name_he": "כף דלגדו", "name_uk": "Кабо-Делгадо", "name_ur": "کابو ڈیلگاڈو", "name_zht": "德尔加杜角" }, "geometry": { "type": "Point", "coordinates": [ 40.624400261333733, -10.670098565630923 ] } },
{ "type": "Feature", "properties": { "scalerank": 5, "featurecla": "cape", "name": "Ponta da Barra", "comment": null, "name_alt": null, "lat_y": -23.829888, "long_x": 35.515696, "region": "Africa", "subregion": null, "min_zoom": 6.0, "label": null, "name_ar": "بونتا دا بارا", "name_bn": "পন্তা দা বাররা", "name_de": "Ponta da Barra", "name_en": "Ponta da Barra", "name_es": "Ponta da Barra", "name_fr": "Ponta da Barra", "name_el": "Πόντα ντα Μπάρα", "name_hi": "पोंटा दा बारास", "name_hu": "Ponta da Barra-fok", "name_id": "Ponta da Barra", "name_it": "Ponta da Barra", "name_ja": "バーラ岬", "name_ko": "폰타 다 바라", "name_nl": "Ponta da Barra", "name_pl": "Ponta da Barra", "name_pt": "Ponta da Barra", "name_ru": "мыс Понта-да-Барра", "name_sv": "Ponta da Barra", "name_tr": "Ponta da Barra", "name_vi": "Mũi Barra", "name_zh": "巴拉角", "wikidataid": null, "ne_id": 1159105115, "name_fa": "پونتا د بارا", "name_he": "פונטה דה בארה", "name_uk": "Понта-да-Барра", "name_ur": "پونٹا ڈا بیرا", "name_zht": "巴拉角" }, "geometry": { "type": "Point", "coordinates": [ 35.515635612896233, -23.830010675005923 ] } },
{ "type": "Feature", "properties": { "scalerank": 5, "featurecla": "cape", "name": "Ponta São Sebastio", "comment": null, "name_alt": null, "lat_y": -22.118899, "long_x": 35.480417, "region": "Africa", "subregion": null, "min_zoom": 6.0, "label": null, "name_ar": "بونتا ساو سيباستيو", "name_bn": "পন্তা সাও সেবাস্তিও", "name_de": "Ponta São Sebastiao", "name_en": "Ponta São Sebastião", "name_es": "Ponta São Sebastião", "name_fr": "Ponta São Sebastio", "name_el": "Πόντα Σάο Σεμπάστοπ", "name_hi": "पोंटा साओ सेबेस्टियो", "name_hu": "Ponta São Sebastio-fok", "name_id": "Ponta Sao Sebastio", "name_it": "Ponta São Sebastio", "name_ja": "セバスティオ岬", "name_ko": "폰타 상 세바스티오", "name_nl": "Ponta São Sebastião", "name_pl": "Ponta São Sebastio", "name_pt": "Ponta de São Sebastião", "name_ru": "мыс Понта-Сан-Себаштиан", "name_sv": "Ponta São Sebastio", "name_tr": "Ponta São Sebastio", "name_vi": "Mũi São Sebastio", "name_zh": "圣塞巴斯蒂安角", "wikidataid": null, "ne_id": 1159105117, "name_fa": "پونتا سائو سباستیو", "name_he": "פונטה סאו סבסטיו", "name_uk": "Понта-Сао-Себастіо", "name_ur": "پونٹا ساؤ سیبیسٹیو", "name_zht": "聖塞巴斯帝歐角" }, "geometry": { "type": "Point", "coordinates": [ 35.480235222271233, -22.118829034380923 ] } },
{ "type": "Feature", "properties": { "scalerank": 5, "featurecla": "cape", "name": "Ras Cantin", "comment": null, "name_alt": null, "lat_y": 32.581636, "long_x": -9.273918, "region": "Africa", "subregion": null, "min_zoom": 6.0, "label": "Ras Cantin", "name_ar": "رأس كانتين", "name_bn": "রাস ক্যান্টিন", "name_de": "Ras Cantin", "name_en": "Ras Cantin", "name_es": "Ras Cantin", "name_fr": "cap Cantin", "name_el": "Ρας Κάντιν", "name_hi": "रास कैंटिन", "name_hu": "Ras Cantin", "name_id": "Ras Cantin", "name_it": "Ras Cantin", "name_ja": "ラスカンタン", "name_ko": "라스 칸틴", "name_nl": "Ras Cantin", "name_pl": "Ras Cantin", "name_pt": "Ras Cantin", "name_ru": "Кантен", "name_sv": "Ras Cantin", "name_tr": "Ras Cantin", "name_vi": "Mũi Ras Cantin", "name_zh": "坎廷角", "wikidataid": "Q18214270", "ne_id": 1159105119, "name_fa": "راس کانتین", "name_he": "כף קנטין", "name_uk": "Рас-Кантін", "name_ur": "راس کینٹن", "name_zht": "拉斯坎廷角" }, "geometry": { "type": "Point", "coordinates": [ -9.273915168353767, 32.581610418744077 ] } },
{ "type": "Feature", "properties": { "scalerank": 5, "featurecla": "cape", "name": "Ra’s Kasr", "comment": null, "name_alt": null, "lat_y": 18.076817, "long_x": 38.573746, "region": "Africa", "subregion": null, "min_zoom": 6.0, "label": null, "name_ar": "رأس قصر", "name_bn": "রা'স কাসর", "name_de": "Ras Kasar", "name_en": "Ras Kasar", "name_es": "Ra’s Kasr", "name_fr": "Ra’s Kasr", "name_el": "Ρα'ς Κασε", "name_hi": "रास कस्र", "name_hu": "Ra’s Kasr", "name_id": "Ras Kasr", "name_it": "Ra’s Kasr", "name_ja": "ラスカサール", "name_ko": "라스 카스르", "name_nl": "Ras Kasar", "name_pl": "Kasr", "name_pt": "Ra’s Kasr", "name_ru": "мвс Рас-Каср", "name_sv": "Ra’s Kasr", "name_tr": "Ra’s Kasr", "name_vi": "Mũi Ra’s Kasr", "name_zh": "卡斯尔角", "wikidataid": null, "ne_id": 1159105121, "name_fa": "رأس کسر", "name_he": "כף קאסר", "name_uk": "Рас-Каср", "name_ur": "راس قصر", "name_zht": "卡斯爾角" }, "geometry": { "type": "Point", "coordinates": [ 38.580277358719187, 18.075167704493374 ] } },
{ "type": "Feature", "properties": { "scalerank": 5, "featurecla": "cape", "name": "Ponta de Jericoacoara", "comment": null, "name_alt": null, "lat_y": -2.85044, "long_x": -40.067208, "region": "South America", "subregion": null, "min_zoom": 6.0, "label": null, "name_ar": "بونتا دي جيريكوكوارا", "name_bn": "পন্তা দে জেরিকোয়াকোয়ারা", "name_de": "Ponta de Jericoacoara", "name_en": "Jericoacoara", "name_es": "Ponta de Jericoacoara", "name_fr": "Ponta de Jericoacoara", "name_el": "Πόντα ντε Χερικοακοάρα", "name_hi": "पोंटा डे जेरिकोकोआरा", "name_hu": "Ponta de Jericoacoara-fok", "name_id": "Ponta de Jericoacoara", "name_it": "Ponta de Jericoacoara", "name_ja": "ジェリコアコアラ岬", "name_ko": "폰타 데 제리코아코아라", "name_nl": "Ponta de Jericoacoara", "name_pl": "Ponta de Jericoacoara", "name_pt": "Ponta de Jericoacoara", "name_ru": null, "name_sv": "Ponta de Jericoacoara", "name_tr": "Ponta de Jericoacoara", "name_vi": "Mũi Jericoacoara", "name_zh": "杰里科科拉角", "wikidataid": null, "ne_id": 1159105123, "name_fa": "پونتا د جریکوئاکوئارا", "name_he": "פונטה דה יריקואקוארה", "name_uk": "Понта-де-Джерікоакоара", "name_ur": "پونٹا ڈی جیریکوکورا", "name_zht": "熱里科阿科阿拉角" }, "geometry": { "type": "Point", "coordinates": [ -39.991649927946355, -2.851822991583529 ] } },
{ "type": "Feature", "properties": { "scalerank": 5, "featurecla": "cape", "name": "Cabo de São Roque", "comment": null, "name_alt": null, "lat_y": -5.193476, "long_x": -35.447654, "region": "South America", "subregion": null, "min_zoom": 6.0, "label": "Cabo de São Roque", "name_ar": "كابو دي ساو روك", "name_bn": "কাবো দে সাও রোকে", "name_de": "Rochuskap", "name_en": "Cape São Roque", "name_es": "Cabo de São Roque", "name_fr": "cap Saint Roque", "name_el": "Κάμπο ντε Σάο Ρόκε", "name_hi": "काबो द साओ रोके", "name_hu": "Cabo de São Roque", "name_id": "Tanjung São Roque", "name_it": "Capo San Rocco", "name_ja": "サンロケ岬", "name_ko": "카보 데 상 로케", "name_nl": "Cape São Roque", "name_pl": "São Roque", "name_pt": "Cabo de São Roque", "name_ru": "мыс Сан-Роке", "name_sv": "Cabo de São Roque", "name_tr": "Cabo de São Roque", "name_vi": "Mũi São Roque", "name_zh": "聖洛克岬", "wikidataid": "Q2535130", "ne_id": 1159105125, "name_fa": "کابو دو سائو راک", "name_he": "כף דה סאו רוקה", "name_uk": "Кабо-де-Сао-Рок", "name_ur": "کابو ڈی ساؤ روق", "name_zht": "聖洛克岬" }, "geometry": { "type": "Point", "coordinates": [ -35.509949006515122, -5.156866121305913 ] } },
{ "type": "Feature", "properties": { "scalerank": 5, "featurecla": "cape", "name": "Ponta da Baleia", "comment": null, "name_alt": null, "lat_y": -17.710136, "long_x": -39.157619, "region": "South America", "subregion": null, "min_zoom": 6.0, "label": null, "name_ar": "بونتا دا باليا", "name_bn": "পন্তা দা বালেইয়া", "name_de": "Ponta da Baleia", "name_en": "Ponta da Baleia", "name_es": "Ponta da Baleia", "name_fr": "Ponta Baleia", "name_el": "Πόντα ντα Μπαλέια", "name_hi": "पोंटा दा बलिया", "name_hu": "Ponta da Baleia-fok", "name_id": "Ponta da Baleia", "name_it": "Ponta da Baleia", "name_ja": "バレイア岬", "name_ko": "폰타 다 발레이아", "name_nl": "Ponta da Baleia", "name_pl": "Ponta da Baleia", "name_pt": "Ponta da Baleia", "name_ru": "мыс Понта-да-Балея", "name_sv": "Ponta da Baleia", "name_tr": "Ponta da Baleia", "name_vi": "Mũi Baleia", "name_zh": "巴莱亚角", "wikidataid": null, "ne_id": 1159105127, "name_fa": "پونتا د بالئیا", "name_he": "פונטה דה באליה", "name_uk": "Понта-да-Балейа", "name_ur": "پونٹا ڈا بیلیا", "name_zht": "巴列亞角" }, "geometry": { "type": "Point", "coordinates": [ -39.14557867836578, -17.678753845220847 ] } },
{ "type": "Feature", "properties": { "scalerank": 5, "featurecla": "cape", "name": "Cabo de São Tomé", "comment": null, "name_alt": null, "lat_y": -21.996382, "long_x": -41.009692, "region": "South America", "subregion": null, "min_zoom": 6.0, "label": "Cabo de São Tomé", "name_ar": "كابو دي ساو تومي", "name_bn": "কাবো দে সাও তোমে", "name_de": "Cabo de São Tomé", "name_en": "Cabo de São Tomé", "name_es": "Cabo de São Tomé", "name_fr": "Cabo de São Tomé", "name_el": "Κάμπο ντε Σάο Τομέ", "name_hi": "काबो द साओ तोमे", "name_hu": "Cabo de São Tomé", "name_id": "Tanjung Sao Tome", "name_it": "Cabo de São Tomé", "name_ja": "サントメ岬", "name_ko": "카보 데 상 투메", "name_nl": "Cabo de São Tomé", "name_pl": "Cabo de São Tomé", "name_pt": "Cabo de São Tomé", "name_ru": "мыс Сан-Томе", "name_sv": "Cabo de São Tomé", "name_tr": "Cabo de São Tomé", "name_vi": "Mũi São Tomé", "name_zh": "圣多美角", "wikidataid": "Q8254538", "ne_id": 1159105129, "name_fa": "کابودو سائو تومه", "name_he": "כף סאו טום", "name_uk": "Кабо-де-Сао-Том", "name_ur": "کابو ڈی ساؤ ٹوم", "name_zht": "圣多美角" }, "geometry": { "type": "Point", "coordinates": [ -40.987639903137612, -21.971754611783773 ] } },
{ "type": "Feature", "properties": { "scalerank": 5, "featurecla": "cape", "name": "Cabo Frio", "comment": null, "name_alt": null, "lat_y": -22.869501, "long_x": -41.962188, "region": "South America", "subregion": null, "min_zoom": 6.0, "label": "Cabo Frio", "name_ar": "كابو فريو", "name_bn": "কাবো ফ্রিয়ো", "name_de": "Cabo Frio", "name_en": "Cabo Frio", "name_es": "Cabo Frío", "name_fr": "Cabo Frio", "name_el": "Κάμπο Φρίο", "name_hi": "काबो फ्रियो", "name_hu": "Cabo Frio", "name_id": "Tanjung Frio", "name_it": "Cabo Frio", "name_ja": "フリオ岬", "name_ko": "카보 프리오", "name_nl": "Cabo Frio", "name_pl": "Przylądek Frio", "name_pt": "Cabo Frio", "name_ru": "Кабо-Фрио", "name_sv": "Cabo Frio", "name_tr": "Cabo Frio", "name_vi": "Mũi Frio", "name_zh": "弗里乌角", "wikidataid": null, "ne_id": 1159105133, "name_fa": "کابو فریو", "name_he": "כף פריו", "name_uk": "Кабо-Фріо", "name_ur": "کابو فرائو", "name_zht": "弗里奧角" }, "geometry": { "type": "Point", "coordinates": [ -41.890156274740562, -22.759730815669258 ] } },
{ "type": "Feature", "properties": { "scalerank": 5, "featurecla": "cape", "name": "Cabo San Diego", "comment": null, "name_alt": null, "lat_y": -54.6406, "long_x": -65.21365, "region": "South America", "subregion": null, "min_zoom": 6.0, "label": "Cabo San Diego", "name_ar": "كابو سان دييغو", "name_bn": "কাবো সান দিয়েগো", "name_de": "Kap San Diego", "name_en": "Cabo San Diego", "name_es": "Cabo San Diego", "name_fr": "cap San Diego", "name_el": "Κάμπο Σαν Ντιέγκο", "name_hi": "काबो सैन डिएगो", "name_hu": "Cabo San Diego", "name_id": "Tanjung San Diego", "name_it": "capo San Diego", "name_ja": "サンディエゴ岬", "name_ko": "카보 샌디에이고", "name_nl": "Cabo San Diego", "name_pl": "Przylądek San Diego", "name_pt": "Cabo San Diego", "name_ru": "Кабо-Сан-Диего", "name_sv": "Cabo San Diego", "name_tr": "Cabo San Diego", "name_vi": "Mũi San Diego", "name_zh": "圣地亚哥角", "wikidataid": "Q5738394", "ne_id": 1159105135, "name_fa": "کابو سن دیگو", "name_he": "כף סן דייגו", "name_uk": "Кабо-Сан-Дієго", "name_ur": "کابو سان ڈیگو", "name_zht": "聖地亞哥角" }, "geometry": { "type": "Point", "coordinates": [ -65.213612433978767, -54.640679620318423 ] } },
{ "type": "Feature", "properties": { "scalerank": 5, "featurecla": "cape", "name": "Cabo Tres Puntas", "comment": null, "name_alt": null, "lat_y": -47.237629, "long_x": -65.774707, "region": "South America", "subregion": null, "min_zoom": 6.0, "label": null, "name_ar": "كابو تريس بونتاس", "name_bn": "কাবো ত্রেস পান্তাস", "name_de": "Cabo Tres Puntas", "name_en": "Cape Tres Puntas", "name_es": "Cabo Tres Puntas", "name_fr": "Cabo Tres Puntas", "name_el": "Κάμπο Τρες Πούντας", "name_hi": "काबो ट्रेस पंटास", "name_hu": "Cabo Tres Puntas", "name_id": "Tanjung Tres Puntas", "name_it": "Cabo Tres Puntas", "name_ja": "トレスプンタス岬", "name_ko": "카보 트레스 푼타스", "name_nl": "Cabo Tres Puntas", "name_pl": "Przylądek Tres Puntas", "name_pt": "Cabo Tres Puntas", "name_ru": "Кабо-Трес-Пунтас", "name_sv": "Cabo Tres Puntas", "name_tr": "Cabo Tres Puntas", "name_vi": "Mũi Tres Puntas", "name_zh": "特雷斯蓬塔斯角", "wikidataid": null, "ne_id": 1159105137, "name_fa": "کابو ترس پونتاس", "name_he": "כף טרס פונטאס", "name_uk": "Кабо-Трес-Пунтас", "name_ur": "کابو ٹریس پنٹاس", "name_zht": "特雷斯蓬塔斯角" }, "geometry": { "type": "Point", "coordinates": [ -65.744398163283677, -47.328778975372465 ] } },
{ "type": "Feature", "properties": { "scalerank": 5, "featurecla": "cape", "name": "Cap Saint André", "comment": null, "name_alt": null, "lat_y": -16.174457, "long_x": 44.467405, "region": "Africa", "subregion": null, "min_zoom": 6.0, "label": "Cap Saint André", "name_ar": "رأس سان أندريه", "name_bn": "ক্যাপ সেন্ট আন্দ্রে", "name_de": "Cap Saint André", "name_en": "Tanjona Vilanandro", "name_es": "Cabo de Santo André", "name_fr": "cap Saint-André", "name_el": "Καπ Σέν Αντρέ", "name_hi": "कैप सेंट आंद्रे", "name_hu": "Saint André-fok", "name_id": "Tanjung Saint Andre", "name_it": "Cap Saint André", "name_ja": "サンタンドレ岬", "name_ko": "캡 생 안드레", "name_nl": "Tanjona Vilanandro", "name_pl": "Przylądek Saint André", "name_pt": "Cabo Saint-André", "name_ru": "мыс Сен-Андре", "name_sv": "Cap Saint André", "name_tr": "Cap Saint André", "name_vi": "Mũi Saint André", "name_zh": "圣安德烈角", "wikidataid": "Q2937092", "ne_id": 1159105139, "name_fa": "دماغه سنت آندره", "name_he": "כף סנט אנדרו", "name_uk": "мис Сант-Андре", "name_ur": "کیپ سینٹ آندرے", "name_zht": "聖安德烈角" }, "geometry": { "type": "Point", "coordinates": [ 44.467295769146233, -16.174493096880923 ] } },
{ "type": "Feature", "properties": { "scalerank": 5, "featurecla": "cape", "name": "Cape St. Lucia", "comment": null, "name_alt": null, "lat_y": -28.552694, "long_x": 32.367221, "region": "Africa", "subregion": null, "min_zoom": 6.0, "label": null, "name_ar": "رأس سان لوسيا", "name_bn": "কেপ সেন্ট লুসিয়া", "name_de": "Cape St. Lucia", "name_en": "Cape Vidal", "name_es": "Cabo St. Lucia", "name_fr": "Cape St. Lucia", "name_el": "Ακρωτήριο Αγία Λουκία", "name_hi": "केप सेंट लूसिया", "name_hu": "Szent Luca-fok", "name_id": "Tanjung St. Lucia", "name_it": "Cape St. Lucia", "name_ja": "セント・ルチア岬", "name_ko": "케이프 세인트 루시아", "name_nl": "Cape St. Lucia", "name_pl": "Cape St. Lucia", "name_pt": "Cabo St. Lucia", "name_ru": "мыс Сент-Люсия", "name_sv": "Cape St. Lucia", "name_tr": "St. Lucia Burnu", "name_vi": "Mũi St. Lucia", "name_zh": "圣卢西亚角", "wikidataid": null, "ne_id": 1159105141, "name_fa": "دماغه سنت لوسیا", "name_he": "כף סנט לוסיה", "name_uk": "мис Сент-Лючіа", "name_ur": "کیپ سینٹ لوشیا", "name_zht": "聖露西亞角" }, "geometry": { "type": "Point", "coordinates": [ 32.367320183208733, -28.552666925005923 ] } },
{ "type": "Feature", "properties": { "scalerank": 5, "featurecla": "cape", "name": "Cape St. Francis", "comment": null, "name_alt": null, "lat_y": -34.171766, "long_x": 24.817688, "region": "Africa", "subregion": null, "min_zoom": 6.0, "label": null, "name_ar": "رأس سان فرانسيس", "name_bn": "কেপ সেন্ট ফ্রান্সিস", "name_de": "Cape St. Francis", "name_en": "Cape St. Francis", "name_es": "Cabo San Francisco", "name_fr": "Cape St. Francis", "name_el": "Ακρωτήριο Αγίου Φραγκίσκου", "name_hi": "केप सेंट फ्रांसिस", "name_hu": "Szent Ferenc-fok", "name_id": "Cape St. Francis", "name_it": "Cape St. Francis", "name_ja": "セント・フランシス岬", "name_ko": "케이프 세인트 프랜시스", "name_nl": "Cape St. Francis", "name_pl": "Cape St. Francis", "name_pt": "Cabo St. Francis", "name_ru": "мыс Святого Франциска", "name_sv": "Cape St. Francis", "name_tr": "St. Francis Burnu", "name_vi": "Mũi St. Francis", "name_zh": "圣弗朗西斯角", "wikidataid": null, "ne_id": 1159105143, "name_fa": "دماغه سنت فرانسیس", "name_he": "כף סנט פרנסיס", "name_uk": "мис Сант-Френсіс", "name_ur": "کیپ سینٹ فرانسس", "name_zht": "聖法蘭西斯角" }, "geometry": { "type": "Point", "coordinates": [ 24.841436130327988, -34.188610223163138 ] } },
{ "type": "Feature", "properties": { "scalerank": 5, "featurecla": "island", "name": "Minamitori-shima", "comment": null, "name_alt": "Marcus I.", "lat_y": 24.319813, "long_x": 153.958899, "region": "Seven seas (open ocean)", "subregion": "North Pacific Ocean", "min_zoom": 6.0, "label": "Minamitori-shima", "name_ar": "مينامي-توري-شيما", "name_bn": "মিনামিতোরি-শিমা", "name_de": "Minami-Torishima", "name_en": "Minamitorishima", "name_es": "Minami Torishima", "name_fr": "île Minamitori", "name_el": "Μινάμι-Τόρι-σίμα", "name_hi": "मिनामितोरी-शिमा", "name_hu": "Minamitori-shima", "name_id": "Minamitorishima", "name_it": "Minami Torishima", "name_ja": "南鳥島", "name_ko": "미나미토리섬", "name_nl": "Minamitorishima", "name_pl": "Minami Tori-shima", "name_pt": "Minamitorishima", "name_ru": "Минамитори", "name_sv": "Minami-Torishima", "name_tr": "Minami Torishima", "name_vi": "Minamitorishima", "name_zh": "南鸟岛", "wikidataid": "Q1047492", "ne_id": 1159105145, "name_fa": "مینامی-توری-شیما", "name_he": "מינציו", "name_uk": "Острів Мінамі-Торісіма", "name_ur": "مینامی توری شیما", "name_zht": "南鳥島" }, "geometry": { "type": "Point", "coordinates": [ 153.958872917583733, 24.319769598431577 ] } },
{ "type": "Feature", "properties": { "scalerank": 5, "featurecla": "island", "name": "Islas de Martín Vaz", "comment": null, "name_alt": null, "lat_y": -20.559422, "long_x": -29.338439, "region": "Seven seas (open ocean)", "subregion": "Southern Atlantic Ocean", "min_zoom": 6.0, "label": "Is. Martín Vaz", "name_ar": "جزر مارتن فاز", "name_bn": "আইসেলস দে মার্টিন ওয়াজ", "name_de": "Islas de Martín Vaz", "name_en": "Islas de Martín Vaz", "name_es": "Islas de Martín Vaz", "name_fr": "Martim Vaz", "name_el": "Ίσλας ντε Μαρτίν Βαζ", "name_hi": "इस्ला द मार्टिन वाज़", "name_hu": "Islas de Martín Vaz", "name_id": "Pulau Martin Vaz", "name_it": "Islas de Martín Vaz", "name_ja": "マルティン・バズ諸島", "name_ko": "이슬라스 데 마르틴 바즈", "name_nl": "Martín Vaz (eilandengroep)", "name_pl": "Trindade oraz Martim Vaz", "name_pt": "Ilhas de Martim Vaz", "name_ru": "острова Триндади-э-Мартин-Вас", "name_sv": "Islas de Martín Vaz", "name_tr": "Islas de Martín Vaz", "name_vi": "Đảo Martín Vaz", "name_zh": "马丁瓦兹群岛", "wikidataid": "Q17505593", "ne_id": 1159105147, "name_fa": "جزیره مارتین واز", "name_he": "איי דה מרטין ואז", "name_uk": "острови Мартин-Вас", "name_ur": "ایسلاس ڈی مارٹن واز", "name_zht": "馬丁瓦斯群島" }, "geometry": { "type": "Point", "coordinates": [ -29.338429328510017, -20.559502862505923 ] } },
{ "type": "Feature", "properties": { "scalerank": 5, "featurecla": "island", "name": "Rockall", "comment": null, "name_alt": null, "lat_y": 58.163524, "long_x": -12.408715, "region": "Seven seas (open ocean)", "subregion": "North Atlantic Ocean", "min_zoom": 6.0, "label": "Rockall", "name_ar": "روكول", "name_bn": "রকল", "name_de": "Rockall", "name_en": "Rockall", "name_es": "Rockall", "name_fr": "Rockall", "name_el": "Ρόκαλ", "name_hi": "रॉकल", "name_hu": "Rockall", "name_id": "Rockall", "name_it": "Rockall", "name_ja": "ロッコール島", "name_ko": "로칼섬", "name_nl": "Rockall", "name_pl": "Rockall", "name_pt": "Rockall", "name_ru": "Роколл", "name_sv": "Rockall", "name_tr": "Rockall", "name_vi": "Rockall", "name_zh": "罗科尔", "wikidataid": "Q206137", "ne_id": 1159105151, "name_fa": "راکال", "name_he": "רוקול", "name_uk": "Рокол", "name_ur": "راکٹیل", "name_zht": "羅科爾" }, "geometry": { "type": "Point", "coordinates": [ -12.408741828510017, 58.163397528119077 ] } },
{ "type": "Feature", "properties": { "scalerank": 5, "featurecla": "island", "name": "I. de Cozumel", "comment": null, "name_alt": null, "lat_y": 20.444687, "long_x": -86.880555, "region": "North America", "subregion": null, "min_zoom": 6.0, "label": "I. de Cozumel", "name_ar": "كوزوميل", "name_bn": "আই. দে কোজুমেল", "name_de": "Cozumel", "name_en": "Cozumel Island", "name_es": "Isla Cozumel", "name_fr": "Cozumel", "name_el": "Κόζουμελ", "name_hi": "द्वीप डी कोज़ुमेले", "name_hu": "Cozumel", "name_id": "Cozumel", "name_it": "Cozumel", "name_ja": "コズメル", "name_ko": "아일랜드 드 코수멜", "name_nl": "Cozumel Island", "name_pl": "Cozumel", "name_pt": "Cozumel", "name_ru": "Косумель", "name_sv": "Cozumel", "name_tr": "Cozumel", "name_vi": "Cozumel", "name_zh": "科苏梅尔岛", "wikidataid": "Q20119933", "ne_id": 1159105153, "name_fa": "کوزومل", "name_he": "קוסומל", "name_uk": "Косумель", "name_ur": "I۔ ڈی کوزومل", "name_zht": "科蘇梅爾島" }, "geometry": { "type": "Point", "coordinates": [ -86.880604621478767, 20.444708563275327 ] } },
{ "type": "Feature", "properties": { "scalerank": 5, "featurecla": "island", "name": "Bermuda Islands", "comment": null, "name_alt": null, "lat_y": 32.317339, "long_x": -64.742895, "region": "Seven seas (open ocean)", "subregion": "North Atlantic Ocean", "min_zoom": 6.0, "label": null, "name_ar": "جزر برمودا", "name_bn": "বারমুডা আইল্যান্ড", "name_de": "Bermuda", "name_en": "Bermuda", "name_es": "Islas Bermudas", "name_fr": "Bermudes", "name_el": "Νήσοι των Βερμούδων", "name_hi": "बरमूडा द्वीप", "name_hu": "Bermuda-szigetek", "name_id": "Kepulauan Bermuda", "name_it": "Bermuda", "name_ja": "バミューダ諸島", "name_ko": "버뮤다 아일랜즈", "name_nl": "Bermuda (eilandengroep)", "name_pl": "Bermudy", "name_pt": "Bermudas", "name_ru": "Бермудские острова", "name_sv": "Bermudaöarna", "name_tr": "Bermuda Adaları", "name_vi": "Quần đảo Bermuda", "name_zh": "百慕大群岛", "wikidataid": null, "ne_id": 1159105155, "name_fa": "جزایر برمودا", "name_he": "איי ברמודה", "name_uk": "Бермудські острови", "name_ur": "برمودہ جزائر", "name_zht": "百慕達群島" }, "geometry": { "type": "Point", "coordinates": [ -64.742909308978767, 32.317267157025327 ] } }
]
}
